product_title,product_link,company_name,company_link,is_verified_exporter,city_region,city,address_details,phone_number,phone_number_extension
"Transparent Plastic Baby Sipper Bottle, Capacity: 100 mL, 3-12 Months",https://www.indiamart.com/proddetail/baby-sipper-bottle-2852304846830.html?pos=1&kwd=plastic baby bottle&tags=A||||8211.142|Price|product|||TS|rsf:gd-|-stype:attr=1|qr_nm:gd|res:RC5|com-cf:nl|ptrs:na|ktp:N0|mc:22704|mtp:S|qry_typ:P|lang:en|wc:3|flavl:4|cs:9600|v=4,P For Panda Baby Products Private Limited,https://www.p4pandababyproducts.com/?pos=1&kwd=plastic baby bottle&tags=A||||8211.142|Price|product|||TS|rsf:gd-|-stype:attr=1|qr_nm:gd|res:RC5|com-cf:nl|ptrs:na|ktp:N0|mc:22704|mtp:S|qry_typ:P|lang:en|wc:3|flavl:4|cs:9600|v=4,False,Goregaon West,Mumbai,"904 A Wing,9 Th Floor,Triple S Heights,Jakeria Road, Goregaon West, Mumbai - 400064, Dist.Mumbai, Maharashtra",7942710871,
Multicolor Baby Feeding Bottle,https://www.indiamart.com/proddetail/baby-feeding-bottle-2581475573.html?pos=2&kwd=plastic baby bottle&tags=A||||8752.144|Price|product|||TS|rsf:gd-|-stype:attr=1|qr_nm:gd|res:RC5|com-cf:nl|ptrs:na|ktp:N0|mc:22704|mtp:S|qry_typ:P|lang:en|wc:3|flavl:4|cs:9600|v=4,Dolphin Baby Product,https://www.dolphinbabyproducts.com/?pos=2&kwd=plastic baby bottle&tags=A||||8752.144|Price|product|||TS|rsf:gd-|-stype:attr=1|qr_nm:gd|res:RC5|com-cf:nl|ptrs:na|ktp:N0|mc:22704|mtp:S|qry_typ:P|lang:en|wc:3|flavl:4|cs:9600|v=4,False,Inderlok,New Delhi,"No. 488, 1st Floor, Shahzada Bagh, Industrial Area Phase 1, Inderlok, New Delhi - 110035, Dist.Delhi, Delhi",8048965296,
"Size: medium Silicon Baby Feeding Bottle, Age Group: 3-12 Months, Capacity: 250ml",https://www.indiamart.com/proddetail/silicon-baby-feeding-bottle-26171228255.html?pos=3&kwd=plastic baby bottle&tags=A||||8752.144|Price|product|||TS|rsf:gd-|-stype:attr=1|qr_nm:gd|res:RC5|com-cf:nl|ptrs:na|ktp:N0|mc:22704|mtp:S|qry_typ:P|lang:en|wc:3|flavl:4|cs:9600|v=4,Urbancube,https://www.indiamart.com/urbancube/?pos=3&kwd=plastic baby bottle&tags=A||||8752.144|Price|product|||TS|rsf:gd-|-stype:attr=1|qr_nm:gd|res:RC5|com-cf:nl|ptrs:na|ktp:N0|mc:22704|mtp:S|qry_typ:P|lang:en|wc:3|flavl:4|cs:9600|v=4,False,Kamla Nagar,New Delhi,"Ground Floor, 14 UA, Jawahar Nagar, Kamla Nagar, New Delhi - 110007, Dist.Delhi, Delhi",8048980014,
"PP Plastic Baby Feeding Bottle, Capacity: 150 ml",https://www.indiamart.com/proddetail/plastic-baby-feeding-bottle-2854760038955.html?pos=4&kwd=plastic baby bottle&tags=A||||8741.812|Price|product|||MDC|rsf:gd-|-stype:attr=1|qr_nm:gd|res:RC5|com-cf:nl|ptrs:na|ktp:N0|mc:22704|mtp:S|qry_typ:P|lang:en|wc:3|flavl:4|cs:9600|v=4,Royal Baby Products (India),https://www.indiamart.com/royal-baby-products/?pos=4&kwd=plastic baby bottle&tags=A||||8741.812|Price|product|||MDC|rsf:gd-|-stype:attr=1|qr_nm:gd|res:RC5|com-cf:nl|ptrs:na|ktp:N0|mc:22704|mtp:S|qry_typ:P|lang:en|wc:3|flavl:4|cs:9600|v=4,False,Sarhaul,Gurugram,"Ground Floor, M-2/22, Dlf City Phase II, Dlf City Phase II, Sarhaul, Gurugram - 122008, Dist.Gurgaon, Haryana",8048613476,
"200ml Pink Plastic Baby Feeding Bottle, Age Group: Newly Born",https://www.indiamart.com/proddetail/200ml-pink-plastic-baby-feeding-bottle-2851085369612.html?pos=5&kwd=plastic baby bottle&tags=A||||8788.382|Price|product|||MDC|rsf:gd-|-stype:attr=1|qr_nm:gd|res:RC5|com-cf:nl|ptrs:na|ktp:N0|mc:22704|mtp:S|qry_typ:P|lang:en|wc:3|flavl:4|cs:9600|v=4,Loop Techno Systems Private Limited,https://www.indiamart.com/loop-technosystems/?pos=5&kwd=plastic baby bottle&tags=A||||8788.382|Price|product|||MDC|rsf:gd-|-stype:attr=1|qr_nm:gd|res:RC5|com-cf:nl|ptrs:na|ktp:N0|mc:22704|mtp:S|qry_typ:P|lang:en|wc:3|flavl:4|cs:9600|v=4,False,Surajpur Site V,Greater Noida,"Plot No. J-023, Site 5, Kasna Ind, Area,Gautam Buddha Nagar, Surajpur Site V, Greater Noida - 201308, Dist.Gautam Budh Nagar, Uttar Pradesh",7942830535,
"Baby Feeder Feeding Bottles And Sippers, Size: 60ml",https://www.indiamart.com/proddetail/feeding-bottles-and-sippers-20476966730.html?pos=6&kwd=plastic baby bottle&tags=A||||8545.6045|Price|product|||MDC|rsf:gd-|-stype:attr=1|qr_nm:gd|res:RC5|com-cf:nl|ptrs:na|ktp:N0|mc:22704|mtp:S|qry_typ:P|lang:en|wc:3|flavl:4|cs:9600|v=4,Shraddha Saburi,https://www.indiamart.com/shraddhasaburi/?pos=6&kwd=plastic baby bottle&tags=A||||8545.6045|Price|product|||MDC|rsf:gd-|-stype:attr=1|qr_nm:gd|res:RC5|com-cf:nl|ptrs:na|ktp:N0|mc:22704|mtp:S|qry_typ:P|lang:en|wc:3|flavl:4|cs:9600|v=4,False,Cantonment Area,Firozpur,"263, Suji Bazar, M/s Shraddha Saburi, Ferozepur Cantt, Cantonment Area, Firozpur - 152001, Dist.Firozpur, Punjab",8048979628,
"Plastic Pp Standard Neck Feeding Bottle, Capacity: 250 ml",https://www.indiamart.com/proddetail/pp-standard-neck-feeding-bottle-2854879890488.html?pos=7&kwd=plastic baby bottle&tags=A||||8786.56||product|||MDC|rsf:gd-|-stype:attr=1|qr_nm:gd|res:RC5|com-cf:nl|ptrs:na|ktp:N0|mc:22704|mtp:S|qry_typ:P|lang:en|wc:3|flavl:4|cs:9600|v=4,Nabhodh Traders,https://www.indiamart.com/nabhodh-traders/?pos=7&kwd=plastic baby bottle&tags=A||||8786.56||product|||MDC|rsf:gd-|-stype:attr=1|qr_nm:gd|res:RC5|com-cf:nl|ptrs:na|ktp:N0|mc:22704|mtp:S|qry_typ:P|lang:en|wc:3|flavl:4|cs:9600|v=4,False,,Hyderabad,"Plot No 60, Shilpa Avenue, Hyder Nagar Medchal Malkajgiri, Hyderabad - 500072, Dist.Hyderabad, Telangana",8044460917,
Sparkle Baby Feeding Bottle 125ml,https://www.indiamart.com/proddetail/sparkle-baby-feeding-bottle-125ml-12768773612.html?pos=8&kwd=plastic baby bottle&tags=A||||8223.226|Price|product|||MDC|rsf:gd-|-stype:attr=1|qr_nm:gd|res:RC5|com-cf:nl|ptrs:na|ktp:N0|mc:22704|mtp:S|qry_typ:P|lang:en|wc:3|flavl:4|cs:9600|v=4,Wecare Solutions,https://www.indiamart.com/wecare-solutions/?pos=8&kwd=plastic baby bottle&tags=A||||8223.226|Price|product|||MDC|rsf:gd-|-stype:attr=1|qr_nm:gd|res:RC5|com-cf:nl|ptrs:na|ktp:N0|mc:22704|mtp:S|qry_typ:P|lang:en|wc:3|flavl:4|cs:9600|v=4,False,Valiv,Thane,"Gala No. F-19-20, 1st Floor, Rajprabha Anand Industrial Estate Naikpada, Waliv, Valiv, Thane - 401208, Dist.Thane, Maharashtra",8047631791,
Plastic Baby Sipper Bottle 400 ML,https://www.indiamart.com/proddetail/plastic-baby-sipper-bottle-400-ml-2852393705833.html?pos=9&kwd=plastic baby bottle&tags=A||||8752.144|Price|product|||TS|rsf:gd-|-stype:attr=1|qr_nm:gd|res:RC5|com-cf:nl|ptrs:na|ktp:N0|mc:22704|mtp:S|qry_typ:P|lang:en|wc:3|flavl:4|cs:9600|v=4,Ekta Overseas,https://www.indiamart.com/ektaoverseas-newdelhi/?pos=9&kwd=plastic baby bottle&tags=A||||8752.144|Price|product|||TS|rsf:gd-|-stype:attr=1|qr_nm:gd|res:RC5|com-cf:nl|ptrs:na|ktp:N0|mc:22704|mtp:S|qry_typ:P|lang:en|wc:3|flavl:4|cs:9600|v=4,False,Shahdara,New Delhi,"1/95, Gali No.3, Near Navjeevan Phisical Center, Vishwas Nagar, Shahdara,, Shahdara, New Delhi - 110032, Dist.Delhi, Delhi",7942628926,
"Green Plastic Baby Bottle, Capacity: 100 mL, Age Group: Newly Born",https://www.indiamart.com/proddetail/plastic-baby-bottle-22001007833.html?pos=10&kwd=plastic baby bottle&tags=A||||8752.144|Price|product|||TS|rsf:gd-|-stype:attr=1|qr_nm:gd|res:RC5|com-cf:nl|ptrs:na|ktp:N0|mc:22704|mtp:S|qry_typ:P|lang:en|wc:3|flavl:4|cs:9600|v=4,Dua Traders,https://www.indiamart.com/duatraders-delhi/?pos=10&kwd=plastic baby bottle&tags=A||||8752.144|Price|product|||TS|rsf:gd-|-stype:attr=1|qr_nm:gd|res:RC5|com-cf:nl|ptrs:na|ktp:N0|mc:22704|mtp:S|qry_typ:P|lang:en|wc:3|flavl:4|cs:9600|v=4,False,Mandoli,New Delhi,"Plot No. 8, Kh No. 4/24, Mela Ram Vatika, E-block, JR Complex No. 4, Mandoli, Sevadham, Mandoli, New Delhi - 110093, Dist.Delhi, Delhi",8048971741,
"Transparent Wide Mouth Baby Feeding Bottles, Size: 150 ML",https://www.indiamart.com/proddetail/wide-mouth-baby-feeding-bottles-10699245648.html?pos=11&kwd=plastic baby bottle&tags=A||||8778.123|Price|product|||TS|rsf:gd-|-stype:attr=1|qr_nm:gd|res:RC5|com-cf:nl|ptrs:na|ktp:N0|mc:22704|mtp:S|qry_typ:P|lang:en|wc:3|flavl:4|cs:9600|v=4,Bonny Products Private Limited,https://www.feedingbottles.com/?pos=11&kwd=plastic baby bottle&tags=A||||8778.123|Price|product|||TS|rsf:gd-|-stype:attr=1|qr_nm:gd|res:RC5|com-cf:nl|ptrs:na|ktp:N0|mc:22704|mtp:S|qry_typ:P|lang:en|wc:3|flavl:4|cs:9600|v=4,False,Sector 63,Noida,"D240, Sector 63, Sector 63, Noida - 201307, Dist.Gautam Budh Nagar, Uttar Pradesh",8046040824,
"baby bottle steel Feeding Bottles & Sippers, 3-12 Months, Size: 250 ml",https://www.indiamart.com/proddetail/feeding-bottles-sippers-25127482130.html?pos=12&kwd=plastic baby bottle&tags=A||||8752.144|Price|product|||TS|rsf:gd-|-stype:attr=1|qr_nm:gd|res:RC5|com-cf:nl|ptrs:na|ktp:N0|mc:22704|mtp:S|qry_typ:P|lang:en|wc:3|flavl:4|cs:9600|v=4,National Overseas,https://www.indiamart.com/nationaltraders-vishwashnagar/?pos=12&kwd=plastic baby bottle&tags=A||||8752.144|Price|product|||TS|rsf:gd-|-stype:attr=1|qr_nm:gd|res:RC5|com-cf:nl|ptrs:na|ktp:N0|mc:22704|mtp:S|qry_typ:P|lang:en|wc:3|flavl:4|cs:9600|v=4,False,Shahdara,New Delhi,"1/99, Gali No. 3, Vishwas Nagar, Shahdara, New Delhi - 110032, Dist.Delhi, Delhi",8046047673,
"White PLASTIC BABY FEEDING BOTTLE 250 ML, Age Group: Newly Born",https://www.indiamart.com/proddetail/plastic-baby-feeding-bottle-250-ml-2849175138630.html?pos=13&kwd=plastic baby bottle&tags=A||||8752.144|Price|product|||TS|rsf:gd-|-stype:attr=1|qr_nm:gd|res:RC5|com-cf:nl|ptrs:na|ktp:N0|mc:22704|mtp:S|qry_typ:P|lang:en|wc:3|flavl:4|cs:9600|v=4,Anand Garments Pvt Ltd,https://www.indiamart.com/anand-garments-newdelhi/?pos=13&kwd=plastic baby bottle&tags=A||||8752.144|Price|product|||TS|rsf:gd-|-stype:attr=1|qr_nm:gd|res:RC5|com-cf:nl|ptrs:na|ktp:N0|mc:22704|mtp:S|qry_typ:P|lang:en|wc:3|flavl:4|cs:9600|v=4,False,mundka,New Delhi,"Plot No-276, Area Pocket-m Sector-1, Dsiidc Bawana,, mundka, New Delhi - 110039, Dist.Delhi, Delhi",8048262855,
Metal Stainless Stee Feeding Bottle,https://www.indiamart.com/proddetail/stainless-stee-feeding-bottle-2853127724633.html?pos=14&kwd=plastic baby bottle&tags=BA||||8752.144|Price|product|||TS|rsf:gd-|-stype:attr=1|qr_nm:gd|res:RC5|com-cf:nl|ptrs:na|ktp:N0|mc:22704|mtp:S|qry_typ:P|lang:en|wc:3|flavl:4|cs:9600|v=4,R B Enterprises,https://www.indiamart.com/rbenterpriseskondalinewdelhi/?pos=14&kwd=plastic baby bottle&tags=BA||||8752.144|Price|product|||TS|rsf:gd-|-stype:attr=1|qr_nm:gd|res:RC5|com-cf:nl|ptrs:na|ktp:N0|mc:22704|mtp:S|qry_typ:P|lang:en|wc:3|flavl:4|cs:9600|v=4,False,Gharoli,New Delhi,"Ground, 58 F/F/R/S Brahman Basti, Kondli Main Road, Kondli Gharoli,, Gharoli, New Delhi - 110094, Dist.Delhi, Delhi",7942535965,
Bus Water Bottle for Kid with Straw and Sticker Sport Plastic Portable Drinking Bottle,https://www.indiamart.com/proddetail/bus-water-bottle-for-kid-with-straw-and-sticker-sport-plastic-portable-drinking-bottle-2854337560573.html?pos=15&kwd=plastic baby bottle&tags=BA||||8230.883|Price|product|||TS|rsf:gd-|-stype:attr=1|qr_nm:gd|res:RC5|com-cf:nl|ptrs:na|ktp:N0|mc:22704|mtp:S|qry_typ:P|lang:en|wc:3|cs:8833|v=4,Rozzby,https://www.cheaperzonetoys.com/?pos=15&kwd=plastic baby bottle&tags=BA||||8230.883|Price|product|||TS|rsf:gd-|-stype:attr=1|qr_nm:gd|res:RC5|com-cf:nl|ptrs:na|ktp:N0|mc:22704|mtp:S|qry_typ:P|lang:en|wc:3|cs:8833|v=4,False,Kosam,Surat,"1st Floor D-2,103 Vip Circle Shlok Recidency Utran, Kosam, Surat - 394105, Dist.Surat, Gujarat",8047622002,
Transparent Plastic Baby Bottle,https://www.indiamart.com/proddetail/plastic-baby-bottle-21630723891.html?pos=16&kwd=plastic baby bottle&tags=A||||8954.051|Price|product|||TS|rsf:gd-|-stype:attr=1|qr_nm:gd|res:RC5|com-cf:nl|ptrs:na|ktp:N0|mc:22704|mtp:S|qry_typ:P|lang:en|wc:3|cs:8833|v=4,Auro Mira Medi Aids,https://www.indiamart.com/auromiramediaids/?pos=16&kwd=plastic baby bottle&tags=A||||8954.051|Price|product|||TS|rsf:gd-|-stype:attr=1|qr_nm:gd|res:RC5|com-cf:nl|ptrs:na|ktp:N0|mc:22704|mtp:S|qry_typ:P|lang:en|wc:3|cs:8833|v=4,False,Adyar,Chennai,"New No. 36, Old No. 32, Shriram Nagar Main Road, Adyar, Chennai - 600113, Dist.Chennai, Tamil Nadu",8048988682,
"Plastic Baby Feeding Bottle 350 Ml, Age Group: 1-2 Years",https://www.indiamart.com/proddetail/baby-feeding-bottle-350-ml-2854786037188.html?pos=17&kwd=plastic baby bottle&tags=BB||||8038.093|Price|product|||TS|rsf:gd-|-stype:attr=1|qr_nm:gd|res:RC5|com-cf:nl|ptrs:na|ktp:N0|mc:22704|mtp:S|qry_typ:P|lang:en|wc:3|cs:8833|v=4,Kite Enterprise,https://www.indiamart.com/kiteenterprise/?pos=17&kwd=plastic baby bottle&tags=BB||||8038.093|Price|product|||TS|rsf:gd-|-stype:attr=1|qr_nm:gd|res:RC5|com-cf:nl|ptrs:na|ktp:N0|mc:22704|mtp:S|qry_typ:P|lang:en|wc:3|cs:8833|v=4,False,Geeta Nagar,Rajkot,"10/11, Laxmiwadi Nr. Anil Aquarium, Geeta Nagar, Rajkot - 360002, Dist.Rajkot, Gujarat",8047630757,
"White 125ml Plastic Baby Feeding Bottle, Age Group: 3-12 Months",https://www.indiamart.com/proddetail/125ml-plastic-baby-feeding-bottle-23528593548.html?pos=18&kwd=plastic baby bottle&tags=A||||8228.275|Price|product|||TS|rsf:gd-|-stype:attr=1|qr_nm:gd|res:RC5|com-cf:nl|ptrs:na|ktp:N0|mc:22704|mtp:S|qry_typ:P|lang:en|wc:3|cs:8833|v=4,Madhu Products,https://www.indiamart.com/madhu-products-ahmedabad/?pos=18&kwd=plastic baby bottle&tags=A||||8228.275|Price|product|||TS|rsf:gd-|-stype:attr=1|qr_nm:gd|res:RC5|com-cf:nl|ptrs:na|ktp:N0|mc:22704|mtp:S|qry_typ:P|lang:en|wc:3|cs:8833|v=4,False,Saraspur,Ahmedabad,"825, Kadiawad, Saraspur, Saraspur, Ahmedabad - 380018, Dist.Ahmedabad, Gujarat",8046075412,
"Stainless Steel Feeding Bottle 240ml, For Home, 3-12 Months",https://www.indiamart.com/proddetail/stainless-steel-feeding-bottle-240ml-2848983507012.html?pos=19&kwd=plastic baby bottle&tags=BA||||8752.144|Price|product|||TS|rsf:gd-|-stype:attr=1|qr_nm:gd|res:RC5|com-cf:nl|ptrs:na|ktp:N0|mc:22704|mtp:S|qry_typ:P|lang:en|wc:3|cs:8833|v=4,Maharaja Cookers Private Limited,https://www.speedexind.co.in/?pos=19&kwd=plastic baby bottle&tags=BA||||8752.144|Price|product|||TS|rsf:gd-|-stype:attr=1|qr_nm:gd|res:RC5|com-cf:nl|ptrs:na|ktp:N0|mc:22704|mtp:S|qry_typ:P|lang:en|wc:3|cs:8833|v=4,False,Narela,New Delhi,"H-1311, DSIIDC Industrial Area, Narela, New Delhi - 110040, Dist.Delhi, Delhi",8048981827,
"Plastic Baby Feeding Bottle, Age Group: 3-12 Months, Capacity: 200 Ml",https://www.indiamart.com/proddetail/plastic-baby-feeding-bottle-23215957648.html?pos=20&kwd=plastic baby bottle&tags=A||||8545.6045|Price|product|||MDC|rsf:gd-|-stype:attr=1|qr_nm:gd|res:RC5|com-cf:nl|ptrs:na|ktp:N0|mc:22704|mtp:S|qry_typ:P|lang:en|wc:3|cs:8833|v=4,Shri Siddhivinayak Traders,https://www.indiamart.com/shrisiddhivinayaktraders-firozpur/?pos=20&kwd=plastic baby bottle&tags=A||||8545.6045|Price|product|||MDC|rsf:gd-|-stype:attr=1|qr_nm:gd|res:RC5|com-cf:nl|ptrs:na|ktp:N0|mc:22704|mtp:S|qry_typ:P|lang:en|wc:3|cs:8833|v=4,False,Basti Nizamdin,Firozpur,"No.94, Anand Avenue, Backside Marked Office, Malwal Road, Firozpur City, Basti Nizamdin, Firozpur - 152002, Dist.Firozpur, Punjab",8046066644,
"Pink and White 125ml Baby Plastic Feeding Bottle, Age Group: 3-12 Months",https://www.indiamart.com/proddetail/125ml-baby-plastic-feeding-bottle-25691157233.html?pos=21&kwd=plastic baby bottle&tags=A||||8752.144|Price|product|||MDC|rsf:gd-|-stype:attr=1|qr_nm:gd|res:RC5|com-cf:nl|ptrs:na|ktp:N0|mc:22704|mtp:S|qry_typ:P|lang:en|wc:3|cs:8833|v=4,Little Kingdom Baby Product,https://www.indiamart.com/little-kingdombaby-product/?pos=21&kwd=plastic baby bottle&tags=A||||8752.144|Price|product|||MDC|rsf:gd-|-stype:attr=1|qr_nm:gd|res:RC5|com-cf:nl|ptrs:na|ktp:N0|mc:22704|mtp:S|qry_typ:P|lang:en|wc:3|cs:8833|v=4,False,Bawana,New Delhi,"Plot No. 16, PKT-G, Sector-3, DSIIDC, Bawana, North West Delhi, Bawana, New Delhi - 110039, Dist.Delhi, Delhi",8047648589,
"Blue Plastic Baby Feeding Bottle, Capacity: 1 Litre, Packaging Type: Box",https://www.indiamart.com/proddetail/plastic-baby-feeding-bottle-21967630497.html?pos=22&kwd=plastic baby bottle&tags=A||||8752.144|Price|product|||TS|rsf:gd-|-stype:attr=1|qr_nm:gd|res:RC5|com-cf:nl|ptrs:na|ktp:N0|mc:22704|mtp:S|qry_typ:P|lang:en|wc:3|cs:8833|v=4,Chinmay Kids,https://www.indiamart.com/chinmaykids/?pos=22&kwd=plastic baby bottle&tags=A||||8752.144|Price|product|||TS|rsf:gd-|-stype:attr=1|qr_nm:gd|res:RC5|com-cf:nl|ptrs:na|ktp:N0|mc:22704|mtp:S|qry_typ:P|lang:en|wc:3|cs:8833|v=4,False,Nayagaon,New Delhi,"C-99, Street No. 4, First Pusta, Nayagaon, New Delhi - 110053, Dist.Delhi, Delhi",8046054858,
Multicolor Plastic Baby Car Milk Bottel,https://www.indiamart.com/proddetail/baby-car-milk-bottel-2854372893273.html?pos=23&kwd=plastic baby bottle&tags=A||||8038.093||product|||TS|rsf:gd-|-stype:attr=1|qr_nm:gd|res:RC5|com-cf:nl|ptrs:na|ktp:N0|mc:22704|mtp:S|qry_typ:P|lang:en|wc:3|cs:8833|v=4,Kohinoor Overseas,https://www.kohinoorkitchenware.com/?pos=23&kwd=plastic baby bottle&tags=A||||8038.093||product|||TS|rsf:gd-|-stype:attr=1|qr_nm:gd|res:RC5|com-cf:nl|ptrs:na|ktp:N0|mc:22704|mtp:S|qry_typ:P|lang:en|wc:3|cs:8833|v=4,False,Indira Nagar,Rajkot,"Plot No-13 Sahakar Main Road Street No 5 Shree Krushnanagar Co Opp Housing Ltd, Indira Nagar, Rajkot - 360002, Dist.Rajkot, Gujarat",8044564674,
"Plastic FEEDER BOTTLE 150ML, Age Group: Newly Born",https://www.indiamart.com/proddetail/feeder-bottle-150ml-2854444843812.html?pos=24&kwd=plastic baby bottle&tags=A||||8230.883|Price|product|||TS|rsf:gd-|-stype:attr=1|qr_nm:gd|res:RC5|com-cf:nl|ptrs:na|ktp:N0|mc:22704|mtp:S|qry_typ:P|lang:en|wc:3|cs:8833|v=4,Medilio Enterprise Private Limited,https://www.indiamart.com/mediloenterprise/?pos=24&kwd=plastic baby bottle&tags=A||||8230.883|Price|product|||TS|rsf:gd-|-stype:attr=1|qr_nm:gd|res:RC5|com-cf:nl|ptrs:na|ktp:N0|mc:22704|mtp:S|qry_typ:P|lang:en|wc:3|cs:8833|v=4,False,Magob,Surat,"Shop No 428,417,418, 4th Floor Raghuvir Trade Center, Surat-Bardoli Road, Magob, Surat - 395010, Dist.Surat, Gujarat",7942822471,
"Plastic Kids Sipper Bottle, Capacity: 100 mL",https://www.indiamart.com/proddetail/kids-sipper-bottle-2854584727791.html?pos=25&kwd=plastic baby bottle&tags=A||||8624.416|Price|product|||MDC|rsf:gd-|-stype:attr=1|qr_nm:gd|res:RC5|com-cf:nl|ptrs:na|ktp:N0|mc:22704|mtp:S|qry_typ:P|lang:en|wc:3|cs:8833|v=4,Dayawanti Traders,https://www.indiamart.com/dayawati-trader/?pos=25&kwd=plastic baby bottle&tags=A||||8624.416|Price|product|||MDC|rsf:gd-|-stype:attr=1|qr_nm:gd|res:RC5|com-cf:nl|ptrs:na|ktp:N0|mc:22704|mtp:S|qry_typ:P|lang:en|wc:3|cs:8833|v=4,False,Indira Colony,Hisar,"Plot No. 137 Dhani Kishandutt, Near Asha High School, Nancy Beauty Parlour, Indira Colony, Indira Colony, Hisar - 125001, Dist.Hisar, Haryana",7942701403,
Transparent Plastic Baby Sipper Bottle,https://www.indiamart.com/proddetail/baby-sipper-bottle-2854699729691.html?pos=26&kwd=plastic baby bottle&tags=A||||8823.154|Price|product|||TS|rsf:gd-|-stype:attr=1|qr_nm:gd|res:RC5|com-cf:nl|ptrs:na|ktp:N0|mc:22704|mtp:S|qry_typ:P|lang:en|wc:3|cs:8833|v=4,Shri Anant International,https://www.indiamart.com/shrianantinternational/?pos=26&kwd=plastic baby bottle&tags=A||||8823.154|Price|product|||TS|rsf:gd-|-stype:attr=1|qr_nm:gd|res:RC5|com-cf:nl|ptrs:na|ktp:N0|mc:22704|mtp:S|qry_typ:P|lang:en|wc:3|cs:8833|v=4,False,DayalBagh,Agra,"No.02,House 2,Alkapuri Phase Ii,Agra, DayalBagh, Agra - 282005, Dist.Agra, Uttar Pradesh",7942721451,
Plastic Baby Sipper Bottle,https://www.indiamart.com/proddetail/plastic-baby-sipper-bottle-2854220527712.html?pos=27&kwd=plastic baby bottle&tags=BA||||8230.883|Price|product|||TS|rsf:gd-|-stype:attr=1|qr_nm:gd|res:RC5|com-cf:nl|ptrs:na|ktp:N0|mc:22704|mtp:S|qry_typ:P|lang:en|wc:3|cs:8833|v=4,BABYHOLIC,https://www.babyholic.in/?pos=27&kwd=plastic baby bottle&tags=BA||||8230.883|Price|product|||TS|rsf:gd-|-stype:attr=1|qr_nm:gd|res:RC5|com-cf:nl|ptrs:na|ktp:N0|mc:22704|mtp:S|qry_typ:P|lang:en|wc:3|cs:8833|v=4,False,,Surat,"Ground Floor, Plot No. F/56/, And F/57, Laxmi Narayan Industrial Estate, Udhana, Kailash Fashion, Surat - 394210, Dist.Surat, Gujarat",8045732096,
"Mady Baby Glass Feeder, Capacity: 200 mL",https://www.indiamart.com/proddetail/mady-baby-glass-feeder-2854371891455.html?pos=28&kwd=plastic baby bottle&tags=A||||8752.144|Price|product|||MDC|rsf:gd-|-stype:attr=1|qr_nm:gd|res:RC5|com-cf:nl|ptrs:na|ktp:N0|mc:22704|mtp:S|qry_typ:P|lang:en|wc:3|cs:8833|v=4,Household Mart,https://www.indiamart.com/household-mart-newdelhi/?pos=28&kwd=plastic baby bottle&tags=A||||8752.144|Price|product|||MDC|rsf:gd-|-stype:attr=1|qr_nm:gd|res:RC5|com-cf:nl|ptrs:na|ktp:N0|mc:22704|mtp:S|qry_typ:P|lang:en|wc:3|cs:8833|v=4,False,,New Delhi,"2nd Floor Ganesh Pura A Kanhiya Nagar Tri Nagar, House 3904 Plot No Old -171 Street No 14, North West Delhi, New Delhi - 110035, Dist.Delhi, Delhi",7949337207,
Plastic Kids 750 ml water bottle,https://www.indiamart.com/proddetail/kids-750-ml-water-bottle-2854487751873.html?pos=29&kwd=plastic baby bottle&tags=BA||||8228.275|Price|product|||TS|rsf:gd-|-stype:attr=1|qr_nm:gd|res:RC5|com-cf:nl|ptrs:na|ktp:N0|mc:22704|mtp:S|qry_typ:P|lang:en|wc:3|cs:8833|v=4,Mayur Plastics And Toys,https://www.mayurplasticproducts.com/?pos=29&kwd=plastic baby bottle&tags=BA||||8228.275|Price|product|||TS|rsf:gd-|-stype:attr=1|qr_nm:gd|res:RC5|com-cf:nl|ptrs:na|ktp:N0|mc:22704|mtp:S|qry_typ:P|lang:en|wc:3|cs:8833|v=4,False,Rajpur Hirpur,Ahmedabad,"479/2842, Gujarat Housing Board dengra, Rajpur Hirpur, Ahmedabad - 380023, Dist.Ahmedabad, Gujarat",8048964748,
Capacity: 500 mL Blue Plastic Baby Sipper Bottle,https://www.indiamart.com/proddetail/plastic-baby-sipper-bottle-2852951365673.html?pos=30&kwd=plastic baby bottle&tags=BA||||8038.093|Price|product|||MDC|rsf:gd-|-stype:attr=1|qr_nm:gd|res:RC5|com-cf:nl|ptrs:na|ktp:N0|mc:22704|mtp:S|qry_typ:P|lang:en|wc:3|cs:8833|v=4,Alloy Exim,https://www.indiamart.com/maruti-enterpriserajkot-gujarat/?pos=30&kwd=plastic baby bottle&tags=BA||||8038.093|Price|product|||MDC|rsf:gd-|-stype:attr=1|qr_nm:gd|res:RC5|com-cf:nl|ptrs:na|ktp:N0|mc:22704|mtp:S|qry_typ:P|lang:en|wc:3|cs:8833|v=4,False,Rohidaspra,Rajkot,"Near Morbi Jakat Naku , Plot No.22/B ,Maruti, Jamana Park Street No. 3, Momai Auto Garage, Shree Ram Society, Rohidaspra, Rajkot - 360003, Dist.Rajkot, Gujarat",7942968638,
"Plastic baby bottle, Age Group: 3-12 Months",https://www.indiamart.com/proddetail/baby-bottle-2854299635530.html?pos=31&kwd=plastic baby bottle&tags=BA||||8038.093|Price|product|||MDC|rsf:gd-|-stype:attr=1|qr_nm:gd|res:RC5|com-cf:nl|ptrs:na|ktp:N0|mc:22704|mtp:S|qry_typ:P|lang:en|wc:3|cs:8833|v=4,Prime Enterprise,https://www.indiamart.com/prime-enterpriserajkotgujarat/?pos=31&kwd=plastic baby bottle&tags=BA||||8038.093|Price|product|||MDC|rsf:gd-|-stype:attr=1|qr_nm:gd|res:RC5|com-cf:nl|ptrs:na|ktp:N0|mc:22704|mtp:S|qry_typ:P|lang:en|wc:3|cs:8833|v=4,False,Rajkot,Rajkot,"Prime Polymers Khodiyar Ind.Area, Dhebar Road, Rajkot, Rajkot - 360001, Dist.Rajkot, Gujarat",7949220525,
"Plastic White Philips Avent Grow Feeding Bottle, Age Group: Newly Born",https://www.indiamart.com/proddetail/philips-avent-grow-feeding-bottle-2853612818062.html?pos=32&kwd=plastic baby bottle&tags=A||||8753.51|Price|product|||MDC|rsf:gd-|-stype:attr=1|qr_nm:gd|res:RC5|com-cf:nl|ptrs:na|ktp:N0|mc:22704|mtp:S|qry_typ:P|lang:en|wc:3|cs:8833|v=4,Jeet And Company,https://www.indiamart.com/jeetcompany-karnal/?pos=32&kwd=plastic baby bottle&tags=A||||8753.51|Price|product|||MDC|rsf:gd-|-stype:attr=1|qr_nm:gd|res:RC5|com-cf:nl|ptrs:na|ktp:N0|mc:22704|mtp:S|qry_typ:P|lang:en|wc:3|cs:8833|v=4,False,Market,Karnal,"8-10, Red Cross Market, Market, Karnal - 132001, Dist.Karnal, Haryana",7949083305,
"Plastic NICE KIDS BOTTLE, Capacity: 500 mL",https://www.indiamart.com/proddetail/nice-kids-bottle-2854404322462.html?pos=33&kwd=plastic baby bottle&tags=BB||||8230.883|Price|product|||TS|rsf:gd-|-stype:attr=1|qr_nm:gd|res:RC5|com-cf:nl|ptrs:na|ktp:N0|mc:22704|mtp:S|qry_typ:P|lang:en|wc:3|cs:8833|v=4,Isabella (A Brand Of Shayona Creation),https://www.srkmart.com/?pos=33&kwd=plastic baby bottle&tags=BB||||8230.883|Price|product|||TS|rsf:gd-|-stype:attr=1|qr_nm:gd|res:RC5|com-cf:nl|ptrs:na|ktp:N0|mc:22704|mtp:S|qry_typ:P|lang:en|wc:3|cs:8833|v=4,False,Utran,Surat,"208, Turning Point Near Bank Of Baroda Bank, Utran, Surat - 394105, Dist.Surat, Gujarat",8046057635,
"White Bonne Kid Plastic Baby Bottle, Age Group: 3-12 Months, Capacity: 160ml",https://www.indiamart.com/proddetail/bonne-kid-plastic-baby-bottle-26229713430.html?pos=34&kwd=plastic baby bottle&tags=BA||||8559.269||product|||TS|rsf:gd-|-stype:attr=1|qr_nm:gd|res:RC5|com-cf:nl|ptrs:na|ktp:N0|mc:22704|mtp:S|qry_typ:P|lang:en|wc:3|cs:8833|v=4,Subhash Stores,https://www.indiamart.com/subhash-stores/?pos=34&kwd=plastic baby bottle&tags=BA||||8559.269||product|||TS|rsf:gd-|-stype:attr=1|qr_nm:gd|res:RC5|com-cf:nl|ptrs:na|ktp:N0|mc:22704|mtp:S|qry_typ:P|lang:en|wc:3|cs:8833|v=4,False,Gadi Adda,Indore,"77, RANIPURA MAIN ROAD INDORE, Gadi Adda, Indore - 452001, Dist.Indore, Madhya Pradesh",8047698960,
"Red 250 Ml PP Natural Bottle Pink Plastic Baby Feeding Bottle, Age Group: 3-12 Months",https://www.indiamart.com/proddetail/250-ml-pp-natural-bottle-pink-plastic-baby-feeding-bottle-24231618348.html?pos=35&kwd=plastic baby bottle&tags=BB||||8238.463|Price|product|||TS|rsf:gd-|-stype:attr=1|qr_nm:gd|res:RC5|com-cf:nl|ptrs:na|ktp:N0|mc:22704|mtp:S|qry_typ:P|lang:en|wc:3|cs:8833|v=4,Chemco Plastic Industries Pvt. Ltd.,https://www.indiamart.com/chemcoplastic/?pos=35&kwd=plastic baby bottle&tags=BB||||8238.463|Price|product|||TS|rsf:gd-|-stype:attr=1|qr_nm:gd|res:RC5|com-cf:nl|ptrs:na|ktp:N0|mc:22704|mtp:S|qry_typ:P|lang:en|wc:3|cs:8833|v=4,False,Colaba,Silvassa,"Survey No 227/1/1, Chemco Complex, Silvassa Sayali Road, Colaba, Silvassa - 396230, Dist.Dadra and Nagar Haveli and Daman and Diu, Dadra and Nagar Haveli and Daman and Diu",8048616523,
Plastic Baby Feeding Bottle,https://www.indiamart.com/proddetail/plastic-baby-feeding-bottle-20395222630.html?pos=36&kwd=plastic baby bottle&tags=BA||||8211.906|Price|product|||TS|rsf:gd-|-stype:attr=1|qr_nm:gd|res:RC5|com-cf:nl|ptrs:na|ktp:N0|mc:22704|mtp:S|qry_typ:P|lang:en|wc:3|cs:8833|v=4,Punamiya Exim Private Limited,https://www.punamiyaexim.co.in/?pos=36&kwd=plastic baby bottle&tags=BA||||8211.906|Price|product|||TS|rsf:gd-|-stype:attr=1|qr_nm:gd|res:RC5|com-cf:nl|ptrs:na|ktp:N0|mc:22704|mtp:S|qry_typ:P|lang:en|wc:3|cs:8833|v=4,False,Umargam,Umargam,"Near To Sonal Plastic, Plot No 828 A GIDC, Plot No 828 A GIDC, Umbergaon Station Road, GIDC, Umargam, Umargam - 396171, Dist.Valsad, Gujarat",8048976705,
"Plastic PEACH BABY SIPPER BOTTLE, Packaging Type: Box, 3-12 Months",https://www.indiamart.com/proddetail/peach-baby-sipper-bottle-2852116721288.html?pos=37&kwd=plastic baby bottle&tags=BA||||8663.873|Price|product|||TS|rsf:gd-|-stype:attr=1|qr_nm:gd|res:RC5|com-cf:nl|ptrs:na|ktp:N0|mc:22704|mtp:S|qry_typ:P|lang:en|wc:3|cs:8833|v=4,Ratnaakar Impex,https://www.indiamart.com/ratnaakarimpex/?pos=37&kwd=plastic baby bottle&tags=BA||||8663.873|Price|product|||TS|rsf:gd-|-stype:attr=1|qr_nm:gd|res:RC5|com-cf:nl|ptrs:na|ktp:N0|mc:22704|mtp:S|qry_typ:P|lang:en|wc:3|cs:8833|v=4,False,Dharmarayaswamy Temple Street,Bengaluru,"6th Floor, No.6/2, Shop-1, Luciya City Center,Next To Sharada Talkies, OTC Road, Dharmarayaswamy Temple Street, Bengaluru - 560002, Dist.Bengaluru, Karnataka",7942843226,
"PINK & BLUE Baby Shower Bottle medium, Age Group: Newly Born",https://www.indiamart.com/proddetail/baby-shower-bottle-medium-13036115133.html?pos=38&kwd=plastic baby bottle&tags=BA||||8211.142|Price|product|||TS|rsf:gd-|-stype:attr=1|qr_nm:gd|res:RC5|com-cf:nl|ptrs:na|ktp:N0|mc:22704|mtp:S|qry_typ:P|lang:en|wc:3|cs:8833|v=4,Party Shop,https://www.partyshops.in/?pos=38&kwd=plastic baby bottle&tags=BA||||8211.142|Price|product|||TS|rsf:gd-|-stype:attr=1|qr_nm:gd|res:RC5|com-cf:nl|ptrs:na|ktp:N0|mc:22704|mtp:S|qry_typ:P|lang:en|wc:3|cs:8833|v=4,False,Mandvi,Mumbai,"1st Floor, Umrigar Building, Above Badshah Cold Drink, Mandvi, Mumbai - 400003, Dist.Mumbai, Maharashtra",8046061811,
"Maa plast Plastic Baby Sipper Cup, Packaging Type: Bottle, Size: Regular",https://www.indiamart.com/proddetail/plastic-baby-sipper-cup-25743454897.html?pos=39&kwd=plastic baby bottle&tags=BB||||8228.275||product|||TS|rsf:gd-|-stype:attr=1|qr_nm:gd|res:RC5|com-cf:nl|ptrs:na|ktp:N0|mc:22704|mtp:S|qry_typ:P|lang:en|wc:3|cs:8833|v=4,Maa Plast,https://www.maaplast.in/?pos=39&kwd=plastic baby bottle&tags=BB||||8228.275||product|||TS|rsf:gd-|-stype:attr=1|qr_nm:gd|res:RC5|com-cf:nl|ptrs:na|ktp:N0|mc:22704|mtp:S|qry_typ:P|lang:en|wc:3|cs:8833|v=4,False,Odhav,Ahmedabad,"38, Shreenath Ji Estaste, S.P. Ring Road, Kathwada, Opposite Sarjan Estate, Odhav, Ahmedabad - 382415, Dist.Ahmedabad, Gujarat",8048963217,
"Silver Apex baby bottle big 240 ML, Age Group: Newly Born",https://www.indiamart.com/proddetail/apex-baby-bottle-big-240-ml-2851671994373.html?pos=40&kwd=plastic baby bottle&tags=BB||||8752.144|Price|product|||TS|rsf:gd-|-stype:attr=1|qr_nm:gd|res:RC5|com-cf:nl|ptrs:na|ktp:N0|mc:22704|mtp:S|qry_typ:P|lang:en|wc:3|cs:8833|v=4,M/s Yamuna Impex,https://www.yamunaimpex.com/?pos=40&kwd=plastic baby bottle&tags=BB||||8752.144|Price|product|||TS|rsf:gd-|-stype:attr=1|qr_nm:gd|res:RC5|com-cf:nl|ptrs:na|ktp:N0|mc:22704|mtp:S|qry_typ:P|lang:en|wc:3|cs:8833|v=4,False,Chandni Chowk,New Delhi,"3751 groundfloor maman jamadar street pahadi sadar bazar delhi 06, Chandni Chowk, New Delhi - 110006, Dist.Delhi, Delhi",8047637986,
"SILVER Metal Steel Baby Feeder Bottle 250 ML, 1-2 Years",https://www.indiamart.com/proddetail/steel-baby-feeder-bottle-250-ml-2852994463033.html?pos=41&kwd=plastic baby bottle&tags=BA||||8752.144|Price|product|||TS|rsf:gd-|-stype:attr=1|qr_nm:gd|res:RC5|com-cf:nl|ptrs:na|ktp:N0|mc:22704|mtp:S|qry_typ:P|lang:en|wc:3|cs:8833|v=4,Kedy Mart Private Limited,https://www.kedymart.net/?pos=41&kwd=plastic baby bottle&tags=BA||||8752.144|Price|product|||TS|rsf:gd-|-stype:attr=1|qr_nm:gd|res:RC5|com-cf:nl|ptrs:na|ktp:N0|mc:22704|mtp:S|qry_typ:P|lang:en|wc:3|cs:8833|v=4,False,Rithala,New Delhi,"khasra No 1008/9, Rohini, New Delhi Landmark Na New Delhi Rithala, Rithala, New Delhi - 110085, Dist.Delhi, Delhi",8048273345,
MOTHERCARE FEEDING BOTTLES,https://www.indiamart.com/proddetail/mothercare-feeding-bottles-2849914351388.html?pos=42&kwd=plastic baby bottle&tags=BA||||8740.707|Price|product|||TS|rsf:gd-|-stype:attr=1|qr_nm:gd|res:RC5|com-cf:nl|ptrs:na|ktp:N0|mc:22704|mtp:S|qry_typ:P|lang:en|wc:3|cs:8833|v=4,Arihant Solutions,https://www.indiamart.com/arihantsolutions/?pos=42&kwd=plastic baby bottle&tags=BA||||8740.707|Price|product|||TS|rsf:gd-|-stype:attr=1|qr_nm:gd|res:RC5|com-cf:nl|ptrs:na|ktp:N0|mc:22704|mtp:S|qry_typ:P|lang:en|wc:3|cs:8833|v=4,False,JLPL Industrial Area,Sas Nagar,"First Floor Plot No. 1250 JLPL, Sector 82, JLPL Industrial Area, Sas Nagar - 160055, Dist.Mohali, Punjab",8047645834,
MOTHERCARE FEEDING BOTTLES,https://www.indiamart.com/proddetail/mothercare-feeding-bottles-2849914351388.html?pos=43&kwd=plastic baby bottle&tags=BA||||8740.707|Price|product|||TS|rsf:gd-|-stype:attr=1|qr_nm:gd|res:RC5|com-cf:nl|ptrs:na|ktp:N0|mc:22704|mtp:S|qry_typ:P|lang:en|wc:3|cs:8833|v=4,Arihant Solutions,https://www.indiamart.com/arihantsolutions/?pos=43&kwd=plastic baby bottle&tags=BA||||8740.707|Price|product|||TS|rsf:gd-|-stype:attr=1|qr_nm:gd|res:RC5|com-cf:nl|ptrs:na|ktp:N0|mc:22704|mtp:S|qry_typ:P|lang:en|wc:3|cs:8833|v=4,False,JLPL Industrial Area,Sas Nagar,"First Floor Plot No. 1250 JLPL, Sector 82, JLPL Industrial Area, Sas Nagar - 160055, Dist.Mohali, Punjab",8047645834,
Disney Toy Story Metal Water Bottle (460 Ml),https://www.indiamart.com/proddetail/disney-toy-story-metal-water-bottle-460-ml-2854872685555.html?pos=44&kwd=plastic baby bottle&tags=BA||||9097.53|Price|product|||TS|rsf:gd-|-stype:attr=1|qr_nm:gd|res:RC5|com-cf:nl|ptrs:na|ktp:N0|mc:22704|mtp:S|qry_typ:P|lang:en|wc:3|cs:8833|v=4,My Bear Hugs,https://www.indiamart.com/bear-hugs/?pos=44&kwd=plastic baby bottle&tags=BA||||9097.53|Price|product|||TS|rsf:gd-|-stype:attr=1|qr_nm:gd|res:RC5|com-cf:nl|ptrs:na|ktp:N0|mc:22704|mtp:S|qry_typ:P|lang:en|wc:3|cs:8833|v=4,False,,Fatehpur,"44/38,,CHAUDHARANA,Fatehpur Ist Floor 44/38 Chaudharana,212601,, Fatehpur - 212601, Uttar Pradesh",,
KIDS FEEDER ELECTRIC BOTTLE,https://www.indiamart.com/proddetail/kids-feeder-electric-bottle-2855001629491.html?pos=45&kwd=plastic baby bottle&tags=BB||||8752.144|Price|product|||TS|rsf:gd-|-stype:attr=1|qr_nm:gd|res:RC5|com-cf:nl|ptrs:na|ktp:N0|mc:22704|mtp:S|qry_typ:P|lang:en|wc:3|cs:8833|v=4,Sabse Sasta Store,https://www.indiamart.com/sabsesastastorenewdelhi/?pos=45&kwd=plastic baby bottle&tags=BB||||8752.144|Price|product|||TS|rsf:gd-|-stype:attr=1|qr_nm:gd|res:RC5|com-cf:nl|ptrs:na|ktp:N0|mc:22704|mtp:S|qry_typ:P|lang:en|wc:3|cs:8833|v=4,False,North West,New Delhi,"Ground Floor, BLK-C, House No.2/1, Village Mohamadpur Mazri, Near Main Kanjhawala, Rama Vihar, North West, New Delhi - 110081, Dist.Delhi, Delhi",7942721280,
"Manual Breast Pump With Bottle, Model Name/Number: Saga",https://www.indiamart.com/proddetail/manual-breast-pump-with-bottle-2850871226588.html?pos=46&kwd=plastic baby bottle&tags=BA||||8601.347|Price|product|||TS|rsf:gd-|-stype:attr=1|qr_nm:gd|res:RC5|com-cf:nl|ptrs:na|ktp:N0|mc:22704|mtp:S|qry_typ:P|lang:en|wc:3|cs:8833|v=4,Medipharm Global,https://www.indiamart.com/medipharmglobal/?pos=46&kwd=plastic baby bottle&tags=BA||||8601.347|Price|product|||TS|rsf:gd-|-stype:attr=1|qr_nm:gd|res:RC5|com-cf:nl|ptrs:na|ktp:N0|mc:22704|mtp:S|qry_typ:P|lang:en|wc:3|cs:8833|v=4,False,Jhotwara,Jaipur,"R. G Plaza, X-02B, Chandra Nagar, Kardhani Scheme, Kalwar Road, Jhotwara, Jaipur - 302012, Dist.Jaipur, Rajasthan",8047653066,
"Plastic Baby Feeding Bottle, Capacity: 250 Ml",https://www.indiamart.com/proddetail/plastic-baby-feeding-bottle-20920449730.html?pos=47&kwd=plastic baby bottle&tags=BA||||8786.56|Price|product|||TS|rsf:gd-|-stype:attr=1|qr_nm:gd|res:RC5|com-cf:nl|ptrs:na|ktp:N0|mc:22704|mtp:S|qry_typ:P|lang:en|wc:3|cs:8833|v=4,Rajadhani Enterprises,https://www.rajadhanienterprises.in/?pos=47&kwd=plastic baby bottle&tags=BA||||8786.56|Price|product|||TS|rsf:gd-|-stype:attr=1|qr_nm:gd|res:RC5|com-cf:nl|ptrs:na|ktp:N0|mc:22704|mtp:S|qry_typ:P|lang:en|wc:3|cs:8833|v=4,False,Begum Bazar Pathan Wadi,Hyderabad,"15-6-588/1G, Agarwal Market, Siddiamber Bazar Satyanarayan Enclaves, Gol Masjid, Begum Bazar Pathan Wadi, Hyderabad - 500012, Dist.Hyderabad, Telangana",8047635606,
Mayatra's Colorful Cartoon Printed 2 In 1 Partitioned Bottle/Cup for Kids,https://www.indiamart.com/proddetail/mayatra-s-colorful-cartoon-printed-2-in-1-partitioned-bottle-cup-for-kids-26390142133.html?pos=48&kwd=plastic baby bottle&tags=BA||||8211.142|Price|product|||TS|rsf:gd-|-stype:attr=1|qr_nm:gd|res:RC5|com-cf:nl|ptrs:na|ktp:N0|mc:22704|mtp:S|qry_typ:P|lang:en|wc:3|cs:8833|v=4,Mayatra Enterprises,https://www.indiamart.com/mayatra-enterprises/?pos=48&kwd=plastic baby bottle&tags=BA||||8211.142|Price|product|||TS|rsf:gd-|-stype:attr=1|qr_nm:gd|res:RC5|com-cf:nl|ptrs:na|ktp:N0|mc:22704|mtp:S|qry_typ:P|lang:en|wc:3|cs:8833|v=4,False,Andheri East,Mumbai,"2nd Floor,Plot no. 1, Hirjee Estate, Behind Excom House, Saki-Vihar Road, Sakinaka, Andheri East, Mumbai - 400059, Dist.Mumbai, Maharashtra",8048987330,
Philips Avent SCF030/20 NATURAL 2.0 Baby Feeding BOTTLE 125ml Pack of 2,https://www.indiamart.com/proddetail/philips-avent-scf030-20-natural-2-0-baby-feeding-bottle-125ml-pack-of-2-2850953162773.html?pos=49&kwd=plastic baby bottle&tags=BB||||8752.144|Price|product|||TS|rsf:gd-|-stype:attr=1|qr_nm:gd|res:RC5|com-cf:nl|ptrs:na|ktp:N0|mc:22704|mtp:S|qry_typ:P|lang:en|wc:3|cs:8833|v=4,Sai Global,https://www.saiglobalindia.in/?pos=49&kwd=plastic baby bottle&tags=BB||||8752.144|Price|product|||TS|rsf:gd-|-stype:attr=1|qr_nm:gd|res:RC5|com-cf:nl|ptrs:na|ktp:N0|mc:22704|mtp:S|qry_typ:P|lang:en|wc:3|cs:8833|v=4,False,Dwarka Sector 16c,New Delhi,"Property No-114, Basement, Pocket C-8, Sector-17, Dwarka, Dwarka Sector 16c, New Delhi - 110075, Dist.Delhi, Delhi",7942559122,
"Transparent Plastic Baby Sippers Mugs, Capacity: 200 mL",https://www.indiamart.com/proddetail/baby-sippers-mugs-2852444822373.html?pos=50&kwd=plastic baby bottle&tags=BA||||8038.093|Price|product|||TS|rsf:gd-|-stype:attr=1|qr_nm:gd|res:RC5|com-cf:nl|ptrs:na|ktp:N0|mc:22704|mtp:S|qry_typ:P|lang:en|wc:3|cs:8833|v=4,Kartavya Enterprise,https://www.indiamart.com/kartavya-enterprise-gujarat/?pos=50&kwd=plastic baby bottle&tags=BA||||8038.093|Price|product|||TS|rsf:gd-|-stype:attr=1|qr_nm:gd|res:RC5|com-cf:nl|ptrs:na|ktp:N0|mc:22704|mtp:S|qry_typ:P|lang:en|wc:3|cs:8833|v=4,False,,Rajkot,"Nr. Ahir Chowk, 6-New Naheru Nagar, Dhebar Road South, Rajkot - 360002, Dist.Rajkot, Gujarat",8046075016,
Zadoli Multicolor Plastic Baby Sipper Bottle,https://www.indiamart.com/proddetail/plastic-baby-sipper-bottle-11906632888.html?pos=51&kwd=plastic baby bottle&tags=BA||||8228.275|Price|product|||TS|rsf:gd-|-stype:attr=1|qr_nm:gd|res:RC5|com-cf:nl|ptrs:na|ktp:N0|mc:22704|mtp:S|qry_typ:P|lang:en|wc:3|cs:8833|v=4,Woveshwar Moulds,https://www.zadoliindia.com/?pos=51&kwd=plastic baby bottle&tags=BA||||8228.275|Price|product|||TS|rsf:gd-|-stype:attr=1|qr_nm:gd|res:RC5|com-cf:nl|ptrs:na|ktp:N0|mc:22704|mtp:S|qry_typ:P|lang:en|wc:3|cs:8833|v=4,False,Odhav,Ahmedabad,"No. 14 & 15, Jagnnath Estate Near Ahmedabad Steel Craft, Near Ring Road, Odhav, Odhav, Ahmedabad - 382415, Dist.Ahmedabad, Gujarat",8046047556,
"Transparent Plastic Baby Sipper Bottle, 3-12 Months",https://www.indiamart.com/proddetail/plastic-baby-sipper-bottle-2849983179030.html?pos=52&kwd=plastic baby bottle&tags=BA||||8038.093|Price|product|||MDC|rsf:gd-|-stype:attr=1|qr_nm:gd|res:RC5|com-cf:nl|ptrs:na|ktp:N0|mc:22704|mtp:S|qry_typ:P|lang:en|wc:3|cs:8833|v=4,Ridhdhi Sidhdhi Plastic,https://www.indiamart.com/ridhdhi-sidhdhi-plastic/?pos=52&kwd=plastic baby bottle&tags=BA||||8038.093|Price|product|||MDC|rsf:gd-|-stype:attr=1|qr_nm:gd|res:RC5|com-cf:nl|ptrs:na|ktp:N0|mc:22704|mtp:S|qry_typ:P|lang:en|wc:3|cs:8833|v=4,False,Old walled City,Rajkot,"Opp Dariyalal Mandir Lohanapara, Old walled City, Rajkot - 360001, Dist.Rajkot, Gujarat",8047675173,
"Plastic baby bottle, Age Group: 3-12 Months",https://www.indiamart.com/proddetail/baby-bottle-2854299635530.html?pos=53&kwd=plastic baby bottle&tags=BA||||8038.093|Price|product|||MDC|rsf:gd-|-stype:attr=1|qr_nm:gd|res:RC5|com-cf:nl|ptrs:na|ktp:N0|mc:22704|mtp:S|qry_typ:P|lang:en|wc:3|cs:8833|v=4,Prime Enterprise,https://www.indiamart.com/prime-enterpriserajkotgujarat/?pos=53&kwd=plastic baby bottle&tags=BA||||8038.093|Price|product|||MDC|rsf:gd-|-stype:attr=1|qr_nm:gd|res:RC5|com-cf:nl|ptrs:na|ktp:N0|mc:22704|mtp:S|qry_typ:P|lang:en|wc:3|cs:8833|v=4,False,Rajkot,Rajkot,"Prime Polymers Khodiyar Ind.Area, Dhebar Road, Rajkot, Rajkot - 360001, Dist.Rajkot, Gujarat",7949220525,
"Plastic White SCY90601 Avent Natural Bottle Baby Milk Bottle 330 Ml, Age Group: 3-12 Months",https://www.indiamart.com/proddetail/scy90601-avent-natural-bottle-baby-milk-bottle-330-ml-2853684330133.html?pos=54&kwd=plastic baby bottle&tags=BB||||8331.224|Price|product|||MDC|rsf:gd-|-stype:attr=1|qr_nm:gd|res:RC5|com-cf:nl|ptrs:na|ktp:N0|mc:22704|mtp:S|qry_typ:P|lang:en|wc:3|cs:8833|v=4,Shri Siddhivinayak Distributors,https://www.indiamart.com/shrisiddhivinayak-distributors/?pos=54&kwd=plastic baby bottle&tags=BB||||8331.224|Price|product|||MDC|rsf:gd-|-stype:attr=1|qr_nm:gd|res:RC5|com-cf:nl|ptrs:na|ktp:N0|mc:22704|mtp:S|qry_typ:P|lang:en|wc:3|cs:8833|v=4,False,New Shahupuri,Kolhapur,"Cs No 372/3, E Ward, Ghoarpade Galli, New Shahupuri, Kolhapur - 416003, Dist.Kolhapur, Maharashtra",7949095151,
Bonne Feeder Bottle,https://www.indiamart.com/proddetail/bonne-feeder-bottle-27543955062.html?pos=55&kwd=plastic baby bottle&tags=BA||||9520.041|Price|product|||MDC|rsf:gd-|-stype:attr=1|qr_nm:gd|res:RC5|com-cf:nl|ptrs:na|ktp:N0|mc:22704|mtp:S|qry_typ:P|lang:en|wc:3|cs:8833|v=4,A. R. Brothers,https://www.indiamart.com/a-r-brotherspatna/?pos=55&kwd=plastic baby bottle&tags=BA||||9520.041|Price|product|||MDC|rsf:gd-|-stype:attr=1|qr_nm:gd|res:RC5|com-cf:nl|ptrs:na|ktp:N0|mc:22704|mtp:S|qry_typ:P|lang:en|wc:3|cs:8833|v=4,False,Ranipur Khidki,Patna,"03,Ground Floor,Bhagwati Laxmi Bazar,Ashok Raj Path,Chowk Patna City, Ranipur Khidki, Patna - 800008, Dist.Patna, Bihar",8048213137,
Plastic Baby Sipper Bottle,https://www.indiamart.com/proddetail/plastic-baby-sipper-bottle-2854220527712.html?pos=56&kwd=plastic baby bottle&tags=BA||||8230.883|Price|product|||TS|rsf:gd-|-stype:attr=1|qr_nm:gd|res:RC5|com-cf:nl|ptrs:na|ktp:N0|mc:22704|mtp:S|qry_typ:P|lang:en|wc:3|cs:8833|v=4,BABYHOLIC,https://www.babyholic.in/?pos=56&kwd=plastic baby bottle&tags=BA||||8230.883|Price|product|||TS|rsf:gd-|-stype:attr=1|qr_nm:gd|res:RC5|com-cf:nl|ptrs:na|ktp:N0|mc:22704|mtp:S|qry_typ:P|lang:en|wc:3|cs:8833|v=4,False,,Surat,"Ground Floor, Plot No. F/56/, And F/57, Laxmi Narayan Industrial Estate, Udhana, Kailash Fashion, Surat - 394210, Dist.Surat, Gujarat",8045732096,
"Plastic NICE KIDS BOTTLE, Capacity: 500 mL",https://www.indiamart.com/proddetail/nice-kids-bottle-2854404322462.html?pos=57&kwd=plastic baby bottle&tags=BB||||8230.883|Price|product|||TS|rsf:gd-|-stype:attr=1|qr_nm:gd|res:RC5|com-cf:nl|ptrs:na|ktp:N0|mc:22704|mtp:S|qry_typ:P|lang:en|wc:3|cs:8833|v=4,Isabella (A Brand Of Shayona Creation),https://www.srkmart.com/?pos=57&kwd=plastic baby bottle&tags=BB||||8230.883|Price|product|||TS|rsf:gd-|-stype:attr=1|qr_nm:gd|res:RC5|com-cf:nl|ptrs:na|ktp:N0|mc:22704|mtp:S|qry_typ:P|lang:en|wc:3|cs:8833|v=4,False,Utran,Surat,"208, Turning Point Near Bank Of Baroda Bank, Utran, Surat - 394105, Dist.Surat, Gujarat",8046057635,
Plastic Kids 750 ml water bottle,https://www.indiamart.com/proddetail/kids-750-ml-water-bottle-2854487751873.html?pos=58&kwd=plastic baby bottle&tags=BA||||8228.275|Price|product|||TS|rsf:gd-|-stype:attr=1|qr_nm:gd|res:RC5|com-cf:nl|ptrs:na|ktp:N0|mc:22704|mtp:S|qry_typ:P|lang:en|wc:3|cs:8833|v=4,Mayur Plastics And Toys,https://www.mayurplasticproducts.com/?pos=58&kwd=plastic baby bottle&tags=BA||||8228.275|Price|product|||TS|rsf:gd-|-stype:attr=1|qr_nm:gd|res:RC5|com-cf:nl|ptrs:na|ktp:N0|mc:22704|mtp:S|qry_typ:P|lang:en|wc:3|cs:8833|v=4,False,Rajpur Hirpur,Ahmedabad,"479/2842, Gujarat Housing Board dengra, Rajpur Hirpur, Ahmedabad - 380023, Dist.Ahmedabad, Gujarat",8048964748,
Bus Water Bottle for Kid with Straw and Sticker Sport Plastic Portable Drinking Bottle,https://www.indiamart.com/proddetail/bus-water-bottle-for-kid-with-straw-and-sticker-sport-plastic-portable-drinking-bottle-2854337560573.html?pos=59&kwd=plastic baby bottle&tags=BA||||8230.883|Price|product|||TS|rsf:gd-|-stype:attr=1|qr_nm:gd|res:RC5|com-cf:nl|ptrs:na|ktp:N0|mc:22704|mtp:S|qry_typ:P|lang:en|wc:3|cs:8833|v=4,Rozzby,https://www.cheaperzonetoys.com/?pos=59&kwd=plastic baby bottle&tags=BA||||8230.883|Price|product|||TS|rsf:gd-|-stype:attr=1|qr_nm:gd|res:RC5|com-cf:nl|ptrs:na|ktp:N0|mc:22704|mtp:S|qry_typ:P|lang:en|wc:3|cs:8833|v=4,False,Kosam,Surat,"1st Floor D-2,103 Vip Circle Shlok Recidency Utran, Kosam, Surat - 394105, Dist.Surat, Gujarat",8047622002,
Born Baby Shipper Bottle,https://www.indiamart.com/proddetail/born-baby-shipper-bottle-2853067056055.html?pos=60&kwd=plastic baby bottle&tags=BA||||8038.093|Price|product|||TS|rsf:gd-|-stype:attr=1|qr_nm:gd|res:RC5|com-cf:nl|ptrs:na|ktp:N0|mc:22704|mtp:S|qry_typ:P|lang:en|wc:3|cs:8833|v=4,N K Enterprise,https://www.indiamart.com/nkenterpriseindia/?pos=60&kwd=plastic baby bottle&tags=BA||||8038.093|Price|product|||TS|rsf:gd-|-stype:attr=1|qr_nm:gd|res:RC5|com-cf:nl|ptrs:na|ktp:N0|mc:22704|mtp:S|qry_typ:P|lang:en|wc:3|cs:8833|v=4,False,Vavdi,Rajkot,"B/H Krishna Park, Jivraj Industrial Area 2,Revenue Survey No.47 Plot No.17, Vavdi Main Road, Gondal Road, Vavdi, Rajkot - 360004, Dist.Rajkot, Gujarat",7942722569,
"Plastic Mamta Baby Kids Small Feeding Bottle 125 ML, Age Group: 3-12 Months",https://www.indiamart.com/proddetail/mamta-baby-kids-small-feeding-bottle-125-ml-2852402781091.html?pos=61&kwd=plastic baby bottle&tags=BA||||9839.57|Price|product|||TS|rsf:gd-|-stype:attr=1|qr_nm:gd|res:RC5|com-cf:nl|ptrs:na|ktp:N0|mc:22704|mtp:S|qry_typ:P|lang:en|wc:3|cs:8833|v=4,Soni Brothers,https://www.indiamart.com/soni-brothers-kolkata/?pos=61&kwd=plastic baby bottle&tags=BA||||9839.57|Price|product|||TS|rsf:gd-|-stype:attr=1|qr_nm:gd|res:RC5|com-cf:nl|ptrs:na|ktp:N0|mc:22704|mtp:S|qry_typ:P|lang:en|wc:3|cs:8833|v=4,False,Vaishya Sabha,Kolkata,"15, Ram Mohan Mullick Lane, Vaishya Sabha, Kolkata - 700007, Dist.Kolkata, West Bengal",8048963399,
Plastic Breast Milk Bottles 150ml ( Pack Of 3 Bottles) BPA Free,https://www.indiamart.com/proddetail/breast-milk-bottles-150ml-pack-of-3-bottles-bpa-free-3688724697.html?pos=62&kwd=plastic baby bottle&tags=BB||||8211.142|Price|product|||TS|rsf:gd-|-stype:attr=1|qr_nm:gd|res:RC5|com-cf:nl|ptrs:na|ktp:N0|mc:22704|mtp:S|qry_typ:P|lang:en|wc:3|cs:8833|v=4,Seward Systems Inc,https://www.indiamart.com/seward-systems/?pos=62&kwd=plastic baby bottle&tags=BB||||8211.142|Price|product|||TS|rsf:gd-|-stype:attr=1|qr_nm:gd|res:RC5|com-cf:nl|ptrs:na|ktp:N0|mc:22704|mtp:S|qry_typ:P|lang:en|wc:3|cs:8833|v=4,False,Borivali East,Mumbai,"No. 302, Triveni Krupa Building, Carter Road, No. 3, Borivali East, Mumbai - 400066, Dist.Mumbai, Maharashtra",8048602086,
Kids Plastic Water Bottle With Straw And Belt,https://www.indiamart.com/proddetail/kids-plastic-water-bottle-with-straw-and-belt-25683839030.html?pos=63&kwd=plastic baby bottle&tags=BA||||8210.732|Price|product|||TS|rsf:gd-|-stype:attr=1|qr_nm:gd|res:RC5|com-cf:nl|ptrs:na|ktp:N0|mc:22704|mtp:S|qry_typ:P|lang:en|wc:3|cs:8833|v=4,B Shah Enterprises,https://www.indiamart.com/bshahenterprises/?pos=63&kwd=plastic baby bottle&tags=BA||||8210.732|Price|product|||TS|rsf:gd-|-stype:attr=1|qr_nm:gd|res:RC5|com-cf:nl|ptrs:na|ktp:N0|mc:22704|mtp:S|qry_typ:P|lang:en|wc:3|cs:8833|v=4,False,Vasai West,Vasai Virar,"Shop No 19, Dhuri Campus Building, Suncity, Near 100 feet Road,, Vasai West, Vasai Virar - 401202, Dist.Thane, Maharashtra",8047633191,
Unicorn Kids Bottle Sipper,,Arishto Enterprises,https://www.indiamart.com/arishtoenterprises/?pos=64&kwd=plastic baby bottle&tags=BA||||8752.144|Price|product|||TS|rsf:gd-|-stype:attr=1|qr_nm:gd|res:RC5|com-cf:nl|ptrs:na|ktp:N0|mc:22704|mtp:S|qry_typ:P|lang:en|wc:3|cs:8833|v=4,False,Rohini Institutional Area,New Delhi,"A-2/141, Sector 3, Rohini, Rohini Institutional Area, New Delhi - 110085, Dist.Delhi, Delhi",8047632395,
"Baby King Plastic Feeder Bottle, Age Group: Newly Born to 2 Years, Capacity: 100 Ml",https://www.indiamart.com/proddetail/baby-king-plastic-feeder-bottle-21820743155.html?pos=65&kwd=plastic baby bottle&tags=BB||||8752.144|Price|product|||MDC|rsf:gd-|-stype:attr=1|qr_nm:gd|res:RC5|com-cf:nl|ptrs:na|ktp:N0|mc:22704|mtp:S|qry_typ:P|lang:en|wc:3|cs:8833|v=4,Aashirwad Impex,https://www.indiamart.com/aashirwad-impex/?pos=65&kwd=plastic baby bottle&tags=BB||||8752.144|Price|product|||MDC|rsf:gd-|-stype:attr=1|qr_nm:gd|res:RC5|com-cf:nl|ptrs:na|ktp:N0|mc:22704|mtp:S|qry_typ:P|lang:en|wc:3|cs:8833|v=4,False,Chandni Chowk,New Delhi,"3011, Bhagwan Ganj, Bahadurgarh Road, Chandni Chowk, New Delhi - 110006, Dist.Delhi, Delhi",8048264313,
"tallboy metal Baby Feeding Bottle, Capacity: 150, Newly Born",https://www.indiamart.com/proddetail/baby-feeding-bottle-21240252730.html?pos=66&kwd=plastic baby bottle&tags=BB||||8663.873|Price|product|||MDC|rsf:gd-|-stype:attr=1|qr_nm:gd|res:RC5|com-cf:nl|ptrs:na|ktp:N0|mc:22704|mtp:S|qry_typ:P|lang:en|wc:3|cs:8833|v=4,Adkraft (India),https://www.indiamart.com/adkraftindia/?pos=66&kwd=plastic baby bottle&tags=BB||||8663.873|Price|product|||MDC|rsf:gd-|-stype:attr=1|qr_nm:gd|res:RC5|com-cf:nl|ptrs:na|ktp:N0|mc:22704|mtp:S|qry_typ:P|lang:en|wc:3|cs:8833|v=4,False,Nagapura,Bengaluru,"452, 12th Cross, West Of Chord Road, 2 Stage, Nagapura, Bengaluru - 560086, Dist.Bengaluru, Karnataka",8046037274,
Multicolor Baby Feeding Spoon Bottle,https://www.indiamart.com/proddetail/baby-feeding-spoon-bottle-25677188091.html?pos=67&kwd=plastic baby bottle&tags=BB||||8752.144|Price|product|||MDC|rsf:gd-|-stype:attr=1|qr_nm:gd|res:RC5|com-cf:nl|ptrs:na|ktp:N0|mc:22704|mtp:S|qry_typ:P|lang:en|wc:3|cs:8833|v=4,Peach Media,https://www.indiamart.com/peach-media/?pos=67&kwd=plastic baby bottle&tags=BB||||8752.144|Price|product|||MDC|rsf:gd-|-stype:attr=1|qr_nm:gd|res:RC5|com-cf:nl|ptrs:na|ktp:N0|mc:22704|mtp:S|qry_typ:P|lang:en|wc:3|cs:8833|v=4,False,Trilok Puri,New Delhi,"Flat No-404, PKT-5, Mayur Vihar, Phase-1,, Trilok Puri, New Delhi - 110091, Dist.Delhi, Delhi",8047650548,
Auto Flow Baby Feeding Bottle,https://www.indiamart.com/proddetail/auto-flow-baby-feeding-bottle-25129335073.html?pos=68&kwd=plastic baby bottle&tags=BB||||8954.051||product|||MDC|rsf:gd-|-stype:attr=1|qr_nm:gd|res:RC5|com-cf:nl|ptrs:na|ktp:N0|mc:22704|mtp:S|qry_typ:P|lang:en|wc:3|cs:8833|v=4,Sai Pharma & Surgical,https://www.indiamart.com/sai-pharma-surgical/?pos=68&kwd=plastic baby bottle&tags=BB||||8954.051||product|||MDC|rsf:gd-|-stype:attr=1|qr_nm:gd|res:RC5|com-cf:nl|ptrs:na|ktp:N0|mc:22704|mtp:S|qry_typ:P|lang:en|wc:3|cs:8833|v=4,False,Park Town,Chennai,"Door No. 5, Shop No. 2, Ground Floor, Issac Street, Park Town, Chennai - 600003, Dist.Chennai, Tamil Nadu",7942552194,
250ml Auto Flow Super Star Blue PP Baby Feeding Bottle,https://www.indiamart.com/proddetail/250ml-auto-flow-super-star-blue-pp-baby-feeding-bottle-2853299371488.html?pos=69&kwd=plastic baby bottle&tags=BA||||8211.142|Price|product|||MDC|rsf:gd-|-stype:attr=1|qr_nm:gd|res:RC5|com-cf:nl|ptrs:na|ktp:N0|mc:22704|mtp:S|qry_typ:P|lang:en|wc:3|cs:8833|v=4,National Baby Products,https://www.indiamart.com/nationalbabyproducts/?pos=69&kwd=plastic baby bottle&tags=BA||||8211.142|Price|product|||MDC|rsf:gd-|-stype:attr=1|qr_nm:gd|res:RC5|com-cf:nl|ptrs:na|ktp:N0|mc:22704|mtp:S|qry_typ:P|lang:en|wc:3|cs:8833|v=4,False,Sewri,Mumbai,"3rd Floor, D 22/23, Acme Industrial Estate, Sewri East, Sewri, Mumbai - 400015, Dist.Mumbai, Maharashtra",7948548024,
Plastic Baby Bottle,,Veeranjaneya Swamy Enterprises,https://www.indiamart.com/veeranjaneya-swamy-enterprises/?pos=70&kwd=plastic baby bottle&tags=BB||||8663.873|Price|product|||MDC|rsf:gd-|-stype:attr=1|qr_nm:gd|res:RC5|com-cf:nl|ptrs:na|ktp:N0|mc:22704|mtp:S|qry_typ:P|lang:en|wc:3|cs:8833|v=4,False,Krishnarajapuram,Bengaluru,"Ground Floor, No 6,Priyadarshini Layout,Devasandra Main Road, K R Puram, Urban, Krishnarajapuram, Bengaluru - 560036, Dist.Bengaluru, Karnataka",7942702766,
Baby Bottle,,Shree Durga Jewellers,https://www.indiamart.com/shreedurga-jewellers-newdelhi/?pos=71&kwd=plastic baby bottle&tags=BB||||8752.144|Price|product|||MDC|rsf:gd-|-stype:attr=1|qr_nm:gd|res:RC5|com-cf:nl|ptrs:na|ktp:N0|mc:22704|mtp:S|qry_typ:P|lang:en|wc:3|cs:8833|v=4,False,Central Delhi,New Delhi,"3, 1184/300-302, Kucha Mahajani, Chandni Chowk Road, Rickshaw Tours, Chandni Chowk Area,, Central Delhi, New Delhi - 110006, Dist.Delhi, Delhi",8044459297,
Pink Bottles Feeding Mug BPA Free,,Novel Tissues Private Limited,https://www.indiamart.com/noveltissues/?pos=72&kwd=plastic baby bottle&tags=BA||||8556.61||product|||MDC|rsf:gd-|-stype:attr=1|qr_nm:gd|res:RC5|com-cf:nl|ptrs:na|ktp:N0|mc:22704|mtp:S|qry_typ:P|lang:en|wc:3|cs:8833|v=4,False,Hootagalli,Mysore,"65A, KIADB Industrial Area, Hootagalli, Mysore - 570018, Dist.Mysuru, Karnataka",8047641097,
"Green and White Plastic Baby Bottle, Capacity: 100 mL, Age Group: 3-12 Months",https://www.indiamart.com/proddetail/plastic-baby-bottle-2851948147833.html?pos=73&kwd=plastic baby bottle&tags=BB||||8493.708|Price|product|||NA|rsf:gd-|-stype:attr=1|qr_nm:gd|res:RC5|com-cf:nl|ptrs:na|ktp:N0|mc:22704|mtp:S|qry_typ:P|lang:en|wc:3|cs:8833|v=4,Emmicare Industries Private Limited,https://www.indiamart.com/emmicare-industries-kerala/?pos=73&kwd=plastic baby bottle&tags=BB||||8493.708|Price|product|||NA|rsf:gd-|-stype:attr=1|qr_nm:gd|res:RC5|com-cf:nl|ptrs:na|ktp:N0|mc:22704|mtp:S|qry_typ:P|lang:en|wc:3|cs:8833|v=4,False,Vadakkangara,Manjeri,"7/162 ,B-Square Estate, Mankada Road, Koottilangadi,, Vadakkangara, Manjeri - 679324, Dist.Malappuram, Kerala",7942803958,
"Blue Plastic Baby Feeding Bottle, Capacity: 250 ml, Age Group: Newly Born",https://www.indiamart.com/proddetail/blue-plastic-baby-feeding-bottle-2853382793712.html?pos=74&kwd=plastic baby bottle&tags=BA||||8234.203|Price|product|||NA|rsf:gd-|-stype:attr=1|qr_nm:gd|res:RC5|com-cf:nl|ptrs:na|ktp:N0|mc:22704|mtp:S|qry_typ:P|lang:en|wc:3|cs:8833|v=4,Inspire Hype,https://www.indiamart.com/inspirehype/?pos=74&kwd=plastic baby bottle&tags=BA||||8234.203|Price|product|||NA|rsf:gd-|-stype:attr=1|qr_nm:gd|res:RC5|com-cf:nl|ptrs:na|ktp:N0|mc:22704|mtp:S|qry_typ:P|lang:en|wc:3|cs:8833|v=4,False,Denap,Visnagar,"4-B, C H Complex, Denap Tran Rasta Mahesana, Denap, Visnagar - 384315, Dist.Mehsana, Gujarat",7949224033,
"DISNEY KIDZ Green (Cap) Silicone Plastic Baby Feeder Bottle, Packaging Type: Box, Age Group: Newly Born",https://www.indiamart.com/proddetail/silicone-plastic-baby-feeder-bottle-2852544160462.html?pos=75&kwd=plastic baby bottle&tags=BA||||8230.883|Price|product|||NA|rsf:gd-|-stype:attr=1|qr_nm:gd|res:RC5|com-cf:nl|ptrs:na|ktp:N0|mc:22704|mtp:S|qry_typ:P|lang:en|wc:3|cs:8833|v=4,G M Exim,https://www.indiamart.com/gmexim-surat/?pos=75&kwd=plastic baby bottle&tags=BA||||8230.883|Price|product|||NA|rsf:gd-|-stype:attr=1|qr_nm:gd|res:RC5|com-cf:nl|ptrs:na|ktp:N0|mc:22704|mtp:S|qry_typ:P|lang:en|wc:3|cs:8833|v=4,False,Shraddha Society,Surat,"Ground Floor, Shop No-22, Vikas Shoppers, Varachha Main Road, Near By Swastik Tower, Sarthana Jakatnaka, Shraddha Society, Surat - 395006, Dist.Surat, Gujarat",7942712190,
Baby Feeding Bottles,https://www.indiamart.com/proddetail/baby-feeding-bottles-2324604397.html?pos=76&kwd=plastic baby bottle&tags=BB||||8663.873||product|||NA|rsf:gd-|-stype:attr=1|qr_nm:gd|res:RC5|com-cf:nl|ptrs:na|ktp:N0|mc:22704|mtp:S|qry_typ:P|lang:en|wc:3|cs:8833|v=4,Narang Plastics Private Limited,https://www.indiamart.com/narang-plastics-pvtltd/?pos=76&kwd=plastic baby bottle&tags=BB||||8663.873||product|||NA|rsf:gd-|-stype:attr=1|qr_nm:gd|res:RC5|com-cf:nl|ptrs:na|ktp:N0|mc:22704|mtp:S|qry_typ:P|lang:en|wc:3|cs:8833|v=4,False,Peenya,Bengaluru,"No. 303, 4th Phase, 5th Main, Peenya Industrial Area, Peenya, Bengaluru - 560058, Dist.Bengaluru, Karnataka",8043820740,
Dr Browns Options+ Anti-Colic Narrow-Neck Plastic Baby Bottle 250Ml,https://www.indiamart.com/proddetail/dr-browns-options-anti-colic-narrow-neck-plastic-baby-bottle-250ml-2853261312088.html?pos=77&kwd=plastic baby bottle&tags=BB||||8752.144|Price|product|||NA|rsf:gd-|-stype:attr=1|qr_nm:gd|res:RC5|com-cf:nl|ptrs:na|ktp:N0|mc:22704|mtp:S|qry_typ:P|lang:en|wc:3|cs:8833|v=4,BD Impex,https://www.indiamart.com/company/2395482/?pos=77&kwd=plastic baby bottle&tags=BB||||8752.144|Price|product|||NA|rsf:gd-|-stype:attr=1|qr_nm:gd|res:RC5|com-cf:nl|ptrs:na|ktp:N0|mc:22704|mtp:S|qry_typ:P|lang:en|wc:3|cs:8833|v=4,False,,New Delhi,"The Moms Darling - Baby Shop 163, Kapil Vihar, Pitampura, New Delhi - 110034, Dist.Delhi, Delhi",,
"Philips Avent Baby Bottle, Thickness: 1-2 mm",https://www.indiamart.com/proddetail/philips-avent-baby-bottle-20090871197.html?pos=78&kwd=plastic baby bottle&tags=BB||||8786.56|Price|product|||NA|rsf:gd-|-stype:attr=1|qr_nm:gd|res:RC5|com-cf:nl|ptrs:na|ktp:N0|mc:22704|mtp:S|qry_typ:P|lang:en|wc:3|cs:8833|v=4,Hygiene Surgicals,https://www.indiamart.com/hygienesurgicals/?pos=78&kwd=plastic baby bottle&tags=BB||||8786.56|Price|product|||NA|rsf:gd-|-stype:attr=1|qr_nm:gd|res:RC5|com-cf:nl|ptrs:na|ktp:N0|mc:22704|mtp:S|qry_typ:P|lang:en|wc:3|cs:8833|v=4,False,Nampally,Hyderabad,"14-1-1/5,,King Koti,Koti 14-2-332/19/1, Gyan Bagh Colony, Aghapura,500012,Hyderabad, Nampally, Hyderabad - 500001, Dist.Hyderabad, Telangana",8048207349,
Plastic Baby Water Sipper & Feeding Bottle,https://www.indiamart.com/proddetail/baby-water-sipper-feeding-bottle-20838667588.html?pos=79&kwd=plastic baby bottle&tags=BB||||8663.873|Price|product|||NA|rsf:gd-|-stype:attr=1|qr_nm:gd|res:RC5|com-cf:nl|ptrs:na|ktp:N0|mc:22704|mtp:S|qry_typ:P|lang:en|wc:3|cs:8833|v=4,M.M. Marketing,https://www.indiamart.com/m-mmarketing/?pos=79&kwd=plastic baby bottle&tags=BB||||8663.873|Price|product|||NA|rsf:gd-|-stype:attr=1|qr_nm:gd|res:RC5|com-cf:nl|ptrs:na|ktp:N0|mc:22704|mtp:S|qry_typ:P|lang:en|wc:3|cs:8833|v=4,False,Chickpet,Bengaluru,"No. 17, 1st Floor, 12th Cross, Cubbonpet, Chickpet, Bengaluru - 560002, Dist.Bengaluru, Karnataka",8047677597,
"3 Color Plastic Baby Sipper Cup, Packaging Type: Box",https://www.indiamart.com/proddetail/plastic-baby-sipper-cup-26451349191.html?pos=80&kwd=plastic baby bottle&tags=BA||||8228.275|Price|product|||NA|rsf:gd-|-stype:attr=1|qr_nm:gd|res:RC5|com-cf:nl|ptrs:na|ktp:N0|mc:22704|mtp:S|qry_typ:P|lang:en|wc:3|cs:8833|v=4,Shiv Shakti Plast,https://www.indiamart.com/shivshaktiplast-ahmedabad/?pos=80&kwd=plastic baby bottle&tags=BA||||8228.275|Price|product|||NA|rsf:gd-|-stype:attr=1|qr_nm:gd|res:RC5|com-cf:nl|ptrs:na|ktp:N0|mc:22704|mtp:S|qry_typ:P|lang:en|wc:3|cs:8833|v=4,False,,Ahmedabad,"Shed No.22/1 Odhav Maruti Nandan Estate, Odhav, Ahmedabad - 382415, Dist.Ahmedabad, Gujarat",8048967879,
"250Ml Plastic Baby Feeding Bottle, Age Group: Newly Born, Capacity: 200ml",https://www.indiamart.com/proddetail/250ml-plastic-baby-feeding-bottle-24553190333.html?pos=81&kwd=plastic baby bottle&tags=BA||||8580.032|Price|product|||NA|rsf:gd-|-stype:attr=1|qr_nm:gd|res:RC5|com-cf:nl|ptrs:na|ktp:N0|mc:22704|mtp:S|qry_typ:P|lang:en|wc:3|cs:8833|v=4,A.J.Traders,https://www.indiamart.com/ajtraderspunjab/?pos=81&kwd=plastic baby bottle&tags=BA||||8580.032|Price|product|||NA|rsf:gd-|-stype:attr=1|qr_nm:gd|res:RC5|com-cf:nl|ptrs:na|ktp:N0|mc:22704|mtp:S|qry_typ:P|lang:en|wc:3|cs:8833|v=4,False,Guru Amar Dass Nagar,Amritsar,"137, Krishna Nagar, Tarn Taran Road, Guru Amar Dass Nagar, Amritsar - 143001, Dist.Amritsar, Punjab",7942551590,
"Emprouim Green Baby Spoon Feeder Bottle, For Home, Age Group: 3-12 Months",https://www.indiamart.com/proddetail/emprouim-green-baby-spoon-feeder-bottle-2852929082562.html?pos=82&kwd=plastic baby bottle&tags=BA||||8752.144|Price|product|||NA|rsf:gd-|-stype:attr=1|qr_nm:gd|res:RC5|com-cf:nl|ptrs:na|ktp:N0|mc:22704|mtp:S|qry_typ:P|lang:en|wc:3|cs:8833|v=4,S.K Enterprises,https://www.indiamart.com/skenterprises-maujpur/?pos=82&kwd=plastic baby bottle&tags=BA||||8752.144|Price|product|||NA|rsf:gd-|-stype:attr=1|qr_nm:gd|res:RC5|com-cf:nl|ptrs:na|ktp:N0|mc:22704|mtp:S|qry_typ:P|lang:en|wc:3|cs:8833|v=4,False,Maujpur,New Delhi,"First Floor, Old H.No. 83, Old Maujpur, Maujpur, North East Delhi, Maujpur, New Delhi - 110053, Dist.Delhi, Delhi",7942721855,
"PP White 225ml Jessica Bonne Magic Glow In Dark Baby Feeding Bottle, Age Group: 3-12 Months",https://www.indiamart.com/proddetail/225ml-jessica-bonne-magic-glow-in-dark-baby-feeding-bottle-2854051120155.html?pos=83&kwd=plastic baby bottle&tags=BA||||8752.144|Price|product|||NA|rsf:gd-|-stype:attr=1|qr_nm:gd|res:RC5|com-cf:nl|ptrs:na|ktp:N0|mc:22704|mtp:S|qry_typ:P|lang:en|wc:3|cs:8833|v=4,Paul Manufacturing Co.,https://www.indiamart.com/paulmanufacturingco/?pos=83&kwd=plastic baby bottle&tags=BA||||8752.144|Price|product|||NA|rsf:gd-|-stype:attr=1|qr_nm:gd|res:RC5|com-cf:nl|ptrs:na|ktp:N0|mc:22704|mtp:S|qry_typ:P|lang:en|wc:3|cs:8833|v=4,False,Mayapuri,New Delhi,"C-278, Phase II, Mayapuri Industrial Area, West Delhi, Mayapuri, New Delhi - 110064, Dist.Delhi, Delhi",8044562548,
Baby Feeding Bottle,,Kamal Agency,https://www.indiamart.com/kamal-agency-bengaluru/?pos=84&kwd=plastic baby bottle&tags=BB||||8663.873||product|||NA|rsf:gd-|-stype:attr=1|qr_nm:gd|res:RC5|com-cf:nl|ptrs:na|ktp:N0|mc:22704|mtp:S|qry_typ:P|lang:en|wc:3|cs:8833|v=4,False,,Bengaluru,"14 RAJANNA LANE , GANIGARPET, Bengaluru - 560002, Dist.Bengaluru, Karnataka",8062245071,701
Snozzy Baby Spout Sippy Cup Bottle 240 ML,https://www.indiamart.com/proddetail/snozzy-baby-spout-sippy-cup-bottle-240-ml-2851751641288.html?pos=85&kwd=plastic baby bottle&tags=BA||||8612.732|Price|product|||NA|rsf:gd-|-stype:attr=1|qr_nm:gd|res:RC5|com-cf:nl|ptrs:na|ktp:N0|mc:22704|mtp:S|qry_typ:P|lang:en|wc:3|cs:8833|v=4,Swift Healthcare & Hygiene Private Limited,https://www.indiamart.com/swift-healthcare-hygiene-private-limited-srinagar/?pos=85&kwd=plastic baby bottle&tags=BA||||8612.732|Price|product|||NA|rsf:gd-|-stype:attr=1|qr_nm:gd|res:RC5|com-cf:nl|ptrs:na|ktp:N0|mc:22704|mtp:S|qry_typ:P|lang:en|wc:3|cs:8833|v=4,False,Pampore,Srinagar,"1 1 Shiraz Road Srinagar Srinagar, Pampore, Srinagar - 190003, Dist.Srinagar, Jammu & Kashmir",,
"Multicolor Plastic Baby Spoon Feeder, Capacity: 100 mL, Age Group: Newly Born",https://www.indiamart.com/proddetail/baby-spoon-feeder-2853974232762.html?pos=94&kwd=plastic baby bottle&tags=BB||||8752.144|Price|product|||NA|rsf:gd-|-stype:attr=1|qr_nm:gd|res:RC5|com-cf:nl|ptrs:na|ktp:N0|mc:22704|mtp:S|qry_typ:P|lang:en|wc:3|cs:8833|v=4,Darshan Globals,https://www.indiamart.com/darshan-globals/?pos=94&kwd=plastic baby bottle&tags=BB||||8752.144|Price|product|||NA|rsf:gd-|-stype:attr=1|qr_nm:gd|res:RC5|com-cf:nl|ptrs:na|ktp:N0|mc:22704|mtp:S|qry_typ:P|lang:en|wc:3|cs:8833|v=4,False,,New Delhi,"Kh No-32/17,18 & 19 Plot No-49 U/f/f Back Side, Abchal Nagar Part- 1 Nilothi Extension, New Delhi - 110041, Dist.Delhi, Delhi",8041014014,
"PHILIPS AVENT White Baby Feeding Bottle, Age Group: Newly Born, Size: 125ML",https://www.indiamart.com/proddetail/baby-feeding-bottle-2849009195612.html?pos=87&kwd=plastic baby bottle&tags=BB||||8528.519|Price|product|||NA|rsf:gd-|-stype:attr=1|qr_nm:gd|res:RC5|com-cf:nl|ptrs:na|ktp:N0|mc:22704|mtp:S|qry_typ:P|lang:en|wc:3|cs:8833|v=4,EBP Enterprises,https://www.indiamart.com/ebp-enterprises-depalpur/?pos=87&kwd=plastic baby bottle&tags=BB||||8528.519|Price|product|||NA|rsf:gd-|-stype:attr=1|qr_nm:gd|res:RC5|com-cf:nl|ptrs:na|ktp:N0|mc:22704|mtp:S|qry_typ:P|lang:en|wc:3|cs:8833|v=4,False,INDORE ROAD,Depalpur,"Qtr NO-E7,, Board Colony, Depalpur, Indore, Madhya Pradesh, 453115 DEPALPUR, INDORE ROAD, Depalpur - 453115, Dist.Indore, Madhya Pradesh",8048361289,570
Kids Milk Feeder Bottle,,Shiv Dayal Gupta & Sons,https://www.indiamart.com/shiv-dayal-gupta-sons/?pos=88&kwd=plastic baby bottle&tags=BA||||9045.955|Price|product|||NA|rsf:gd-|-stype:attr=1|qr_nm:gd|res:RC5|com-cf:nl|ptrs:na|ktp:N0|mc:22704|mtp:S|qry_typ:P|lang:en|wc:3|cs:8833|v=4,False,Kanpur,Kanpur,"81/63, Coolie Bazar, Dhankutti 81/63 subzi mandi, Kanpur, Kanpur - 208001, Uttar Pradesh",7949369685,
"Plastic Baby Sipper Bottle, For Water Storage, Capacity: 200ml",https://www.indiamart.com/proddetail/plastic-baby-sipper-bottle-23846927933.html?pos=89&kwd=plastic baby bottle&tags=BA||||8752.144|Price|product|||NA|rsf:gd-|-stype:attr=1|qr_nm:gd|res:RC5|com-cf:nl|ptrs:na|ktp:N0|mc:22704|mtp:S|qry_typ:P|lang:en|wc:3|cs:8833|v=4,Kushagra Enterprises,https://www.indiamart.com/kushagraenterprises-newdelhi/?pos=89&kwd=plastic baby bottle&tags=BA||||8752.144|Price|product|||NA|rsf:gd-|-stype:attr=1|qr_nm:gd|res:RC5|com-cf:nl|ptrs:na|ktp:N0|mc:22704|mtp:S|qry_typ:P|lang:en|wc:3|cs:8833|v=4,False,,New Delhi,"5924, Basti Harphool Singh, Sadar Thana Road, Sadar Bazar, North Delhi, New Delhi - 110006, Dist.Delhi, Delhi",8048371908,752
"Plastic White Peristaltic Nursing Bottle Kpp 240ml(Pink) Nipple M 8906042880902, Capacity: 250 ml, Age Group: 3-12 Months",https://www.indiamart.com/proddetail/peristaltic-nursing-bottle-kpp-240ml-pink-nipple-m-8906042880902-2853705349662.html?pos=90&kwd=plastic baby bottle&tags=BB||||8663.873|Price|product|||NA|rsf:gd-|-stype:attr=1|qr_nm:gd|res:RC5|com-cf:nl|ptrs:na|ktp:N0|mc:22704|mtp:S|qry_typ:P|lang:en|wc:3|cs:8833|v=4,Wellnex,https://www.indiamart.com/wellnex/?pos=90&kwd=plastic baby bottle&tags=BB||||8663.873|Price|product|||NA|rsf:gd-|-stype:attr=1|qr_nm:gd|res:RC5|com-cf:nl|ptrs:na|ktp:N0|mc:22704|mtp:S|qry_typ:P|lang:en|wc:3|cs:8833|v=4,False,Bangalore,Bengaluru,"NO.25 9TH CROSS, 1ST MAIN, MAGADI ROAD PRASHANTH NAGAR 9th cross, Prashant Nagar, Bangalore, Bengaluru - 560079, Dist.Bengaluru, Karnataka",8046033558,
"MUTI COLOR Baby Mini Feeding Bottle, Age Group: Newly Born, Capacity: 75ml",https://www.indiamart.com/proddetail/baby-mini-feeding-bottle-24419479833.html?pos=91&kwd=plastic baby bottle&tags=BA||||8752.144|Price|product|||NA|rsf:gd-|-stype:attr=1|qr_nm:gd|res:RC5|com-cf:nl|ptrs:na|ktp:N0|mc:22704|mtp:S|qry_typ:P|lang:en|wc:3|cs:8833|v=4,Narula Overseas Industries Private Limited,https://www.indiamart.com/narulaoverseasindustries/?pos=91&kwd=plastic baby bottle&tags=BA||||8752.144|Price|product|||NA|rsf:gd-|-stype:attr=1|qr_nm:gd|res:RC5|com-cf:nl|ptrs:na|ktp:N0|mc:22704|mtp:S|qry_typ:P|lang:en|wc:3|cs:8833|v=4,False,,New Delhi,"First Floor,70/A-48,Rama Road, Industrial Area,Moti Nagar, New Delhi - 110015, Dist.Delhi, Delhi",7942541501,
White Plastic Pur Comfort Feeding Slim Neck Bottle 2 oz/60 mL,https://www.indiamart.com/proddetail/pur-comfort-feeding-slim-neck-bottle-2-oz-60-ml-20995641255.html?pos=92&kwd=plastic baby bottle&tags=BB||||8211.142|Price|product|||NA|rsf:gd-|-stype:attr=1|qr_nm:gd|res:RC5|com-cf:nl|ptrs:na|ktp:N0|mc:22704|mtp:S|qry_typ:P|lang:en|wc:3|cs:8833|v=4,Marwar Enterprises,https://www.indiamart.com/marwar-enterprise/?pos=92&kwd=plastic baby bottle&tags=BB||||8211.142|Price|product|||NA|rsf:gd-|-stype:attr=1|qr_nm:gd|res:RC5|com-cf:nl|ptrs:na|ktp:N0|mc:22704|mtp:S|qry_typ:P|lang:en|wc:3|cs:8833|v=4,False,,Mumbai,"414, Sussex Industrial Estate, A Wing, 4th Floor, Near Jijamata Udyan, Byculla, Mumbai - 400027, Dist.Mumbai, Maharashtra",8048247108,3431
Blue Baby Feeder Silicone Spoon Bottle 90 Ml,https://www.indiamart.com/proddetail/blue-baby-feeder-silicone-spoon-bottle-90-ml-2854849743555.html?pos=93&kwd=plastic baby bottle&tags=BB||||8752.144|Price|product|||NA|rsf:gd-|-stype:attr=1|qr_nm:gd|res:RC5|com-cf:nl|ptrs:na|ktp:N0|mc:22704|mtp:S|qry_typ:P|lang:en|wc:3|cs:8833|v=4,Astra Zone,https://www.indiamart.com/astra-zone/?pos=93&kwd=plastic baby bottle&tags=BB||||8752.144|Price|product|||NA|rsf:gd-|-stype:attr=1|qr_nm:gd|res:RC5|com-cf:nl|ptrs:na|ktp:N0|mc:22704|mtp:S|qry_typ:P|lang:en|wc:3|cs:8833|v=4,False,,New Delhi,"D-176, Gali No-2, New Delhi - 110042, Dist.Delhi, Delhi",8048247090,6019
"Multicolor Plastic Baby Spoon Feeder, Capacity: 100 mL, Age Group: Newly Born",https://www.indiamart.com/proddetail/baby-spoon-feeder-2853974232762.html?pos=94&kwd=plastic baby bottle&tags=BB||||8752.144|Price|product|||NA|rsf:gd-|-stype:attr=1|qr_nm:gd|res:RC5|com-cf:nl|ptrs:na|ktp:N0|mc:22704|mtp:S|qry_typ:P|lang:en|wc:3|cs:8833|v=4,Darshan Globals,https://www.indiamart.com/darshan-globals/?pos=94&kwd=plastic baby bottle&tags=BB||||8752.144|Price|product|||NA|rsf:gd-|-stype:attr=1|qr_nm:gd|res:RC5|com-cf:nl|ptrs:na|ktp:N0|mc:22704|mtp:S|qry_typ:P|lang:en|wc:3|cs:8833|v=4,False,,New Delhi,"Kh No-32/17,18 & 19 Plot No-49 U/f/f Back Side, Abchal Nagar Part- 1 Nilothi Extension, New Delhi - 110041, Dist.Delhi, Delhi",8041014014,
"Kids Plastic Sipper Bottle, For Water Storage, Capacity: 120 Ml",https://www.indiamart.com/proddetail/kids-plastic-sipper-bottle-23171292273.html?pos=95&kwd=plastic baby bottle&tags=BB||||8984.809|Price|product|||NA|rsf:gd-|-stype:attr=1|qr_nm:gd|res:RC5|com-cf:nl|ptrs:na|ktp:N0|mc:22704|mtp:S|qry_typ:P|lang:en|wc:3|cs:8833|v=4,Vidyansh Baby Care,https://www.indiamart.com/vidyansh-baby-care/?pos=95&kwd=plastic baby bottle&tags=BB||||8984.809|Price|product|||NA|rsf:gd-|-stype:attr=1|qr_nm:gd|res:RC5|com-cf:nl|ptrs:na|ktp:N0|mc:22704|mtp:S|qry_typ:P|lang:en|wc:3|cs:8833|v=4,False,,Jabalpur,"714,TILAK BHUMI KI TAILAIYA, BHALDAARPURA,JABALPUR Tilak Bhumi Taliya, Near Sardar Koyla,482002,Jabalpur, Jabalpur - 482001, Dist.Jabalpur, Madhya Pradesh",8043840036,
Transparent Baby Plastic Feeding Bottle,https://www.indiamart.com/proddetail/baby-plastic-feeding-bottle-22080898362.html?pos=96&kwd=plastic baby bottle&tags=BB||||8239.3955|Price|product|||NA|rsf:gd-|-stype:attr=1|qr_nm:gd|res:RC5|com-cf:nl|ptrs:na|ktp:N0|mc:22704|mtp:S|qry_typ:P|lang:en|wc:3|cs:8833|v=4,Tiny Toes,https://www.indiamart.com/tiny-toes/?pos=96&kwd=plastic baby bottle&tags=BB||||8239.3955|Price|product|||NA|rsf:gd-|-stype:attr=1|qr_nm:gd|res:RC5|com-cf:nl|ptrs:na|ktp:N0|mc:22704|mtp:S|qry_typ:P|lang:en|wc:3|cs:8833|v=4,False,,Kalyan,"Shop No 4, Jai Sonali Building Dr. Ambedkar road, Kalyan - 421301, Dist.Thane, Maharashtra",8047699360,
"White 250ml Plastic Baby Feeding Bottle, Age Group: 12 Months, Capacity: 300ml",https://www.indiamart.com/proddetail/250ml-plastic-baby-feeding-bottle-2850012473748.html?pos=97&kwd=plastic baby bottle&tags=BB||||8752.144|Price|product|||NA|rsf:gd-|-stype:attr=1|qr_nm:gd|res:RC5|com-cf:nl|ptrs:na|ktp:N0|mc:22704|mtp:S|qry_typ:P|lang:en|wc:3|cs:8833|v=4,Samar Plastics,https://www.indiamart.com/samar-plastics/?pos=97&kwd=plastic baby bottle&tags=BB||||8752.144|Price|product|||NA|rsf:gd-|-stype:attr=1|qr_nm:gd|res:RC5|com-cf:nl|ptrs:na|ktp:N0|mc:22704|mtp:S|qry_typ:P|lang:en|wc:3|cs:8833|v=4,False,,New Delhi,"5340/11 Second Floor-S/F, 11, Choudhary Market, Rui Mandi Sadar Bazar North, New Delhi - 110006, Dist.Delhi, Delhi",7942802336,
"Bonne Plastic Baby Feeding Bottle, 3 Months, Size: 150ml",https://www.indiamart.com/proddetail/bonne-plastic-baby-feeding-bottle-24624323655.html?pos=98&kwd=plastic baby bottle&tags=BB||||8752.144|Price|product|||NA|rsf:gd-|-stype:attr=1|qr_nm:gd|res:RC5|com-cf:nl|ptrs:na|ktp:N0|mc:22704|mtp:S|qry_typ:P|lang:en|wc:3|cs:8833|v=4,Sai Traders,https://www.indiamart.com/sai-traders-delhiindia/?pos=98&kwd=plastic baby bottle&tags=BB||||8752.144|Price|product|||NA|rsf:gd-|-stype:attr=1|qr_nm:gd|res:RC5|com-cf:nl|ptrs:na|ktp:N0|mc:22704|mtp:S|qry_typ:P|lang:en|wc:3|cs:8833|v=4,False,,New Delhi,"Plot No19 H No.30 Shastri Nagar Shastri Nagar North West Delhi, New Delhi - 110052, Dist.Delhi, Delhi",7942566135,
"Pink,Purple and Withe 90ml Plastic Baby Feeding Bottle, Age Group: Newly Born",https://www.indiamart.com/proddetail/90ml-plastic-baby-feeding-bottle-26374823455.html?pos=99&kwd=plastic baby bottle&tags=BB||||8752.144|Price|product|||NA|rsf:gd-|-stype:attr=1|qr_nm:gd|res:RC5|com-cf:nl|ptrs:na|ktp:N0|mc:22704|mtp:S|qry_typ:P|lang:en|wc:3|cs:8833|v=4,Hopshoptop E-Commerce (OPC) Private Limited,https://www.indiamart.com/hopshoptop-e-commerce/?pos=99&kwd=plastic baby bottle&tags=BB||||8752.144|Price|product|||NA|rsf:gd-|-stype:attr=1|qr_nm:gd|res:RC5|com-cf:nl|ptrs:na|ktp:N0|mc:22704|mtp:S|qry_typ:P|lang:en|wc:3|cs:8833|v=4,False,,New Delhi,"H. No 64, Bank Vihar, Pitampura, North West Delhi, New Delhi - 110034, Dist.Delhi, Delhi",8047681265,
Baby Feeding Bottle,https://www.indiamart.com/proddetail/baby-feeding-bottle-23139782791.html?pos=100&kwd=plastic baby bottle&tags=BA||||10180.86|Price|product|||NA|rsf:gd-|-stype:attr=1|qr_nm:gd|res:RC5|com-cf:nl|ptrs:na|ktp:N0|mc:22704|mtp:S|qry_typ:P|lang:en|wc:3|cs:8833|v=4,Pioneer Agency,https://www.indiamart.com/ms-pioneer-agency/?pos=100&kwd=plastic baby bottle&tags=BA||||10180.86|Price|product|||NA|rsf:gd-|-stype:attr=1|qr_nm:gd|res:RC5|com-cf:nl|ptrs:na|ktp:N0|mc:22704|mtp:S|qry_typ:P|lang:en|wc:3|cs:8833|v=4,False,,Guwahati,"A.k.dev Road Ganeshpara Guwahati, Guwahati - 781025, Dist.Kamrup, Assam",8048372180,975
Mumlove Baby Feeding Bottle,https://www.indiamart.com/proddetail/baby-feeding-bottle-20553537162.html?pos=101&kwd=plastic baby bottle&tags=BB||||8663.873|Price|product|||NA|rsf:gd-|-stype:attr=1|qr_nm:gd|res:RC5|com-cf:nl|ptrs:na|ktp:N0|mc:22704|mtp:S|qry_typ:P|lang:en|wc:3|cs:8833|v=4,Mahadev Enterprises,https://www.indiamart.com/mahadeventps-bengaluru/?pos=101&kwd=plastic baby bottle&tags=BB||||8663.873|Price|product|||NA|rsf:gd-|-stype:attr=1|qr_nm:gd|res:RC5|com-cf:nl|ptrs:na|ktp:N0|mc:22704|mtp:S|qry_typ:P|lang:en|wc:3|cs:8833|v=4,False,Cubbonpet Main Road,Bengaluru,"32, 1st Floor, 13th Cross, Cubbonpet Main Road, Bengaluru - 560001, Dist.Bengaluru, Karnataka",8047690378,
"White (Base) ABS Plastic Kids Philips Avent Bottle, Age Group: Newly Born",https://www.indiamart.com/proddetail/abs-plastic-kids-philips-avent-bottle-2852603840230.html?pos=102&kwd=plastic baby bottle&tags=BA||||8740.707|Price|product|||NA|rsf:gd-|-stype:attr=1|qr_nm:gd|res:RC5|com-cf:nl|ptrs:na|ktp:N0|mc:22704|mtp:S|qry_typ:P|lang:en|wc:3|cs:8833|v=4,Shoppers Delight,https://www.indiamart.com/shoppersdelight/?pos=102&kwd=plastic baby bottle&tags=BA||||8740.707|Price|product|||NA|rsf:gd-|-stype:attr=1|qr_nm:gd|res:RC5|com-cf:nl|ptrs:na|ktp:N0|mc:22704|mtp:S|qry_typ:P|lang:en|wc:3|cs:8833|v=4,False,,Mohali,"Ground And Basement, Booth No 14, Shoppers Delight, Clockton Market Omaxe Phase 1 Unique Brew, Sector 13, New Chandigarh, Sas Nagar, Mohali - 140901, Dist.Mohali, Punjab",8043877997,
Baby Feeding Bottle Pigeon,https://www.indiamart.com/proddetail/baby-feeding-bottle-pigeon-25740606291.html?pos=103&kwd=plastic baby bottle&tags=BB||||9839.57|Price|product|||NA|rsf:gd-|-stype:attr=1|qr_nm:gd|res:RC5|com-cf:nl|ptrs:na|ktp:N0|mc:22704|mtp:S|qry_typ:P|lang:en|wc:3|cs:8833|v=4,Sengupta Enterprise,https://www.indiamart.com/sengupta-enterprise/?pos=103&kwd=plastic baby bottle&tags=BB||||9839.57|Price|product|||NA|rsf:gd-|-stype:attr=1|qr_nm:gd|res:RC5|com-cf:nl|ptrs:na|ktp:N0|mc:22704|mtp:S|qry_typ:P|lang:en|wc:3|cs:8833|v=4,False,Nagerbazar,Kolkata,"3 A, Narasingha Avenue, Nagerbazar, Kolkata - 700074, Dist.Kolkata, West Bengal",8046057937,
Plastic Baby Feeding Bottle,,Shreedhar Enterprise,https://www.indiamart.com/shreedhar-trading/?pos=104&kwd=plastic baby bottle&tags=BB||||8228.275|Price|product|||NA|rsf:gd-|-stype:attr=1|qr_nm:gd|res:RC5|com-cf:nl|ptrs:na|ktp:N0|mc:22704|mtp:S|qry_typ:P|lang:en|wc:3|cs:8833|v=4,False,Vatva,Ahmedabad,"62, Neelkanth Industrial Park, Ambica Tube Compound, Vatva, Vatva, Ahmedabad - 382445, Dist.Ahmedabad, Gujarat",8047812847,
"Happy Yellow And White Baby Plastic Sipper Cup, Packaging Type: Pack, Newly Born",https://www.indiamart.com/proddetail/baby-plastic-sipper-cup-2850162861855.html?pos=105&kwd=plastic baby bottle&tags=BB||||8331.224|Price|product|||NA|rsf:gd-|-stype:attr=1|qr_nm:gd|res:RC5|com-cf:nl|ptrs:na|ktp:N0|mc:22704|mtp:S|qry_typ:P|lang:en|wc:3|cs:8833|v=4,Minakshi Garments,https://www.indiamart.com/minakshi-garments-kolhapur/?pos=105&kwd=plastic baby bottle&tags=BB||||8331.224|Price|product|||NA|rsf:gd-|-stype:attr=1|qr_nm:gd|res:RC5|com-cf:nl|ptrs:na|ktp:N0|mc:22704|mtp:S|qry_typ:P|lang:en|wc:3|cs:8833|v=4,False,Tarabai Park,Kolhapur,"Gala No 14 B Parvati Plaza, Main Market Road Swastik Market, Gandhinagar, Tarabai Park, Kolhapur - 416119, Dist.Kolhapur, Maharashtra",7942670858,
Blue Baby Feeder Silicone Spoon Bottle 90 Ml,https://www.indiamart.com/proddetail/blue-baby-feeder-silicone-spoon-bottle-90-ml-2854849743555.html?pos=106&kwd=plastic baby bottle&tags=BB||||8752.144|Price|product|||NA|rsf:gd-|-stype:attr=1|qr_nm:gd|res:RC5|com-cf:nl|ptrs:na|ktp:N0|mc:22704|mtp:S|qry_typ:P|lang:en|wc:3|cs:8833|v=4,Astra Zone,https://www.indiamart.com/astra-zone/?pos=106&kwd=plastic baby bottle&tags=BB||||8752.144|Price|product|||NA|rsf:gd-|-stype:attr=1|qr_nm:gd|res:RC5|com-cf:nl|ptrs:na|ktp:N0|mc:22704|mtp:S|qry_typ:P|lang:en|wc:3|cs:8833|v=4,False,,New Delhi,"D-176, Gali No-2, New Delhi - 110042, Dist.Delhi, Delhi",8048247090,6019
"Blue Minitree 270 ML Plastic Baby Feeding Bottle, Age Group: 3-12 Months",https://www.indiamart.com/proddetail/minitree-270-ml-plastic-baby-feeding-bottle-age-group-3-12-months-23949978873.html?pos=107&kwd=plastic baby bottle&tags=BB||||9110.092|Price|product|||NA|rsf:gd-|-stype:attr=1|qr_nm:gd|res:RC5|com-cf:nl|ptrs:na|ktp:N0|mc:22704|mtp:S|qry_typ:P|lang:en|wc:3|cs:8833|v=4,Newborn,https://www.indiamart.com/newborn/?pos=107&kwd=plastic baby bottle&tags=BB||||9110.092|Price|product|||NA|rsf:gd-|-stype:attr=1|qr_nm:gd|res:RC5|com-cf:nl|ptrs:na|ktp:N0|mc:22704|mtp:S|qry_typ:P|lang:en|wc:3|cs:8833|v=4,False,lucknow,Lucknow,"226/20 Nai Basti bhadwwan aishbagh, lucknow, Lucknow - 226004, Dist.Lucknow, Uttar Pradesh",8043830778,
Chicco Natural Feeling Milk Bottle,,Rainbow,https://www.indiamart.com/rainbow-kids-store/?pos=108&kwd=plastic baby bottle&tags=BB||||8708.909|Price|product|||NA|rsf:gd-|-stype:attr=1|qr_nm:gd|res:RC5|com-cf:nl|ptrs:na|ktp:N0|mc:22704|mtp:S|qry_typ:P|lang:en|wc:3|cs:8833|v=4,False,Una,Una,"Rainbow, Ground Floor, Near Canara Bank, Una, Una - 174303, Himachal Pradesh",8048371907,532
"LuvLap / Regular Neck Essential Baby Feeding Bottle, 125ml, New Born / Wild Flowers, BPA Free",https://www.indiamart.com/proddetail/luvlap-regular-neck-essential-baby-feeding-bottle-125ml-new-born-wild-flowers-bpa-free-24028199362.html?pos=109&kwd=plastic baby bottle&tags=BB||||8820.594|Price|product|||NA|rsf:gd-|-stype:attr=1|qr_nm:gd|res:RC5|com-cf:nl|ptrs:na|ktp:N0|mc:22704|mtp:S|qry_typ:P|lang:en|wc:3|cs:8833|v=4,Suruthi Agencies,https://www.indiamart.com/suruthiagencies/?pos=109&kwd=plastic baby bottle&tags=BB||||8820.594|Price|product|||NA|rsf:gd-|-stype:attr=1|qr_nm:gd|res:RC5|com-cf:nl|ptrs:na|ktp:N0|mc:22704|mtp:S|qry_typ:P|lang:en|wc:3|cs:8833|v=4,False,,Tiruvannamalai,"99-d Ayyangula Street Tiruvannamalai, Tiruvannamalai - 606601, Dist.Tiruvannamalai, Tamil Nadu",8046064386,
Bonne Liquid Silicone Nipple,https://www.indiamart.com/proddetail/bonne-liquid-silicone-nipple-2851310043191.html?pos=110&kwd=plastic baby bottle&tags=BA||||9325.399|Price|product|||NA|rsf:gd-|-stype:attr=1|qr_nm:gd|res:RC5|com-cf:nl|ptrs:na|ktp:N0|mc:22704|mtp:S|qry_typ:P|lang:en|wc:3|cs:8833|v=4,Vishnu Traders,https://www.indiamart.com/vishnu-tradersnaugarh/?pos=110&kwd=plastic baby bottle&tags=BA||||9325.399|Price|product|||NA|rsf:gd-|-stype:attr=1|qr_nm:gd|res:RC5|com-cf:nl|ptrs:na|ktp:N0|mc:22704|mtp:S|qry_typ:P|lang:en|wc:3|cs:8833|v=4,False,Shivaji Nagar,Naugarh,"Pithani Buzurg, 1, Niket Maumrya Lodge, Purav Padav, Siddharthnagar,, Shivaji Nagar, Naugarh - 272207, Dist.Siddharthnagar, Uttar Pradesh",8048200220,
Chicco Natural Feeling Feeding Bottle 150ml,https://www.indiamart.com/proddetail/chicco-natural-feeling-feeding-bottle-150ml-26216160112.html?pos=111&kwd=plastic baby bottle&tags=BB||||8307.81|Price|product|||NA|rsf:gd-|-stype:attr=1|qr_nm:gd|res:RC5|com-cf:nl|ptrs:na|ktp:N0|mc:22704|mtp:S|qry_typ:P|lang:en|wc:3|cs:8833|v=4,A V Traders,https://www.indiamart.com/avtraders-pune/?pos=111&kwd=plastic baby bottle&tags=BB||||8307.81|Price|product|||NA|rsf:gd-|-stype:attr=1|qr_nm:gd|res:RC5|com-cf:nl|ptrs:na|ktp:N0|mc:22704|mtp:S|qry_typ:P|lang:en|wc:3|cs:8833|v=4,False,,Pune,"1131 Plot No 102 Bhopatkar Road Vishnu Prasad Society Sadashiv Peth, Pune - 411030, Dist.Pune, Maharashtra",8047683868,
"SILVER FEEDING BOTTLE 200 ML, Age Group: 3-12 Months",https://www.indiamart.com/proddetail/silver-feeding-bottle-200-ml-21538663788.html?pos=112&kwd=plastic baby bottle&tags=BB||||8706.263|Price|product|||NA|rsf:gd-|-stype:attr=1|qr_nm:gd|res:RC5|com-cf:nl|ptrs:na|ktp:N0|mc:22704|mtp:S|qry_typ:P|lang:en|wc:3|cs:8833|v=4,Popular Co.,https://www.indiamart.com/popular-co/?pos=112&kwd=plastic baby bottle&tags=BB||||8706.263|Price|product|||NA|rsf:gd-|-stype:attr=1|qr_nm:gd|res:RC5|com-cf:nl|ptrs:na|ktp:N0|mc:22704|mtp:S|qry_typ:P|lang:en|wc:3|cs:8833|v=4,False,,Karur,"191, Jawahar Bazaar, Karur - 639001, Dist.Karur, Tamil Nadu",8062245020,442
Plastic Baby Feeding Bottle,,A To Z Garments,https://www.indiamart.com/atozgarments-godhra/?pos=113&kwd=plastic baby bottle&tags=BB||||8331.18||product|||NA|rsf:gd-|-stype:attr=1|qr_nm:gd|res:RC5|com-cf:nl|ptrs:na|ktp:N0|mc:22704|mtp:S|qry_typ:P|lang:en|wc:3|cs:8833|v=4,False,,Godhra,"patelwada, Godhra - 389001, Dist.Panch Mahals, Gujarat",8048371653,186
Baby Bottle,,Top Big Bazar,https://www.indiamart.com/top-big-bazar/?pos=114&kwd=plastic baby bottle&tags=BB||||8752.144|Price|product|||NA|rsf:gd-|-stype:attr=1|qr_nm:gd|res:RC5|com-cf:nl|ptrs:na|ktp:N0|mc:22704|mtp:S|qry_typ:P|lang:en|wc:3|cs:8833|v=4,False,,New Delhi,"Without Roof, Shop On Ground Floor, Kh. No.96/2, Wazirabad WITHOUT ROOF,, SHOP ON GROUND FLOOR, New Delhi - 110084, Dist.Delhi, Delhi",8048370713,6055
Bonne Baby Bottles,,Man Enterprises,https://www.indiamart.com/maan-enterprises-kanpur/?pos=115&kwd=plastic baby bottle&tags=BB||||9045.955||product|||NA|rsf:gd-|-stype:attr=1|qr_nm:gd|res:RC5|com-cf:nl|ptrs:na|ktp:N0|mc:22704|mtp:S|qry_typ:P|lang:en|wc:3|cs:8833|v=4,False,Nobsta Arya,Kanpur,"Nobsta Arya, Nobsta Arya, Kanpur - 208021, Uttar Pradesh",8048250248,406
"PP Baby Feeding Bottle, Capacity: 250 ml, Age Group: Newly Born",https://www.indiamart.com/proddetail/baby-feeding-bottle-2854242610912.html?pos=116&kwd=plastic baby bottle&tags=BB||||8231.259|Price|product|||NA|rsf:gd-|-stype:attr=1|qr_nm:gd|res:RC5|com-cf:nl|ptrs:na|ktp:N0|mc:22704|mtp:S|qry_typ:P|lang:en|wc:3|cs:8833|v=4,Wow Babys,https://www.indiamart.com/wow-baby/?pos=116&kwd=plastic baby bottle&tags=BB||||8231.259|Price|product|||NA|rsf:gd-|-stype:attr=1|qr_nm:gd|res:RC5|com-cf:nl|ptrs:na|ktp:N0|mc:22704|mtp:S|qry_typ:P|lang:en|wc:3|cs:8833|v=4,False,,Bhiwandi,"Flat No 5,Ground Floor,Ashtavinayak Enclave,Near Toll Naka,Kalher,Bhiwandi,Thane, Bhiwandi - 421302, Maharashtra",8069728243,752
"250ml Regular Feeding Bottle, Age Group: 0-1 Year",https://www.indiamart.com/proddetail/250ml-regular-feeding-bottle-23417245548.html?pos=117&kwd=plastic baby bottle&tags=BB||||9829.308|Price|product|||NA|rsf:gd-|-stype:attr=1|qr_nm:gd|res:RC5|com-cf:nl|ptrs:na|ktp:N0|mc:22704|mtp:S|qry_typ:P|lang:en|wc:3|cs:8833|v=4,M/ S Naughty Baby Products,https://www.indiamart.com/naughty-baby-products/?pos=117&kwd=plastic baby bottle&tags=BB||||9829.308|Price|product|||NA|rsf:gd-|-stype:attr=1|qr_nm:gd|res:RC5|com-cf:nl|ptrs:na|ktp:N0|mc:22704|mtp:S|qry_typ:P|lang:en|wc:3|cs:8833|v=4,False,Salkia,Howrah,"6, Kolu Para Lane, Salkia, Salkia, Howrah - 711106, Dist.Howrah, West Bengal",8048372620,444
"Blu Kells Baby Sipper, 1-2 Years",https://www.indiamart.com/proddetail/kells-baby-sipper-26333507162.html?pos=118&kwd=plastic baby bottle&tags=BA||||8813.969||product|||NA|rsf:gd-|-stype:attr=1|qr_nm:gd|res:RC5|com-cf:nl|ptrs:na|ktp:N0|mc:22704|mtp:S|qry_typ:P|lang:en|wc:3|cs:8833|v=4,City Pharma,https://www.indiamart.com/city-pharma-meerut/?pos=118&kwd=plastic baby bottle&tags=BA||||8813.969||product|||NA|rsf:gd-|-stype:attr=1|qr_nm:gd|res:RC5|com-cf:nl|ptrs:na|ktp:N0|mc:22704|mtp:S|qry_typ:P|lang:en|wc:3|cs:8833|v=4,False,,Meerut,"179, Khair Nagar, Meerut - 250002, Dist.Meerut, Uttar Pradesh",7949345763,
Bonne Baby Bottle,,New Awadh Pharmacy,https://www.indiamart.com/new-awadh-pharmacy/?pos=119&kwd=plastic baby bottle&tags=B||||9110.092||product|||NA|rsf:gd-|-stype:attr=1|qr_nm:gd|res:RC5|com-cf:nl|ptrs:na|ktp:N0|mc:22704|mtp:S|qry_typ:P|lang:en|wc:3|cs:8833|v=4,False,,Lucknow,"Ground Floor 194/77 Iqbaal Manzil,aminabad Shop No-, Lucknow - 226018, Dist.Lucknow, Uttar Pradesh",8045374956,5815
Baby Sipper Bottle,,Janki Jiyana House,https://www.indiamart.com/jankijiyana-house/?pos=120&kwd=plastic baby bottle&tags=BB||||8230.883|Price|product|||NA|rsf:gd-|-stype:attr=1|qr_nm:gd|res:RC5|com-cf:nl|ptrs:na|ktp:N0|mc:22704|mtp:S|qry_typ:P|lang:en|wc:3|cs:8833|v=4,False,,Surat,"Shop No 10, 1st Floor, Sahyog Park, Opp. Mansarovar Circle, Amroli,, Surat - 394107, Dist.Surat, Gujarat",7942803964,
Baby Fitter,,S.P.Metal,https://www.indiamart.com/ms-spmetal/?pos=121&kwd=plastic baby bottle&tags=BB||||9045.955||product|||NA|rsf:gd-|-stype:attr=1|qr_nm:gd|res:RC5|com-cf:nl|ptrs:na|ktp:N0|mc:22704|mtp:S|qry_typ:P|lang:en|wc:3|cs:8833|v=4,False,,Kanpur,"68/21, , LOKMAN MOHAL, KANPUR 68/21,Lokman Mohal,Kanpur,Kanpur Nagar, 208001, Kanpur, Kanpur - 208001, Uttar Pradesh",8048371689,831
Plastic Baby Feeding Bottle,,Iag Traders,https://www.indiamart.com/minigenz/?pos=122&kwd=plastic baby bottle&tags=BB||||8974.737|Price|product|||NA|rsf:gd-|-stype:attr=1|qr_nm:gd|res:RC5|com-cf:nl|ptrs:na|ktp:N0|mc:22704|mtp:S|qry_typ:P|lang:en|wc:3|cs:8833|v=4,False,Siklapur,Bareilly,"Bareilly 400 Siklapur Siklapur Bareilly Siklapur, Siklapur, Bareilly - 243001, Dist.Bareilly, Uttar Pradesh",8048372572,384
Bunny Bottle,,Stationery Cafe,https://www.indiamart.com/stationery-cafe-new-delhi/?pos=123&kwd=plastic baby bottle&tags=BB||||8752.144||product|||NA|rsf:gd-|-stype:attr=1|qr_nm:gd|res:RC5|com-cf:nl|ptrs:na|ktp:N0|mc:22704|mtp:S|qry_typ:P|lang:en|wc:3|cs:8833|v=4,False,,New Delhi,"Road No. 5 H. No. 32 East Punjabi Bagh Delhi West Delhi, New Delhi - 110006, Dist.Delhi, Delhi",8048370729,1405
Baby Feeding Bottle,,Phoenix Plastowares Private Limited,https://www.indiamart.com/phoenix-plastowares-private-limited/?pos=124&kwd=plastic baby bottle&tags=BB||||8750.195||product|||NA|rsf:gd-|-stype:attr=1|qr_nm:gd|res:RC5|com-cf:nl|ptrs:na|ktp:N0|mc:22704|mtp:S|qry_typ:P|lang:en|wc:3|cs:8833|v=4,False,,Medak,"Sy No 30/5 , 30/ee, Srp Properties, Logistics Park, Manoharabad, Medak - 502336, Dist.Medak, Telangana",8062270248,388
Feeding Bottles,,Lalitha Novelty,https://www.indiamart.com/lalitha-novltis/?pos=125&kwd=plastic baby bottle&tags=BA||||8706.587||product|||NA|rsf:gd-|-stype:attr=1|qr_nm:gd|res:RC5|com-cf:nl|ptrs:na|ktp:N0|mc:22704|mtp:S|qry_typ:P|lang:en|wc:3|cs:8833|v=4,False,West Avani Moola Street,Madurai,"No. 11/12, Patcharisikkara Lane, West Avani Moola Street 5, Annakuli Mandapam, West Chitirai Street, Madurai - 1, West Avani Moola Street, Madurai - 625001, Dist.Madurai, Tamil Nadu",8048262001,897
Plastics Kids,,D.Gunesmal & Co.,https://www.indiamart.com/dgunesmal-co/?pos=126&kwd=plastic baby bottle&tags=BB||||8954.051|Price|product|||NA|rsf:gd-|-stype:attr=1|qr_nm:gd|res:RC5|com-cf:nl|ptrs:na|ktp:N0|mc:22704|mtp:S|qry_typ:P|lang:en|wc:3|cs:8833|v=4,False,,Chennai,"27, Narayana Mudali Street, George Town, Chennai - 600079, Dist.Chennai, Tamil Nadu",7942650583,
Feeding Bottles,,Ramban Patent Depot,https://www.indiamart.com/shreehari-pharma/?pos=127&kwd=plastic baby bottle&tags=BB||||8228.275|Price|product|||NA|rsf:gd-|-stype:attr=1|qr_nm:gd|res:RC5|com-cf:nl|ptrs:na|ktp:N0|mc:22704|mtp:S|qry_typ:P|lang:en|wc:3|cs:8833|v=4,False,sarkhej bavla road,Ahmedabad,"A/35,pushkar industrial & logistics park,Ne satyam mall Behind Shivam-4, sarkhej bavla road, Ahmedabad - 380004, Dist.Ahmedabad, Gujarat",8047842188,
Plastic fancy school kids bottle with carry jacket 700 ml,https://www.indiamart.com/proddetail/fancy-school-kids-bottle-with-carry-jacket-700-ml-2854587522733.html?pos=128&kwd=plastic baby bottle&tags=||||8211.142|Price|product|||TS|rsf:gd-|-stype:attr=1|qr_nm:gd|res:RC5|com-cf:nl|ptrs:na|ktp:N0|mc:22704|mtp:S|qry_typ:P|lang:en|wc:3|cs:8833|v=4,Ruchi Technoplast,https://www.indiamart.com/ruchitechnoplastmumbai/?pos=128&kwd=plastic baby bottle&tags=||||8211.142|Price|product|||TS|rsf:gd-|-stype:attr=1|qr_nm:gd|res:RC5|com-cf:nl|ptrs:na|ktp:N0|mc:22704|mtp:S|qry_typ:P|lang:en|wc:3|cs:8833|v=4,False,Vasai East,Mumbai,"Ruchi House, Survey No. 15 Hiss No.1, Bulding No. 1A, K.T Industrial Park Phase II, Waliv Road Vasai, Vasai East, Mumbai - 401208, Dist.Mumbai, Maharashtra",8047781239,
Plastic Innocent kids kawaai Bottle,https://www.indiamart.com/proddetail/innocent-kids-kawaai-bottle-2852620527655.html?pos=129&kwd=plastic baby bottle&tags=||||8752.144|Price|product|||TS|rsf:gd-|-stype:attr=1|qr_nm:gd|res:RC5|com-cf:nl|ptrs:na|ktp:N0|mc:22704|mtp:S|qry_typ:P|lang:en|wc:3|cs:8833|v=4,House Of Luxury,https://www.theholworld.net/?pos=129&kwd=plastic baby bottle&tags=||||8752.144|Price|product|||TS|rsf:gd-|-stype:attr=1|qr_nm:gd|res:RC5|com-cf:nl|ptrs:na|ktp:N0|mc:22704|mtp:S|qry_typ:P|lang:en|wc:3|cs:8833|v=4,False,Budh Vihar,New Delhi,"Plot No - 5, Kh. No. - 89/10/2, 1, Block No. - I-1, Budh Vihar Phase 1, Delhi, North West Delhi, Del, Budh Vihar, New Delhi - 110086, Dist.Delhi, Delhi",7942819716,
"Rejoice Plastic Kids Sipper Bottle for School LUCKNOW, For Drinking Water, 400/600/800",https://www.indiamart.com/proddetail/kids-sipper-bottle-for-school-lucknow-22621317655.html?pos=130&kwd=plastic baby bottle&tags=||||8211.142|Price|product|||TS|rsf:gd-|-stype:attr=1|qr_nm:gd|res:RC5|com-cf:nl|ptrs:na|ktp:N0|mc:22704|mtp:S|qry_typ:P|lang:en|wc:3|cs:8833|v=4,Rejoice Plastic,https://www.indiamart.com/rejoice-plastic-mumbai/?pos=130&kwd=plastic baby bottle&tags=||||8211.142|Price|product|||TS|rsf:gd-|-stype:attr=1|qr_nm:gd|res:RC5|com-cf:nl|ptrs:na|ktp:N0|mc:22704|mtp:S|qry_typ:P|lang:en|wc:3|cs:8833|v=4,False,Ghatkopar West,Mumbai,"A-116, Ghatkopar Industrial Estate, Ghatkopar West Suburban, Ghatkopar West, Mumbai - 400086, Dist.Mumbai, Maharashtra",8046047931,
"Plastic Kids Sipper Bottle, Capacity: 500 mL",https://www.indiamart.com/proddetail/kids-sipper-bottle-2853103503573.html?pos=131&kwd=plastic baby bottle&tags=||||8741.812|Price|product|||TS|rsf:gd-|-stype:attr=1|qr_nm:gd|res:RC5|com-cf:nl|ptrs:na|ktp:N0|mc:22704|mtp:S|qry_typ:P|lang:en|wc:3|cs:8833|v=4,Wholesale Solution,https://www.kidsreturngiftwholesale.com/?pos=131&kwd=plastic baby bottle&tags=||||8741.812|Price|product|||TS|rsf:gd-|-stype:attr=1|qr_nm:gd|res:RC5|com-cf:nl|ptrs:na|ktp:N0|mc:22704|mtp:S|qry_typ:P|lang:en|wc:3|cs:8833|v=4,False,Near Sector 7,Gurugram,"Near Maruti Service Station, Shop No. 1 Plot No. 86/9, Ward No. 12 Ratan Garden, Near Sector 7, Gurugram - 122001, Dist.Gurgaon, Haryana",8043858717,
"Plastic Water Bottle For Kids, Capacity: 500 mL",https://www.indiamart.com/proddetail/plastic-water-bottle-for-kids-2851918429812.html?pos=132&kwd=plastic baby bottle&tags=||||8752.144||product|||MDC|rsf:gd-|-stype:attr=1|qr_nm:gd|res:RC5|com-cf:nl|ptrs:na|ktp:N0|mc:22704|mtp:S|qry_typ:P|lang:en|wc:3|cs:8833|v=4,Stationery Planet,https://www.indiamart.com/stationeryplanet-delhi/?pos=132&kwd=plastic baby bottle&tags=||||8752.144||product|||MDC|rsf:gd-|-stype:attr=1|qr_nm:gd|res:RC5|com-cf:nl|ptrs:na|ktp:N0|mc:22704|mtp:S|qry_typ:P|lang:en|wc:3|cs:8833|v=4,False,Chandni Chowk,New Delhi,"2415,1st Floor Teliwara Chowk, Chandni Chowk, New Delhi - 110006, Dist.Delhi, Delhi",8047801388,
"GLOBAL Black,Blue & Red Straight Steel Bottle Coloed (750 ml), Sipper",https://www.indiamart.com/proddetail/straight-steel-bottle-coloed-750-ml-25835357673.html?pos=133&kwd=plastic baby bottle&tags=CC||||8752.144|Price|product|||TS|rsf:gd-|-stype:attr=1|qr_nm:gd|res:RC5|com-cf:nl|ptrs:na|ktp:N0|mc:22704|mtp:S|qry_typ:P|lang:en|wc:3|cs:8833|v=4,Global Productions,https://www.indiamart.com/global-productions-newdelhi/?pos=133&kwd=plastic baby bottle&tags=CC||||8752.144|Price|product|||TS|rsf:gd-|-stype:attr=1|qr_nm:gd|res:RC5|com-cf:nl|ptrs:na|ktp:N0|mc:22704|mtp:S|qry_typ:P|lang:en|wc:3|cs:8833|v=4,False,Motia Khan,New Delhi,"Ground Floor Shop No. 163 Janta Market, Motia Khan, New Delhi - 110055, Dist.Delhi, Delhi",8047302269,
"Plastic Baby Feeding Bottle, Capacity: 250 ml, Age Group: 3-12 Months",https://www.indiamart.com/proddetail/plastic-baby-feeding-bottle-2854302085962.html?pos=135&kwd=plastic baby bottle&tags=||||8785.791|Price|product|||TS|rsf:gd-|-stype:attr=1|qr_nm:gd|res:RC5|com-cf:nl|ptrs:na|ktp:N0|mc:22704|mtp:S|qry_typ:P|lang:en|wc:3|cs:8833|v=4,Paras Enterprises,https://www.claoberry.com/?pos=135&kwd=plastic baby bottle&tags=||||8785.791|Price|product|||TS|rsf:gd-|-stype:attr=1|qr_nm:gd|res:RC5|com-cf:nl|ptrs:na|ktp:N0|mc:22704|mtp:S|qry_typ:P|lang:en|wc:3|cs:8833|v=4,False,Raj Nagar Extension,Ghaziabad,"KH.NO.-2565,VILLAGE KARHERA,MOHAN NAGAR,Ghaziabad, Raj Nagar Extension, Ghaziabad - 201007, Dist.Ghaziabad, Uttar Pradesh",8043862487,
"Plastic Baby Feeding Bottle, Capacity: 250 ml, Age Group: 3-12 Months",https://www.indiamart.com/proddetail/plastic-baby-feeding-bottle-2854302085962.html?pos=135&kwd=plastic baby bottle&tags=||||8785.791|Price|product|||TS|rsf:gd-|-stype:attr=1|qr_nm:gd|res:RC5|com-cf:nl|ptrs:na|ktp:N0|mc:22704|mtp:S|qry_typ:P|lang:en|wc:3|cs:8833|v=4,Paras Enterprises,https://www.claoberry.com/?pos=135&kwd=plastic baby bottle&tags=||||8785.791|Price|product|||TS|rsf:gd-|-stype:attr=1|qr_nm:gd|res:RC5|com-cf:nl|ptrs:na|ktp:N0|mc:22704|mtp:S|qry_typ:P|lang:en|wc:3|cs:8833|v=4,False,Raj Nagar Extension,Ghaziabad,"KH.NO.-2565,VILLAGE KARHERA,MOHAN NAGAR,Ghaziabad, Raj Nagar Extension, Ghaziabad - 201007, Dist.Ghaziabad, Uttar Pradesh",8043862487,
Red Nipple Feeding Milk Bottle 0.5 Ltr & 1 Ltr,https://www.indiamart.com/proddetail/nipple-feeding-milk-bottle-0-5-ltr-1-ltr-2852852925830.html?pos=136&kwd=plastic baby bottle&tags=||||8038.093|Price|product|||TS|rsf:gd-|-stype:attr=1|qr_nm:gd|res:RC5|com-cf:nl|ptrs:na|ktp:N0|mc:22704|mtp:S|qry_typ:P|lang:en|wc:3|cs:8833|v=4,Chamunda Enterprise,https://www.indiamart.com/chamundaenterpriserajkot/?pos=136&kwd=plastic baby bottle&tags=||||8038.093|Price|product|||TS|rsf:gd-|-stype:attr=1|qr_nm:gd|res:RC5|com-cf:nl|ptrs:na|ktp:N0|mc:22704|mtp:S|qry_typ:P|lang:en|wc:3|cs:8833|v=4,False,Rajkot,Rajkot,"274, Near HDFC Bank, Rajkot Ahmedabad Highway, Maliyasan,, Rajkot, Rajkot - 360003, Dist.Rajkot, Gujarat",8048969596,
"Myco Kids School Plastic Bottles, For Drinking Water, 300 mL",https://www.indiamart.com/proddetail/kids-school-plastic-bottles-25427484888.html?pos=137&kwd=plastic baby bottle&tags=||||9839.57|Price|product|||TS|rsf:gd-|-stype:attr=1|qr_nm:gd|res:RC5|com-cf:nl|ptrs:na|ktp:N0|mc:22704|mtp:S|qry_typ:P|lang:en|wc:3|cs:8833|v=4,Plastic Centre,https://www.indiamart.com/plastic-centre/?pos=137&kwd=plastic baby bottle&tags=||||9839.57|Price|product|||TS|rsf:gd-|-stype:attr=1|qr_nm:gd|res:RC5|com-cf:nl|ptrs:na|ktp:N0|mc:22704|mtp:S|qry_typ:P|lang:en|wc:3|cs:8833|v=4,False,Burrabazar,Kolkata,"1, 3rd, Roop Chand Roy Street, Burrabazar, Burrabazar, Kolkata - 700007, Dist.Kolkata, West Bengal",7942537936,
"Plastic White PHILIPS AVENT SCF030/20 NATURAL BABY BOTTLE, Capacity: 200 ml, Age Group: Newly Born",https://www.indiamart.com/proddetail/philips-avent-scf030-20-natural-baby-bottle-2853235935355.html?pos=138&kwd=plastic baby bottle&tags=||||8307.81|Price|product|||TS|rsf:gd-|-stype:attr=1|qr_nm:gd|res:RC5|com-cf:nl|ptrs:na|ktp:N0|mc:22704|mtp:S|qry_typ:P|lang:en|wc:3|cs:8833|v=4,Mahavir World,https://www.indiamart.com/mahavir-world/?pos=138&kwd=plastic baby bottle&tags=||||8307.81|Price|product|||TS|rsf:gd-|-stype:attr=1|qr_nm:gd|res:RC5|com-cf:nl|ptrs:na|ktp:N0|mc:22704|mtp:S|qry_typ:P|lang:en|wc:3|cs:8833|v=4,False,Ganj Peth,Pune,"845, Shukrawarpeth, Opposite Vallabh Sarees, Near Jain Temple, Ganj Peth, Pune - 411002, Dist.Pune, Maharashtra",8046049692,
2 Cavity Fully Automatic Handfeed Plastic Bottle Machine Machine,https://www.indiamart.com/proddetail/2-cavity-fully-automatic-handfeed-plastic-bottle-machine-machine-2852092684191.html?pos=139&kwd=plastic baby bottle&tags=||||8769.508|Price|product|||TS|rsf:gd-|-stype:attr=1|qr_nm:gd|res:RC5|com-cf:nl|ptrs:na|ktp:N0|mc:22704|mtp:S|qry_typ:P|lang:en|wc:3|cs:8833|v=4,Pet Plast India,https://www.indiamart.com/petplast/?pos=139&kwd=plastic baby bottle&tags=||||8769.508|Price|product|||TS|rsf:gd-|-stype:attr=1|qr_nm:gd|res:RC5|com-cf:nl|ptrs:na|ktp:N0|mc:22704|mtp:S|qry_typ:P|lang:en|wc:3|cs:8833|v=4,False,Ballabhgarh,Faridabad,"Plot No. 10, Astal Road, Adjacent Poultry Farm, Near Maruti Nanadandharam Kanta, Near Maruti Nandan Dharam Canta, Bhakri-Pali Road, Ballabhgarh, Faridabad - 121004, Dist.Faridabad, Haryana",8048961828,
Plastic Kids School Bottle,https://www.indiamart.com/proddetail/kids-school-bottle-2852994846412.html?pos=140&kwd=plastic baby bottle&tags=||||8228.275|Price|product|||TS|rsf:gd-|-stype:attr=1|qr_nm:gd|res:RC5|com-cf:nl|ptrs:na|ktp:N0|mc:22704|mtp:S|qry_typ:P|lang:en|wc:3|cs:8833|v=4,Apple Plast,https://www.appleplast.in/?pos=140&kwd=plastic baby bottle&tags=||||8228.275|Price|product|||TS|rsf:gd-|-stype:attr=1|qr_nm:gd|res:RC5|com-cf:nl|ptrs:na|ktp:N0|mc:22704|mtp:S|qry_typ:P|lang:en|wc:3|cs:8833|v=4,False,Nikol,Ahmedabad,"26,SURYAM INDUSTRIAL PARK, OPP.GALAXYHEIGHT,NR.TORRENTPOWER SUBSTATION,NR.KATHWADA GIDC, ODHAV TO N, Nikol, Ahmedabad - 382350, Dist.Ahmedabad, Gujarat",8047806380,
"Plastic Kids Bottle 538, Capacity: 500 mL",https://www.indiamart.com/proddetail/kids-bottle-538-2854227596955.html?pos=141&kwd=plastic baby bottle&tags=||||8230.883|Price|product|||MDC|rsf:gd-|-stype:attr=1|qr_nm:gd|res:RC5|com-cf:nl|ptrs:na|ktp:N0|mc:22704|mtp:S|qry_typ:P|lang:en|wc:3|cs:8833|v=4,Bosig Mart,https://www.indiamart.com/bosigmart/?pos=141&kwd=plastic baby bottle&tags=||||8230.883|Price|product|||MDC|rsf:gd-|-stype:attr=1|qr_nm:gd|res:RC5|com-cf:nl|ptrs:na|ktp:N0|mc:22704|mtp:S|qry_typ:P|lang:en|wc:3|cs:8833|v=4,False,Dabholi Village,Surat,"27, Hari Om Nagar Society, Jahangirpura, Dabholi Village, Surat - 395005, Dist.Surat, Gujarat",7942837519,
Capacity: 500 mL Kids Plastic Sipper Bottles-Teddy-Small,https://www.indiamart.com/proddetail/kids-plastic-sipper-bottles-teddy-small-2854045761373.html?pos=142&kwd=plastic baby bottle&tags=||||8211.142|Price|product|||TS|rsf:gd-|-stype:attr=1|qr_nm:gd|res:RC5|com-cf:nl|ptrs:na|ktp:N0|mc:22704|mtp:S|qry_typ:P|lang:en|wc:3|cs:8833|v=4,Parshwa Traders,https://www.parshwatrader.com/?pos=142&kwd=plastic baby bottle&tags=||||8211.142|Price|product|||TS|rsf:gd-|-stype:attr=1|qr_nm:gd|res:RC5|com-cf:nl|ptrs:na|ktp:N0|mc:22704|mtp:S|qry_typ:P|lang:en|wc:3|cs:8833|v=4,False,Masjiid bunder,Mumbai,"Crawford Market, Mumbai, 1st Floor, Shop No.4A, Amaan Mansion, 91 Sarang Street, Masjiid bunder, Mumbai - 400003, Dist.Mumbai, Maharashtra",8048963161,
"Transparent Philips Feeding Bottles And Sippers, Baby",https://www.indiamart.com/proddetail/philips-feeding-bottles-and-sippers-2853433608497.html?pos=143&kwd=plastic baby bottle&tags=||||8663.873|Price|product|||TS|rsf:gd-|-stype:attr=1|qr_nm:gd|res:RC5|com-cf:nl|ptrs:na|ktp:N0|mc:22704|mtp:S|qry_typ:P|lang:en|wc:3|cs:8833|v=4,Prajwal Surgical And Scientifics Private Limited,https://www.indiamart.com/prajwal-surgical-and-scientifics/?pos=143&kwd=plastic baby bottle&tags=||||8663.873|Price|product|||TS|rsf:gd-|-stype:attr=1|qr_nm:gd|res:RC5|com-cf:nl|ptrs:na|ktp:N0|mc:22704|mtp:S|qry_typ:P|lang:en|wc:3|cs:8833|v=4,False,Peenya,Bengaluru,"2nd Floor, 254/A PID No 11-161-254A, Old Sonal Garments, 100 Feet Road, Peenya Industrial Area Stage, Peenya, Bengaluru - 560058, Dist.Bengaluru, Karnataka",7942842256,
"Blue Mickey Plastic Feeding Bottle 60ml-Plastic Feeder, Age Group: Newly Born",https://www.indiamart.com/proddetail/mickey-plastic-feeding-bottle-60ml-plastic-feeder-2854006948348.html?pos=144&kwd=plastic baby bottle&tags=||||9302.824|Price|product|||MDC|rsf:gd-|-stype:attr=1|qr_nm:gd|res:RC5|com-cf:nl|ptrs:na|ktp:N0|mc:22704|mtp:S|qry_typ:P|lang:en|wc:3|cs:8833|v=4,Hadi Enterprises,https://www.indiamart.com/hadienterprisessaraimir/?pos=144&kwd=plastic baby bottle&tags=||||9302.824|Price|product|||MDC|rsf:gd-|-stype:attr=1|qr_nm:gd|res:RC5|com-cf:nl|ptrs:na|ktp:N0|mc:22704|mtp:S|qry_typ:P|lang:en|wc:3|cs:8833|v=4,False,Nizamabad,Sarai Mir,"0, Lahidiha ,, Nizamabad, Sarai Mir - 276305, Uttar Pradesh",8044564222,
"Plastic Water Bottle For Kids, Capacity: 500 mL",https://www.indiamart.com/proddetail/plastic-water-bottle-for-kids-2854830341691.html?pos=145&kwd=plastic baby bottle&tags=||||8210.732|Price|product|||TS|rsf:gd-|-stype:attr=1|qr_nm:gd|res:RC5|com-cf:nl|ptrs:na|ktp:N0|mc:22704|mtp:S|qry_typ:P|lang:en|wc:3|cs:8833|v=4,Dwarkesh Enterprise,https://www.everestproducts.co.in/?pos=145&kwd=plastic baby bottle&tags=||||8210.732|Price|product|||TS|rsf:gd-|-stype:attr=1|qr_nm:gd|res:RC5|com-cf:nl|ptrs:na|ktp:N0|mc:22704|mtp:S|qry_typ:P|lang:en|wc:3|cs:8833|v=4,False,Gokhiware,Vasai,"Gala No.109 & 110, Rajprabha Ind. Est., Bhoidapada, Gokhiware, Vasai - 401208, Dist.Thane, Maharashtra",7942534468,
"Plastic Kids Bottle, Capacity: 500 mL",https://www.indiamart.com/proddetail/kids-bottle-2854409104533.html?pos=146&kwd=plastic baby bottle&tags=||||8211.142|Price|product|||TS|rsf:gd-|-stype:attr=1|qr_nm:gd|res:RC5|com-cf:nl|ptrs:na|ktp:N0|mc:22704|mtp:S|qry_typ:P|lang:en|wc:3|cs:8833|v=4,Alvi Enterprises,https://www.alvienterprisess.com/?pos=146&kwd=plastic baby bottle&tags=||||8211.142|Price|product|||TS|rsf:gd-|-stype:attr=1|qr_nm:gd|res:RC5|com-cf:nl|ptrs:na|ktp:N0|mc:22704|mtp:S|qry_typ:P|lang:en|wc:3|cs:8833|v=4,False,Taj Mahal,Mumbai,"Shop No-6, 2/5 Moriswala Saboo Siddiq Road Musafirkhana, Taj Mahal, Mumbai - 400001, Dist.Mumbai, Maharashtra",7942822867,
Plastic Water Bottle For Kids,https://www.indiamart.com/proddetail/plastic-water-bottle-for-kids-25064447991.html?pos=147&kwd=plastic baby bottle&tags=||||8211.142|Price|product|||TS|rsf:gd-|-stype:attr=1|qr_nm:gd|res:RC5|com-cf:nl|ptrs:na|ktp:N0|mc:22704|mtp:S|qry_typ:P|lang:en|wc:3|cs:8833|v=4,Renold Industries,https://www.indiamart.com/renoldindustries/?pos=147&kwd=plastic baby bottle&tags=||||8211.142|Price|product|||TS|rsf:gd-|-stype:attr=1|qr_nm:gd|res:RC5|com-cf:nl|ptrs:na|ktp:N0|mc:22704|mtp:S|qry_typ:P|lang:en|wc:3|cs:8833|v=4,False,Ghatkopar West,Mumbai,"A -115, Ghatkopar Industrial Estate, L B S Marg, Ghatkopar West, Ghatkopar West, Mumbai - 400086, Dist.Mumbai, Maharashtra",8048971958,
"Metal Mirror Emarald feeding bottle, Capacity: 200 ml, Age Group: 1-2 Years",https://www.indiamart.com/proddetail/emarald-feeding-bottle-2854766685973.html?pos=148&kwd=plastic baby bottle&tags=||||8921.206|Price|product|||MDC|rsf:gd-|-stype:attr=1|qr_nm:gd|res:RC5|com-cf:nl|ptrs:na|ktp:N0|mc:22704|mtp:S|qry_typ:P|lang:en|wc:3|cs:8833|v=4,Malar Metalware Products,https://www.indiamart.com/malarmetalware-products/?pos=148&kwd=plastic baby bottle&tags=||||8921.206|Price|product|||MDC|rsf:gd-|-stype:attr=1|qr_nm:gd|res:RC5|com-cf:nl|ptrs:na|ktp:N0|mc:22704|mtp:S|qry_typ:P|lang:en|wc:3|cs:8833|v=4,False,,Chengalpattu,"133a, Sembakkam, Indira Nagar,, Sembakkam Village, Chengalpattu - 603108, Dist.Kanchipuram, Tamil Nadu",8044460341,
"Plastic Kids Sipper Bottle, Capacity: 100 mL",https://www.indiamart.com/proddetail/kids-sipper-bottle-2854584727791.html?pos=149&kwd=plastic baby bottle&tags=||||8624.416|Price|product|||MDC|rsf:gd-|-stype:attr=1|qr_nm:gd|res:RC5|com-cf:nl|ptrs:na|ktp:N0|mc:22704|mtp:S|qry_typ:P|lang:en|wc:3|cs:8833|v=4,Dayawanti Traders,https://www.indiamart.com/dayawati-trader/?pos=149&kwd=plastic baby bottle&tags=||||8624.416|Price|product|||MDC|rsf:gd-|-stype:attr=1|qr_nm:gd|res:RC5|com-cf:nl|ptrs:na|ktp:N0|mc:22704|mtp:S|qry_typ:P|lang:en|wc:3|cs:8833|v=4,False,Indira Colony,Hisar,"Plot No. 137 Dhani Kishandutt, Near Asha High School, Nancy Beauty Parlour, Indira Colony, Indira Colony, Hisar - 125001, Dist.Hisar, Haryana",7942701403,
"Plastic Bus Bottle, Capacity: 1 Litre",https://www.indiamart.com/proddetail/plastic-kids-bus-bottle-2855009411633.html?pos=150&kwd=plastic baby bottle&tags=||||8038.093|Price|product|||MDC|rsf:gd-|-stype:attr=1|qr_nm:gd|res:RC5|com-cf:nl|ptrs:na|ktp:N0|mc:22704|mtp:S|qry_typ:P|lang:en|wc:3|cs:8833|v=4,Hasti Products,https://www.indiamart.com/hasti-products-rajkot/?pos=150&kwd=plastic baby bottle&tags=||||8038.093|Price|product|||MDC|rsf:gd-|-stype:attr=1|qr_nm:gd|res:RC5|com-cf:nl|ptrs:na|ktp:N0|mc:22704|mtp:S|qry_typ:P|lang:en|wc:3|cs:8833|v=4,False,,Rajkot,"Sardar Ind.area Plot No.73,Gondal Road Kothariya Solvent, Rajkot - 360002, Dist.Rajkot, Gujarat",8044457967,
"Plastic White 260ml Philips Avent Natural Response Baby Feeding Bottle, Age Group: Newly Born",https://www.indiamart.com/proddetail/260ml-philips-avent-natural-response-baby-feeding-bottle-2854976863848.html?pos=151&kwd=plastic baby bottle&tags=||||8584.299|Price|product|||MDC|rsf:gd-|-stype:attr=1|qr_nm:gd|res:RC5|com-cf:nl|ptrs:na|ktp:N0|mc:22704|mtp:S|qry_typ:P|lang:en|wc:3|cs:8833|v=4,Vino Mani Enterprises,https://www.indiamart.com/vino-mani-enterprises/?pos=151&kwd=plastic baby bottle&tags=||||8584.299|Price|product|||MDC|rsf:gd-|-stype:attr=1|qr_nm:gd|res:RC5|com-cf:nl|ptrs:na|ktp:N0|mc:22704|mtp:S|qry_typ:P|lang:en|wc:3|cs:8833|v=4,False,,Coimbatore,"No 89A, NA, Azad Road, R S Puram, Coimbatore - 641002, Dist.Coimbatore, Tamil Nadu",7942546353,
"PP Transperent Baby Feeding Bottle 125ml, Age Group: 3-12 Months",https://www.indiamart.com/proddetail/baby-feeding-bottle-125ml-2854998287997.html?pos=152&kwd=plastic baby bottle&tags=||||8752.144|Price|product|||TS|rsf:gd-|-stype:attr=1|qr_nm:gd|res:RC5|com-cf:nl|ptrs:na|ktp:N0|mc:22704|mtp:S|qry_typ:P|lang:en|wc:3|cs:8833|v=4,Kapoor Agencies,https://www.sagarproducts.co.in/?pos=152&kwd=plastic baby bottle&tags=||||8752.144|Price|product|||TS|rsf:gd-|-stype:attr=1|qr_nm:gd|res:RC5|com-cf:nl|ptrs:na|ktp:N0|mc:22704|mtp:S|qry_typ:P|lang:en|wc:3|cs:8833|v=4,False,Shahdara,New Delhi,"Iv/1697,Mahavir Block,Bhola Nath Nagar,Shahdar, Shahdara, New Delhi - 110032, Dist.Delhi, Delhi",8046069171,
"250ml Stainless Steel Milk Feeding Bottle, Capacity: 300 mL",https://www.indiamart.com/proddetail/250ml-stainless-steel-milk-feeding-bottle-2853697644248.html?pos=153&kwd=plastic baby bottle&tags=||||8785.791|Price|product|||MDC|rsf:gd-|-stype:attr=1|qr_nm:gd|res:RC5|com-cf:nl|ptrs:na|ktp:N0|mc:22704|mtp:S|qry_typ:P|lang:en|wc:3|cs:8833|v=4,Aadya Traders,https://www.indiamart.com/aadyatradersghaziabad/?pos=153&kwd=plastic baby bottle&tags=||||8785.791|Price|product|||MDC|rsf:gd-|-stype:attr=1|qr_nm:gd|res:RC5|com-cf:nl|ptrs:na|ktp:N0|mc:22704|mtp:S|qry_typ:P|lang:en|wc:3|cs:8833|v=4,False,Nand Gram,Ghaziabad,"C 465, Nand Gram, Nand Gram, Ghaziabad - 201003, Dist.Ghaziabad, Uttar Pradesh",7949086086,
"Plastic Sublimation Kids Bottle, 500 mL",https://www.indiamart.com/proddetail/sublimation-kids-bottle-2851126158662.html?pos=154&kwd=plastic baby bottle&tags=||||8242.731|Price|product|||TS|rsf:gd-|-stype:attr=1|qr_nm:gd|res:RC5|com-cf:nl|ptrs:na|ktp:N0|mc:22704|mtp:S|qry_typ:P|lang:en|wc:3|cs:8833|v=4,Kk Enterprises,https://www.kkenterprisesindia.in/?pos=154&kwd=plastic baby bottle&tags=||||8242.731|Price|product|||TS|rsf:gd-|-stype:attr=1|qr_nm:gd|res:RC5|com-cf:nl|ptrs:na|ktp:N0|mc:22704|mtp:S|qry_typ:P|lang:en|wc:3|cs:8833|v=4,False,Vithalwadi,Ulhasnagar,"Regency Plaza, C-21, Building No. 2, Ground Floor Kalyan, Vithalwadi, Ulhasnagar - 421003, Dist.Thane, Maharashtra",8048960654,
"Plastic Baby Feeding Bottle, Capacity: 125 ml",https://www.indiamart.com/proddetail/plastic-baby-feeding-bottle-2853930537497.html?pos=155&kwd=plastic baby bottle&tags=||||8786.56|Price|product|||MDC|rsf:gd-|-stype:attr=1|qr_nm:gd|res:RC5|com-cf:nl|ptrs:na|ktp:N0|mc:22704|mtp:S|qry_typ:P|lang:en|wc:3|cs:8833|v=4,Annapurna Agencies,https://www.indiamart.com/annapurna-agencies-hyderabad/?pos=155&kwd=plastic baby bottle&tags=||||8786.56|Price|product|||MDC|rsf:gd-|-stype:attr=1|qr_nm:gd|res:RC5|com-cf:nl|ptrs:na|ktp:N0|mc:22704|mtp:S|qry_typ:P|lang:en|wc:3|cs:8833|v=4,False,Mansoorabad,Hyderabad,"3-9-586/1, Plot No 99, Road No 2, Balaji Nagar, Mansoorabad, L.B. Nagar, Rangareddy, Mansoorabad, Hyderabad - 500068, Dist.Hyderabad, Telangana",7949082672,
"Kids Plastic Water Bottle, Capacity: 500 mL",https://www.indiamart.com/proddetail/kids-plastic-water-bottle-2853159533648.html?pos=156&kwd=plastic baby bottle&tags=||||8974.737|Price|product|||MDC|rsf:gd-|-stype:attr=1|qr_nm:gd|res:RC5|com-cf:nl|ptrs:na|ktp:N0|mc:22704|mtp:S|qry_typ:P|lang:en|wc:3|cs:8833|v=4,Aman Trading Company,https://www.indiamart.com/amantrading-company/?pos=156&kwd=plastic baby bottle&tags=||||8974.737|Price|product|||MDC|rsf:gd-|-stype:attr=1|qr_nm:gd|res:RC5|com-cf:nl|ptrs:na|ktp:N0|mc:22704|mtp:S|qry_typ:P|lang:en|wc:3|cs:8833|v=4,False,Prem Nagar,Bareilly,"109, Nvavan Wali Gali, Bara Bazar Bareilly, Prem Nagar, Bareilly - 243001, Dist.Bareilly, Uttar Pradesh",7942570981,
Kids Plastic Water Bottle,https://www.indiamart.com/proddetail/kids-plastic-water-bottle-2854414788973.html?pos=157&kwd=plastic baby bottle&tags=||||8032.138|Price|product|||MDC|rsf:gd-|-stype:attr=1|qr_nm:gd|res:RC5|com-cf:nl|ptrs:na|ktp:N0|mc:22704|mtp:S|qry_typ:P|lang:en|wc:3|cs:8833|v=4,Maruti Paper Product,https://www.indiamart.com/marutipaper-product/?pos=157&kwd=plastic baby bottle&tags=||||8032.138|Price|product|||MDC|rsf:gd-|-stype:attr=1|qr_nm:gd|res:RC5|com-cf:nl|ptrs:na|ktp:N0|mc:22704|mtp:S|qry_typ:P|lang:en|wc:3|cs:8833|v=4,False,Rajkot,Gondal,"BH Wandheshwar Temple, Survey No. 82, P2 P1, Plot No. 15, Opp Sagar Ferex, Gondal Road, Bhunava, Rajkot, Gondal - 360311, Dist.Rajkot, Gujarat",8045731757,
"Kids Plastic Water Bottle, 250 ml",https://www.indiamart.com/proddetail/kids-plastic-water-bottle-2855023712188.html?pos=158&kwd=plastic baby bottle&tags=||||8210.732|Price|product|||MDC|rsf:gd-|-stype:attr=1|qr_nm:gd|res:RC5|com-cf:nl|ptrs:na|ktp:N0|mc:22704|mtp:S|qry_typ:P|lang:en|wc:3|cs:8833|v=4,Shree Natraj Marketing,https://www.indiamart.com/shree-natraj-marketing/?pos=158&kwd=plastic baby bottle&tags=||||8210.732|Price|product|||MDC|rsf:gd-|-stype:attr=1|qr_nm:gd|res:RC5|com-cf:nl|ptrs:na|ktp:N0|mc:22704|mtp:S|qry_typ:P|lang:en|wc:3|cs:8833|v=4,False,,Vasai Virar,"B/16, Omlata Jain Tower, Anand Nagar, K T Theatar Vasai West, Thane, Vasai Virar - 401202, Dist.Thane, Maharashtra",7942540377,
Kids Plastic Sipper Bottles,https://www.indiamart.com/proddetail/kids-plastic-sipper-bottles-2854701169512.html?pos=159&kwd=plastic baby bottle&tags=||||8752.144|Price|product|||MDC|rsf:gd-|-stype:attr=1|qr_nm:gd|res:RC5|com-cf:nl|ptrs:na|ktp:N0|mc:22704|mtp:S|qry_typ:P|lang:en|wc:3|cs:8833|v=4,Jai Maa Enterprises,https://www.indiamart.com/jaimaa-enterprises-newdelhi/?pos=159&kwd=plastic baby bottle&tags=||||8752.144|Price|product|||MDC|rsf:gd-|-stype:attr=1|qr_nm:gd|res:RC5|com-cf:nl|ptrs:na|ktp:N0|mc:22704|mtp:S|qry_typ:P|lang:en|wc:3|cs:8833|v=4,False,,New Delhi,"House No B 6/347, Nand Nagri, New Delhi - 110093, Dist.Delhi, Delhi",8045737883,
"Multicolor Baby Kid Silicone Squeeze Feeding Bottle, 100 mL, Age Group: 1-2 Years",https://www.indiamart.com/proddetail/baby-kid-silicone-squeeze-feeding-bottle-2851632784255.html?pos=160&kwd=plastic baby bottle&tags=||||8752.144|Price|product|||TS|rsf:gd-|-stype:attr=1|qr_nm:gd|res:RC5|com-cf:nl|ptrs:na|ktp:N0|mc:22704|mtp:S|qry_typ:P|lang:en|wc:3|cs:8833|v=4,Inquantity,https://www.indiamart.com/inquantity/?pos=160&kwd=plastic baby bottle&tags=||||8752.144|Price|product|||TS|rsf:gd-|-stype:attr=1|qr_nm:gd|res:RC5|com-cf:nl|ptrs:na|ktp:N0|mc:22704|mtp:S|qry_typ:P|lang:en|wc:3|cs:8833|v=4,False,Shahdara,New Delhi,"1/6258, East Rohtash Nagar, Shahdara, Shahdara, New Delhi - 110032, Dist.Delhi, Delhi",8047620719,
"Green Disney Baby Bottle, Age Group: 1-2 Years, Size: 600",https://www.indiamart.com/proddetail/disney-baby-bottle-26311358562.html?pos=161&kwd=plastic baby bottle&tags=CC||||8228.275|Price|product|||TS|rsf:gd-|-stype:attr=1|qr_nm:gd|res:RC5|com-cf:nl|ptrs:na|ktp:N0|mc:22704|mtp:S|qry_typ:P|lang:en|wc:3|cs:8833|v=4,Gopinath Plast,https://www.gopinathplastic.com/?pos=161&kwd=plastic baby bottle&tags=CC||||8228.275|Price|product|||TS|rsf:gd-|-stype:attr=1|qr_nm:gd|res:RC5|com-cf:nl|ptrs:na|ktp:N0|mc:22704|mtp:S|qry_typ:P|lang:en|wc:3|cs:8833|v=4,False,Odhav,Ahmedabad,"A-19, Gopal Estate, Opposite Valabh Nagar, Odhav, Ahmedabad - 382415, Dist.Ahmedabad, Gujarat",8046079187,
"Dispenser Pump Hdpe Baby Bath Bottle, Use For Storage: Shampoo, 250 Ml",https://www.indiamart.com/proddetail/baby-bath-bottle-24971574733.html?pos=162&kwd=plastic baby bottle&tags=CC||||8752.144|Price|product|||TS|rsf:gd-|-stype:attr=1|qr_nm:gd|res:RC5|com-cf:nl|ptrs:na|ktp:N0|mc:22704|mtp:S|qry_typ:P|lang:en|wc:3|cs:8833|v=4,Vishwakarma Industries,https://www.indiamart.com/vishwakarma-industries-delhi/?pos=162&kwd=plastic baby bottle&tags=CC||||8752.144|Price|product|||TS|rsf:gd-|-stype:attr=1|qr_nm:gd|res:RC5|com-cf:nl|ptrs:na|ktp:N0|mc:22704|mtp:S|qry_typ:P|lang:en|wc:3|cs:8833|v=4,False,Badli,New Delhi,"Khasra No-43/36, Badli Village, Near Valmiki Temple,, Badli, New Delhi - 110042, Dist.Delhi, Delhi",8048601396,
"Blue Budds Buddy Classic Baby Feeding Bottle Plastic Milk Baby Bottle, Capacity: 250 ml, Age Group: Newly Born",https://www.indiamart.com/proddetail/budds-buddy-classic-baby-feeding-bottle-plastic-milk-baby-bottle-2854527477930.html?pos=163&kwd=plastic baby bottle&tags=||||8038.093|Price|product|||MDC|rsf:gd-|-stype:attr=1|qr_nm:gd|res:RC5|com-cf:nl|ptrs:na|ktp:N0|mc:22704|mtp:S|qry_typ:P|lang:en|wc:3|cs:8833|v=4,My Medicine,https://www.indiamart.com/mymedicinerajkot/?pos=163&kwd=plastic baby bottle&tags=||||8038.093|Price|product|||MDC|rsf:gd-|-stype:attr=1|qr_nm:gd|res:RC5|com-cf:nl|ptrs:na|ktp:N0|mc:22704|mtp:S|qry_typ:P|lang:en|wc:3|cs:8833|v=4,False,,Rajkot,"8, Git Gurjari Scoiety, My Medicine, Air Port Road, Opp. Nilkant Mahadev Temple, Rajkot - 360007, Dist.Rajkot, Gujarat",7949336599,
EAR BOTTLE,https://www.indiamart.com/proddetail/ear-bottle-2854185787391.html?pos=164&kwd=plastic baby bottle&tags=CC||||8752.144|Price|product|||TS|rsf:gd-|-stype:attr=1|qr_nm:gd|res:RC5|com-cf:nl|ptrs:na|ktp:N0|mc:22704|mtp:S|qry_typ:P|lang:en|wc:3|cs:8833|v=4,D&V Engineering,https://www.qbmindia.in/?pos=164&kwd=plastic baby bottle&tags=CC||||8752.144|Price|product|||TS|rsf:gd-|-stype:attr=1|qr_nm:gd|res:RC5|com-cf:nl|ptrs:na|ktp:N0|mc:22704|mtp:S|qry_typ:P|lang:en|wc:3|cs:8833|v=4,False,Badarpur,New Delhi,"Plot No-2, Near Gurudwara, Jaitpur Village, Badarpur, Badarpur, New Delhi - 110044, Dist.Delhi, Delhi",7942543621,
"Plastic White And Blue A-BRITE Feeding Bottle, Capacity: 250 ml, Age Group: 1-2 Years",https://www.indiamart.com/proddetail/a-brite-feeding-bottle-2854875474712.html?pos=165&kwd=plastic baby bottle&tags=||||8211.142|Price|product|||MDC|rsf:gd-|-stype:attr=1|qr_nm:gd|res:RC5|com-cf:nl|ptrs:na|ktp:N0|mc:22704|mtp:S|qry_typ:P|lang:en|wc:3|cs:8833|v=4,Champion Traders,https://www.indiamart.com/champion-traders-mumbai/?pos=165&kwd=plastic baby bottle&tags=||||8211.142|Price|product|||MDC|rsf:gd-|-stype:attr=1|qr_nm:gd|res:RC5|com-cf:nl|ptrs:na|ktp:N0|mc:22704|mtp:S|qry_typ:P|lang:en|wc:3|cs:8833|v=4,False,,Mumbai,"1st Floor, Room No 25, 27, Ismail Building, Sutar Chawl, Abdul Rehman Street, Kalbadevi,, Mumbai - 400002, Dist.Mumbai, Maharashtra",8044459818,
"Plastic Kids Bottle, Capacity: 500 mL",https://www.indiamart.com/proddetail/kids-bottle-2854594233391.html?pos=166&kwd=plastic baby bottle&tags=||||8752.144|Price|product|||TS|rsf:gd-|-stype:attr=1|qr_nm:gd|res:RC5|com-cf:nl|ptrs:na|ktp:N0|mc:22704|mtp:S|qry_typ:P|lang:en|wc:3|cs:8833|v=4,R. K. Traders,https://www.indiamart.com/rk-traders-rajkot/?pos=166&kwd=plastic baby bottle&tags=||||8752.144|Price|product|||TS|rsf:gd-|-stype:attr=1|qr_nm:gd|res:RC5|com-cf:nl|ptrs:na|ktp:N0|mc:22704|mtp:S|qry_typ:P|lang:en|wc:3|cs:8833|v=4,False,Pooth Khurd,New Delhi,"Plot/Khasra No-155/434, Ground Floor, Extended Lal Dora, Industrial Plot Village Pooth Khurd,, Pooth Khurd, New Delhi - 110039, Dist.Delhi, Delhi",7942558440,
500ml Kids Plastic Water Bottle,https://www.indiamart.com/proddetail/500ml-kids-plastic-water-bottle-2854006440055.html?pos=167&kwd=plastic baby bottle&tags=||||8588.208|Price|product|||TS|rsf:gd-|-stype:attr=1|qr_nm:gd|res:RC5|com-cf:nl|ptrs:na|ktp:N0|mc:22704|mtp:S|qry_typ:P|lang:en|wc:3|cs:8833|v=4,Radhika Enterprises,https://www.indiamart.com/radhikaenterpriseskota/?pos=167&kwd=plastic baby bottle&tags=||||8588.208|Price|product|||TS|rsf:gd-|-stype:attr=1|qr_nm:gd|res:RC5|com-cf:nl|ptrs:na|ktp:N0|mc:22704|mtp:S|qry_typ:P|lang:en|wc:3|cs:8833|v=4,False,Talwandi,Kota,"E-106, Kachi Basti, Shiram Nagar Colony,Kansua, Talwandi, Kota - 324004, Rajasthan",8045735463,
"Transparent Plastic Baby Training Sipper Bottle, Capacity: 100 mL",https://www.indiamart.com/proddetail/plastic-baby-training-sipper-bottle-20313700597.html?pos=168&kwd=plastic baby bottle&tags=CC||||8876.815|Price|product|||MDC|rsf:gd-|-stype:attr=1|qr_nm:gd|res:RC5|com-cf:nl|ptrs:na|ktp:N0|mc:22704|mtp:S|qry_typ:P|lang:en|wc:3|cs:8833|v=4,Tushar Sales Agency,https://www.indiamart.com/tushar-sales-agency/?pos=168&kwd=plastic baby bottle&tags=CC||||8876.815|Price|product|||MDC|rsf:gd-|-stype:attr=1|qr_nm:gd|res:RC5|com-cf:nl|ptrs:na|ktp:N0|mc:22704|mtp:S|qry_typ:P|lang:en|wc:3|cs:8833|v=4,False,,Nagpur,"House No 364, Behind Hanuman Mandir, Kasarpura, Nagpur - 440002, Dist.Nagpur, Maharashtra",8047517600,
"Transparent Plastic Baby Training Sipper Bottle, Capacity: 100 mL",https://www.indiamart.com/proddetail/plastic-baby-training-sipper-bottle-20313700597.html?pos=169&kwd=plastic baby bottle&tags=CC||||8876.815|Price|product|||MDC|rsf:gd-|-stype:attr=1|qr_nm:gd|res:RC5|com-cf:nl|ptrs:na|ktp:N0|mc:22704|mtp:S|qry_typ:P|lang:en|wc:3|cs:8833|v=4,Tushar Sales Agency,https://www.indiamart.com/tushar-sales-agency/?pos=169&kwd=plastic baby bottle&tags=CC||||8876.815|Price|product|||MDC|rsf:gd-|-stype:attr=1|qr_nm:gd|res:RC5|com-cf:nl|ptrs:na|ktp:N0|mc:22704|mtp:S|qry_typ:P|lang:en|wc:3|cs:8833|v=4,False,,Nagpur,"House No 364, Behind Hanuman Mandir, Kasarpura, Nagpur - 440002, Dist.Nagpur, Maharashtra",8047517600,
"Blue (Base) DB-572 Plastic Baby Feeding Bottle, Capacity: 125 ml, Age Group: 3-12 Months",https://www.indiamart.com/proddetail/db-572-plastic-baby-feeding-bottle-2854160582773.html?pos=170&kwd=plastic baby bottle&tags=CC||||8693.162||product|||MDC|rsf:gd-|-stype:attr=1|qr_nm:gd|res:RC5|com-cf:nl|ptrs:na|ktp:N0|mc:22704|mtp:S|qry_typ:P|lang:en|wc:3|cs:8833|v=4,Dear Baby,https://www.indiamart.com/dearbaby/?pos=170&kwd=plastic baby bottle&tags=CC||||8693.162||product|||MDC|rsf:gd-|-stype:attr=1|qr_nm:gd|res:RC5|com-cf:nl|ptrs:na|ktp:N0|mc:22704|mtp:S|qry_typ:P|lang:en|wc:3|cs:8833|v=4,False,Begambur,Dindigul,"2nd Floor, No 7, Ahmad Appartment, S P Nagar, Begambur, Begambur, Dindigul - 624002, Dist.Dindigul, Tamil Nadu",8045731862,
Plastic Astronaut Children Space Sipper Bottle 3D Emboss Kawai Stickers Handle And Strap - 1200 ML,https://www.indiamart.com/proddetail/plastic-astronaut-children-space-sipper-bottle-3d-emboss-kawai-stickers-handle-and-strap-1200-ml-2851183221091.html?pos=171&kwd=plastic baby bottle&tags=||||8785.791|Price|product|||TS|rsf:gd-|-stype:attr=1|qr_nm:gd|res:RC5|com-cf:nl|ptrs:na|ktp:N0|mc:22704|mtp:S|qry_typ:P|lang:en|wc:3|cs:8833|v=4,Rident Kitchen,https://www.ridentkitchen.in/?pos=171&kwd=plastic baby bottle&tags=||||8785.791|Price|product|||TS|rsf:gd-|-stype:attr=1|qr_nm:gd|res:RC5|com-cf:nl|ptrs:na|ktp:N0|mc:22704|mtp:S|qry_typ:P|lang:en|wc:3|cs:8833|v=4,False,Mohan Nagar,Ghaziabad,"Plot No. 30, Second floor Rajender Nagar Industrial Area, Street No. 4, Mohan Nagar, Ghaziabad - 201007, Dist.Ghaziabad, Uttar Pradesh",8048262052,
"Plastic Cute Children bottle, Capacity: 500 mL",https://www.indiamart.com/proddetail/cute-children-bottle-2854618925455.html?pos=172&kwd=plastic baby bottle&tags=||||8211.142|Price|product|||TS|rsf:gd-|-stype:attr=1|qr_nm:gd|res:RC5|com-cf:nl|ptrs:na|ktp:N0|mc:22704|mtp:S|qry_typ:P|lang:en|wc:3|cs:8833|v=4,Mahenoor Enterprise,https://www.indiamart.com/mahenoor/?pos=172&kwd=plastic baby bottle&tags=||||8211.142|Price|product|||TS|rsf:gd-|-stype:attr=1|qr_nm:gd|res:RC5|com-cf:nl|ptrs:na|ktp:N0|mc:22704|mtp:S|qry_typ:P|lang:en|wc:3|cs:8833|v=4,False,Jogeshwari West,Mumbai,"Room No 50, Rahat Nagar, Sewree Cross Road Wadala West, Jogeshwari West, Mumbai - 400031, Dist.Mumbai, Maharashtra",8047546571,
Pink Love Baby Plastic Water Bottle,https://www.indiamart.com/proddetail/pink-love-baby-plastic-water-bottle-2854550706391.html?pos=173&kwd=plastic baby bottle&tags=||||8229.666|Price|product|||MDC|rsf:gd-|-stype:attr=1|qr_nm:gd|res:RC5|com-cf:nl|ptrs:na|ktp:N0|mc:22704|mtp:S|qry_typ:P|lang:en|wc:3|cs:8833|v=4,Vardan Creators Private Limited,https://www.indiamart.com/vardancreators/?pos=173&kwd=plastic baby bottle&tags=||||8229.666|Price|product|||MDC|rsf:gd-|-stype:attr=1|qr_nm:gd|res:RC5|com-cf:nl|ptrs:na|ktp:N0|mc:22704|mtp:S|qry_typ:P|lang:en|wc:3|cs:8833|v=4,False,,Vapi,"Block A, Ground,, Industrial Shed No-A1/41, Pinki Industries, Vapi Industrial Estate, GIDC, Vapi - 396195, Dist.Valsad, Gujarat",7949329906,
"Baby Sipper 002, Packaging Type: Plastic Bottle",https://www.indiamart.com/proddetail/baby-sipper-002-22263179297.html?pos=174&kwd=plastic baby bottle&tags=CC||||8211.142|Price|product|||MDC|rsf:gd-|-stype:attr=1|qr_nm:gd|res:RC5|com-cf:nl|ptrs:na|ktp:N0|mc:22704|mtp:S|qry_typ:P|lang:en|wc:3|cs:8833|v=4,Vardhman Plastics,https://www.indiamart.com/vardhman-plastics-mumbai/?pos=174&kwd=plastic baby bottle&tags=CC||||8211.142|Price|product|||MDC|rsf:gd-|-stype:attr=1|qr_nm:gd|res:RC5|com-cf:nl|ptrs:na|ktp:N0|mc:22704|mtp:S|qry_typ:P|lang:en|wc:3|cs:8833|v=4,False,Malad,Mumbai,"203, Indraprasth Building, 3rd Dominic Lane, Malad West, Malad, Mumbai - 400064, Dist.Mumbai, Maharashtra",8048608743,
"Pink and White 125ml Baby Plastic Feeding Bottle, Age Group: 3-12 Months",https://www.indiamart.com/proddetail/125ml-baby-plastic-feeding-bottle-25691157233.html?pos=175&kwd=plastic baby bottle&tags=||||8752.144|Price|product|||MDC|rsf:gd-|-stype:attr=1|qr_nm:gd|res:RC5|com-cf:nl|ptrs:na|ktp:N0|mc:22704|mtp:S|qry_typ:P|lang:en|wc:3|cs:8833|v=4,Little Kingdom Baby Product,https://www.indiamart.com/little-kingdombaby-product/?pos=175&kwd=plastic baby bottle&tags=||||8752.144|Price|product|||MDC|rsf:gd-|-stype:attr=1|qr_nm:gd|res:RC5|com-cf:nl|ptrs:na|ktp:N0|mc:22704|mtp:S|qry_typ:P|lang:en|wc:3|cs:8833|v=4,False,Bawana,New Delhi,"Plot No. 16, PKT-G, Sector-3, DSIIDC, Bawana, North West Delhi, Bawana, New Delhi - 110039, Dist.Delhi, Delhi",8047648589,
1100Ml Plastic Kids Sipper Bottle,https://www.indiamart.com/proddetail/1100ml-plastic-kids-sipper-bottle-2851930845191.html?pos=176&kwd=plastic baby bottle&tags=||||8752.144|Price|product|||MDC|rsf:gd-|-stype:attr=1|qr_nm:gd|res:RC5|com-cf:nl|ptrs:na|ktp:N0|mc:22704|mtp:S|qry_typ:P|lang:en|wc:3|cs:8833|v=4,Shivay Traders,https://www.indiamart.com/shivaytradersdelhi/?pos=176&kwd=plastic baby bottle&tags=||||8752.144|Price|product|||MDC|rsf:gd-|-stype:attr=1|qr_nm:gd|res:RC5|com-cf:nl|ptrs:na|ktp:N0|mc:22704|mtp:S|qry_typ:P|lang:en|wc:3|cs:8833|v=4,False,,New Delhi,"Pocket 1,157, Green Hill, Appartment, Sector 23 Rohini, North West Delhi, New Delhi - 110085, Dist.Delhi, Delhi",8045736222,
"Plastic Beauty Kids Sipper Bottle, Capacity: 750 mL",https://www.indiamart.com/proddetail/beauty-kids-sipper-bottle-2854889069097.html?pos=177&kwd=plastic baby bottle&tags=||||8752.144||product|||MDC|rsf:gd-|-stype:attr=1|qr_nm:gd|res:RC5|com-cf:nl|ptrs:na|ktp:N0|mc:22704|mtp:S|qry_typ:P|lang:en|wc:3|cs:8833|v=4,R P Enterprises,https://www.indiamart.com/r-penterprisesnew-delhi/?pos=177&kwd=plastic baby bottle&tags=||||8752.144||product|||MDC|rsf:gd-|-stype:attr=1|qr_nm:gd|res:RC5|com-cf:nl|ptrs:na|ktp:N0|mc:22704|mtp:S|qry_typ:P|lang:en|wc:3|cs:8833|v=4,False,North West Delhi,New Delhi,"A-91, Back Side DD Motors, Wazirpur Industrial Area, North West Delhi, New Delhi - 110052, Dist.Delhi, Delhi",8044460698,
"Size: 20 cm Material: Plastic KidEarth Baby Spoon Feeder, For Home, Capacity: 200 mL",https://www.indiamart.com/proddetail/kidearth-baby-spoon-feeder-2854760457012.html?pos=178&kwd=plastic baby bottle&tags=||||8752.144|Price|product|||MDC|rsf:gd-|-stype:attr=1|qr_nm:gd|res:RC5|com-cf:nl|ptrs:na|ktp:N0|mc:22704|mtp:S|qry_typ:P|lang:en|wc:3|cs:8833|v=4,L T Textiles,https://www.indiamart.com/lttextiles/?pos=178&kwd=plastic baby bottle&tags=||||8752.144|Price|product|||MDC|rsf:gd-|-stype:attr=1|qr_nm:gd|res:RC5|com-cf:nl|ptrs:na|ktp:N0|mc:22704|mtp:S|qry_typ:P|lang:en|wc:3|cs:8833|v=4,False,Pahari Dhiraj,New Delhi,"5189-90 Main Road, Sadar Bazar, Pahari Dhiraj, New Delhi - 110006, Dist.Delhi, Delhi",7942958455,
"Plastic Kids Unicorn Hot Cold Bottle, 500 mL",https://www.indiamart.com/proddetail/kids-unicorn-printed-bottle-2854556638162.html?pos=179&kwd=plastic baby bottle&tags=||||8786.56|Price|product|||MDC|rsf:gd-|-stype:attr=1|qr_nm:gd|res:RC5|com-cf:nl|ptrs:na|ktp:N0|mc:22704|mtp:S|qry_typ:P|lang:en|wc:3|cs:8833|v=4,Royal Party Shop,https://www.indiamart.com/royalpartyshophyderabad/?pos=179&kwd=plastic baby bottle&tags=||||8786.56|Price|product|||MDC|rsf:gd-|-stype:attr=1|qr_nm:gd|res:RC5|com-cf:nl|ptrs:na|ktp:N0|mc:22704|mtp:S|qry_typ:P|lang:en|wc:3|cs:8833|v=4,False,,Hyderabad,"15-8-512 and 513 S 203, Feelkhana, Begum Bazar,, Hyderabad - 500012, Dist.Hyderabad, Telangana",7949325108,
Plain Milk Glass Bottle With Cap 500 mL,https://www.indiamart.com/proddetail/500-ml-plain-milk-glass-bottle-with-cap-2852379923148.html?pos=180&kwd=plastic baby bottle&tags=CC||||8861.147|Price|product|||TS|rsf:gd-|-stype:attr=1|qr_nm:gd|res:RC5|com-cf:nl|ptrs:na|ktp:N0|mc:22704|mtp:S|qry_typ:P|lang:en|wc:3|cs:8833|v=4,Tirupati Glass Industries,https://www.tirupatiglassindustries.com/?pos=180&kwd=plastic baby bottle&tags=CC||||8861.147|Price|product|||TS|rsf:gd-|-stype:attr=1|qr_nm:gd|res:RC5|com-cf:nl|ptrs:na|ktp:N0|mc:22704|mtp:S|qry_typ:P|lang:en|wc:3|cs:8833|v=4,False,Dakhal,Firozabad,"0, 0, 0, Jaroli Kalan, Agra Road, Dakhal, Firozabad - 283203, Dist.Firozabad, Uttar Pradesh",7942822055,
"Plastic Baby Feeding Bottle, Age Group: 3-12 Months",https://www.indiamart.com/proddetail/plastic-baby-feeding-bottle-2853732758430.html?pos=181&kwd=plastic baby bottle&tags=||||8752.144|Price|product|||TS|rsf:gd-|-stype:attr=1|qr_nm:gd|res:RC5|com-cf:nl|ptrs:na|ktp:N0|mc:22704|mtp:S|qry_typ:P|lang:en|wc:3|cs:8833|v=4,Aman Impex,https://www.myamanimpex.com/?pos=181&kwd=plastic baby bottle&tags=||||8752.144|Price|product|||TS|rsf:gd-|-stype:attr=1|qr_nm:gd|res:RC5|com-cf:nl|ptrs:na|ktp:N0|mc:22704|mtp:S|qry_typ:P|lang:en|wc:3|cs:8833|v=4,False,Paschim Vihar,New Delhi,"Flat No. 681, S/F Janta Flats, Pocket-II, Paschim Puri, Paschim Vihar, New Delhi - 110063, Dist.Delhi, Delhi",8048600148,
"Plastic Baby Feeding Bottle, 100 mL, Age Group: Newly Born",https://www.indiamart.com/proddetail/plastic-baby-feeding-bottle-2850051971691.html?pos=182&kwd=plastic baby bottle&tags=||||8230.883|Price|product|||MDC|rsf:gd-|-stype:attr=1|qr_nm:gd|res:RC5|com-cf:nl|ptrs:na|ktp:N0|mc:22704|mtp:S|qry_typ:P|lang:en|wc:3|cs:8833|v=4,Jay Impex,https://www.indiamart.com/jayimpexsurat/?pos=182&kwd=plastic baby bottle&tags=||||8230.883|Price|product|||MDC|rsf:gd-|-stype:attr=1|qr_nm:gd|res:RC5|com-cf:nl|ptrs:na|ktp:N0|mc:22704|mtp:S|qry_typ:P|lang:en|wc:3|cs:8833|v=4,False,Athwa,Surat,"1st Floor, 77, Narmad Nagar Soc, Hirabaug,, Athwa, Surat - 395006, Dist.Surat, Gujarat",7942713335,
"250ml Vega Wide Plastic Baby Feeding Bottle, Age Group: 4+Months",https://www.indiamart.com/proddetail/250ml-vega-wide-plastic-baby-feeding-bottle-2854382181712.html?pos=183&kwd=plastic baby bottle&tags=||||9110.092|Price|product|||MDC|rsf:gd-|-stype:attr=1|qr_nm:gd|res:RC5|com-cf:nl|ptrs:na|ktp:N0|mc:22704|mtp:S|qry_typ:P|lang:en|wc:3|cs:8833|v=4,Jai Maa Laxmi Agency,https://www.indiamart.com/jaimaalaxmiagency/?pos=183&kwd=plastic baby bottle&tags=||||9110.092|Price|product|||MDC|rsf:gd-|-stype:attr=1|qr_nm:gd|res:RC5|com-cf:nl|ptrs:na|ktp:N0|mc:22704|mtp:S|qry_typ:P|lang:en|wc:3|cs:8833|v=4,False,,Lucknow,"E-2468,Rajajipuram,Near Rupam Tailor,, Lucknow - 226017, Dist.Lucknow, Uttar Pradesh",7949339166,
"Size: 14 cm 90ml Green ABS Plastic Baby Feeding Bottle, Age Group: Newly Born",https://www.indiamart.com/proddetail/90ml-green-abs-plastic-baby-feeding-bottle-2854560551991.html?pos=184&kwd=plastic baby bottle&tags=||||8752.144|Price|product|||MDC|rsf:gd-|-stype:attr=1|qr_nm:gd|res:RC5|com-cf:nl|ptrs:na|ktp:N0|mc:22704|mtp:S|qry_typ:P|lang:en|wc:3|cs:8833|v=4,HS Enterprises,https://www.indiamart.com/hsenterprisesindia/?pos=184&kwd=plastic baby bottle&tags=||||8752.144|Price|product|||MDC|rsf:gd-|-stype:attr=1|qr_nm:gd|res:RC5|com-cf:nl|ptrs:na|ktp:N0|mc:22704|mtp:S|qry_typ:P|lang:en|wc:3|cs:8833|v=4,False,,New Delhi,"EE-496, Gali No. 10, North Delhi, New Delhi - 110042, Dist.Delhi, Delhi",7949329375,
"Plastic Dr bonne Mini, Capacity: 125 ml, Packaging Type: Box",https://www.indiamart.com/proddetail/dr-bonne-mini-2854278969762.html?pos=185&kwd=plastic baby bottle&tags=||||9520.041||product|||MDC|rsf:gd-|-stype:attr=1|qr_nm:gd|res:RC5|com-cf:nl|ptrs:na|ktp:N0|mc:22704|mtp:S|qry_typ:P|lang:en|wc:3|cs:8833|v=4,SS Products,https://www.indiamart.com/ssproducts-patna/?pos=185&kwd=plastic baby bottle&tags=||||9520.041||product|||MDC|rsf:gd-|-stype:attr=1|qr_nm:gd|res:RC5|com-cf:nl|ptrs:na|ktp:N0|mc:22704|mtp:S|qry_typ:P|lang:en|wc:3|cs:8833|v=4,False,Ranipur Khidki,Patna,"Main chowk oppt Ramyonds show Room, Ranipur Khidki, Patna - 800008, Dist.Patna, Bihar",8047641590,
"Plastic Auto Flow Smart Feeding Bottle, Capacity: 150 ml, Age Group: Newly Born",https://www.indiamart.com/proddetail/auto-flow-smart-feeding-bottle-2854915046788.html?pos=186&kwd=plastic baby bottle&tags=||||8663.873|Price|product|||MDC|rsf:gd-|-stype:attr=1|qr_nm:gd|res:RC5|com-cf:nl|ptrs:na|ktp:N0|mc:22704|mtp:S|qry_typ:P|lang:en|wc:3|cs:8833|v=4,Mahadev Enterprise,https://www.indiamart.com/mahadeventerprisebengaluru/?pos=186&kwd=plastic baby bottle&tags=||||8663.873|Price|product|||MDC|rsf:gd-|-stype:attr=1|qr_nm:gd|res:RC5|com-cf:nl|ptrs:na|ktp:N0|mc:22704|mtp:S|qry_typ:P|lang:en|wc:3|cs:8833|v=4,False,,Bengaluru,"No 14, 3rd Main 6th Cross Gururaja Layout, Doddanekundi Marathalli Urban, Bengaluru - 560037, Dist.Bengaluru, Karnataka",8044456382,
"Size: 20 cm Material: Plastic KidEarth Baby Spoon Feeder, For Home, Capacity: 200 mL",https://www.indiamart.com/proddetail/kidearth-baby-spoon-feeder-2854760457012.html?pos=187&kwd=plastic baby bottle&tags=||||8752.144|Price|product|||MDC|rsf:gd-|-stype:attr=1|qr_nm:gd|res:RC5|com-cf:nl|ptrs:na|ktp:N0|mc:22704|mtp:S|qry_typ:P|lang:en|wc:3|cs:8833|v=4,L T Textiles,https://www.indiamart.com/lttextiles/?pos=187&kwd=plastic baby bottle&tags=||||8752.144|Price|product|||MDC|rsf:gd-|-stype:attr=1|qr_nm:gd|res:RC5|com-cf:nl|ptrs:na|ktp:N0|mc:22704|mtp:S|qry_typ:P|lang:en|wc:3|cs:8833|v=4,False,Pahari Dhiraj,New Delhi,"5189-90 Main Road, Sadar Bazar, Pahari Dhiraj, New Delhi - 110006, Dist.Delhi, Delhi",7942958455,
Plain Milk Glass Bottle With Cap 500 mL,https://www.indiamart.com/proddetail/500-ml-plain-milk-glass-bottle-with-cap-2852379923148.html?pos=188&kwd=plastic baby bottle&tags=CC||||8861.147|Price|product|||TS|rsf:gd-|-stype:attr=1|qr_nm:gd|res:RC5|com-cf:nl|ptrs:na|ktp:N0|mc:22704|mtp:S|qry_typ:P|lang:en|wc:3|cs:8833|v=4,Tirupati Glass Industries,https://www.tirupatiglassindustries.com/?pos=188&kwd=plastic baby bottle&tags=CC||||8861.147|Price|product|||TS|rsf:gd-|-stype:attr=1|qr_nm:gd|res:RC5|com-cf:nl|ptrs:na|ktp:N0|mc:22704|mtp:S|qry_typ:P|lang:en|wc:3|cs:8833|v=4,False,Dakhal,Firozabad,"0, 0, 0, Jaroli Kalan, Agra Road, Dakhal, Firozabad - 283203, Dist.Firozabad, Uttar Pradesh",7942822055,
"Plastic Kids Sipper Water Bottle, Capacity: 500 mL",https://www.indiamart.com/proddetail/kids-sipper-water-bottle-2854541091191.html?pos=189&kwd=plastic baby bottle&tags=CC||||8226.563|Price|product|||TS|rsf:gd-|-stype:attr=1|qr_nm:gd|res:RC5|com-cf:nl|ptrs:na|ktp:N0|mc:22704|mtp:S|qry_typ:P|lang:en|wc:3|cs:8833|v=4,Kreative Kitchen,https://www.kreativekitchen.co.in/?pos=189&kwd=plastic baby bottle&tags=CC||||8226.563|Price|product|||TS|rsf:gd-|-stype:attr=1|qr_nm:gd|res:RC5|com-cf:nl|ptrs:na|ktp:N0|mc:22704|mtp:S|qry_typ:P|lang:en|wc:3|cs:8833|v=4,False,Vashi,Navi Mumbai,"Plot No. 29/30, 502, Ornate Apartment Sector 28, Vashi, Navi Mumbai - 400703, Dist.Thane, Maharashtra",8048954656,
"White Silicone Baby Nipple Spoon Bottle, Age Group: 3-12 Months, Capacity: 150ml",https://www.indiamart.com/proddetail/silicone-baby-nipple-spoon-bottle-26009779833.html?pos=190&kwd=plastic baby bottle&tags=CC||||8752.144|Price|product|||MDC|rsf:gd-|-stype:attr=1|qr_nm:gd|res:RC5|com-cf:nl|ptrs:na|ktp:N0|mc:22704|mtp:S|qry_typ:P|lang:en|wc:3|cs:8833|v=4,Honey Bell Enterprises,https://www.indiamart.com/honey-bell-enterprises/?pos=190&kwd=plastic baby bottle&tags=CC||||8752.144|Price|product|||MDC|rsf:gd-|-stype:attr=1|qr_nm:gd|res:RC5|com-cf:nl|ptrs:na|ktp:N0|mc:22704|mtp:S|qry_typ:P|lang:en|wc:3|cs:8833|v=4,False,Shastri Nagar,New Delhi,"House No.39/1, Plot No.39,Ground Floor Block E-2, Shastri Nagar, Shastri Nagar, New Delhi - 110052, Dist.Delhi, Delhi",8048971968,
"Metal Purple Max Fresh Handle Feeding Bottle, Capacity: 250 ml, Age Group: 3-12 Months",https://www.indiamart.com/proddetail/max-fresh-handle-feeding-bottle-2854797498788.html?pos=191&kwd=plastic baby bottle&tags=||||8211.142|Price|product|||TS|rsf:gd-|-stype:attr=1|qr_nm:gd|res:RC5|com-cf:nl|ptrs:na|ktp:N0|mc:22704|mtp:S|qry_typ:P|lang:en|wc:3|cs:8833|v=4,Shree Vallabh Metals,https://www.shreevallabhmetals.in/?pos=191&kwd=plastic baby bottle&tags=||||8211.142|Price|product|||TS|rsf:gd-|-stype:attr=1|qr_nm:gd|res:RC5|com-cf:nl|ptrs:na|ktp:N0|mc:22704|mtp:S|qry_typ:P|lang:en|wc:3|cs:8833|v=4,True,Bhayandar East,Mumbai,"Gala No.8, H.P. Gas Godown Gali, Opposite Old Syndicate Bank, Bhayandar East, Mumbai - 401105, Dist.Mumbai, Maharashtra",8047623277,
Stainless Steel Baby Feeding Bottle,https://www.indiamart.com/proddetail/stainless-steel-baby-feeding-bottle-2853962286362.html?pos=192&kwd=plastic baby bottle&tags=||||8038.093|Price|product|||TS|rsf:gd-|-stype:attr=1|qr_nm:gd|res:RC5|com-cf:nl|ptrs:na|ktp:N0|mc:22704|mtp:S|qry_typ:P|lang:en|wc:3|cs:8833|v=4,Trishul Marketing,https://www.trishulmarketing.com/?pos=192&kwd=plastic baby bottle&tags=||||8038.093|Price|product|||TS|rsf:gd-|-stype:attr=1|qr_nm:gd|res:RC5|com-cf:nl|ptrs:na|ktp:N0|mc:22704|mtp:S|qry_typ:P|lang:en|wc:3|cs:8833|v=4,False,Mavdi,Rajkot,"NR Shree Ram Sweet Mart, 1 Amar Nagar, Mavdi, Rajkot - 360004, Dist.Rajkot, Gujarat",7942564686,
"Silver Baby Feeding Bottle 300 ML, Age Group: 1-2 Years",https://www.indiamart.com/proddetail/baby-feeding-bottle-300-ml-2850630404397.html?pos=193&kwd=plastic baby bottle&tags=||||8954.051|Price|product|||TS|rsf:gd-|-stype:attr=1|qr_nm:gd|res:RC5|com-cf:nl|ptrs:na|ktp:N0|mc:22704|mtp:S|qry_typ:P|lang:en|wc:3|cs:8833|v=4,Anita Steel Centre,https://www.indiamart.com/anita-steel-center/?pos=193&kwd=plastic baby bottle&tags=||||8954.051|Price|product|||TS|rsf:gd-|-stype:attr=1|qr_nm:gd|res:RC5|com-cf:nl|ptrs:na|ktp:N0|mc:22704|mtp:S|qry_typ:P|lang:en|wc:3|cs:8833|v=4,False,Park Town,Chennai,"39/54, Nyniappa Maistry Street, Park Town, Chennai - 600003, Dist.Chennai, Tamil Nadu",8048985784,
"Plastic Multicolor Baby Feeding Bottle with Character with Handle- 250 Ml, Age Group: 4-2 Years",https://www.indiamart.com/proddetail/baby-feeding-bottle-with-character-with-handle-250-ml-2850711343512.html?pos=194&kwd=plastic baby bottle&tags=||||9528.781|Price|product|||TS|rsf:gd-|-stype:attr=1|qr_nm:gd|res:RC5|com-cf:nl|ptrs:na|ktp:N0|mc:22704|mtp:S|qry_typ:P|lang:en|wc:3|cs:8833|v=4,Fingo Brain,https://www.indiamart.com/fingo-brain/?pos=194&kwd=plastic baby bottle&tags=||||9528.781|Price|product|||TS|rsf:gd-|-stype:attr=1|qr_nm:gd|res:RC5|com-cf:nl|ptrs:na|ktp:N0|mc:22704|mtp:S|qry_typ:P|lang:en|wc:3|cs:8833|v=4,False,Upper Bazar,Ranchi,"402, 5TH Floor, Nand Rani Tower,SBI Bank Building,Main Road Near Daily Market, Upper Bazar, Ranchi - 834001, Dist.Ranchi, Jharkhand",8047305952,
Kids Plastic Bottle,https://www.indiamart.com/proddetail/kids-plastic-bottle-25568145862.html?pos=195&kwd=plastic baby bottle&tags=||||8228.275|Price|product|||TS|rsf:gd-|-stype:attr=1|qr_nm:gd|res:RC5|com-cf:nl|ptrs:na|ktp:N0|mc:22704|mtp:S|qry_typ:P|lang:en|wc:3|cs:8833|v=4,K Mukeshkumar Creation,https://www.kmukeshkumarcreation.com/?pos=195&kwd=plastic baby bottle&tags=||||8228.275|Price|product|||TS|rsf:gd-|-stype:attr=1|qr_nm:gd|res:RC5|com-cf:nl|ptrs:na|ktp:N0|mc:22704|mtp:S|qry_typ:P|lang:en|wc:3|cs:8833|v=4,False,Saijpur Bogha,Ahmedabad,"Crockery Market, Naroda Road, Saijpur Bogha, Saijpur Bogha, Ahmedabad - 382345, Dist.Ahmedabad, Gujarat",8047655715,
"Plastic Baby Sippers Bottle, For kids",https://www.indiamart.com/proddetail/plastic-baby-sippers-bottle-23096908548.html?pos=196&kwd=plastic baby bottle&tags=||||8752.144|Price|product|||TS|rsf:gd-|-stype:attr=1|qr_nm:gd|res:RC5|com-cf:nl|ptrs:na|ktp:N0|mc:22704|mtp:S|qry_typ:P|lang:en|wc:3|cs:8833|v=4,Shiv Darshan Sansthan,https://www.shivdarshansansthan.com/?pos=196&kwd=plastic baby bottle&tags=||||8752.144|Price|product|||TS|rsf:gd-|-stype:attr=1|qr_nm:gd|res:RC5|com-cf:nl|ptrs:na|ktp:N0|mc:22704|mtp:S|qry_typ:P|lang:en|wc:3|cs:8833|v=4,False,Pandav Nagar,New Delhi,"Bunglow, Plot No. 10, Pandav Nagar, New Delhi - 110092, Dist.Delhi, Delhi",8048984990,
"Baby Plastic Water Bottle, Capacity: 500 mL",https://www.indiamart.com/proddetail/baby-plastic-water-bottle-2853464957312.html?pos=197&kwd=plastic baby bottle&tags=||||8228.275||product|||TS|rsf:gd-|-stype:attr=1|qr_nm:gd|res:RC5|com-cf:nl|ptrs:na|ktp:N0|mc:22704|mtp:S|qry_typ:P|lang:en|wc:3|cs:8833|v=4,Krishna Pet,https://www.indiamart.com/krishna-pet/?pos=197&kwd=plastic baby bottle&tags=||||8228.275||product|||TS|rsf:gd-|-stype:attr=1|qr_nm:gd|res:RC5|com-cf:nl|ptrs:na|ktp:N0|mc:22704|mtp:S|qry_typ:P|lang:en|wc:3|cs:8833|v=4,False,Amraiwadi,Ahmedabad,"5/A, Hariom Estate, On Road Yogeshwar Park Society, BH Wonder Point, NH-8,, Amraiwadi, Ahmedabad - 382350, Dist.Ahmedabad, Gujarat",7942672286,
"Ambica Tech Plastic Baby Sipper Bottle, Capacity: 200 Ml",https://www.indiamart.com/proddetail/plastic-baby-sipper-bottle-20752123573.html?pos=198&kwd=plastic baby bottle&tags=||||8228.275|Price|product|||TS|rsf:gd-|-stype:attr=1|qr_nm:gd|res:RC5|com-cf:nl|ptrs:na|ktp:N0|mc:22704|mtp:S|qry_typ:P|lang:en|wc:3|cs:8833|v=4,Ambica Tech,https://www.ambicatech.in/?pos=198&kwd=plastic baby bottle&tags=||||8228.275|Price|product|||TS|rsf:gd-|-stype:attr=1|qr_nm:gd|res:RC5|com-cf:nl|ptrs:na|ktp:N0|mc:22704|mtp:S|qry_typ:P|lang:en|wc:3|cs:8833|v=4,False,Odhav,Ahmedabad,"10, ambica industrial estate, behind sardar patel estate near. odhav ringroad circle,, Odhav, Ahmedabad - 382415, Dist.Ahmedabad, Gujarat",8048611294,
Capacity: 500 mL Plastic Baby Sipper Bottle,https://www.indiamart.com/proddetail/plastic-baby-sipper-bottle-26903481812.html?pos=199&kwd=plastic baby bottle&tags=||||8228.275|Price|product|||TS|rsf:gd-|-stype:attr=1|qr_nm:gd|res:RC5|com-cf:nl|ptrs:na|ktp:N0|mc:22704|mtp:S|qry_typ:P|lang:en|wc:3|cs:8833|v=4,King Plastic Industries,https://www.kingplasticindustries.in/?pos=199&kwd=plastic baby bottle&tags=||||8228.275|Price|product|||TS|rsf:gd-|-stype:attr=1|qr_nm:gd|res:RC5|com-cf:nl|ptrs:na|ktp:N0|mc:22704|mtp:S|qry_typ:P|lang:en|wc:3|cs:8833|v=4,False,Kathwada,Ahmedabad,"9, Vaibhav Industrial Estate, Near Shrinath Estate, Near Gidc 09 Nikol Chokdi, Ring Road, Kathwada, Ahmedabad - 382430, Dist.Ahmedabad, Gujarat",8046051998,
Baby Pink Plastic Sipper Bottle,https://www.indiamart.com/proddetail/baby-pink-plastic-sipper-bottle-2849951211491.html?pos=200&kwd=plastic baby bottle&tags=||||8752.144|Price|product|||TS|rsf:gd-|-stype:attr=1|qr_nm:gd|res:RC5|com-cf:nl|ptrs:na|ktp:N0|mc:22704|mtp:S|qry_typ:P|lang:en|wc:3|cs:8833|v=4,Aggarwal Impex,https://www.indiamart.com/aggarwal-impex-delhi/?pos=200&kwd=plastic baby bottle&tags=||||8752.144|Price|product|||TS|rsf:gd-|-stype:attr=1|qr_nm:gd|res:RC5|com-cf:nl|ptrs:na|ktp:N0|mc:22704|mtp:S|qry_typ:P|lang:en|wc:3|cs:8833|v=4,False,Teliwara,New Delhi,"2495-96, New Qutub Road, Teliwara, Teliwara, New Delhi - 110006, Dist.Delhi, Delhi",7942964414,
Capacity: 1000 mL BABY PLASTIC SIPPER BOTTLE 600ML,https://www.indiamart.com/proddetail/baby-plastic-sipper-bottle-600ml-2851901757791.html?pos=201&kwd=plastic baby bottle&tags=||||8752.144|Price|product|||TS|rsf:gd-|-stype:attr=1|qr_nm:gd|res:RC5|com-cf:nl|ptrs:na|ktp:N0|mc:22704|mtp:S|qry_typ:P|lang:en|wc:3|cs:8833|v=4,S G Global Enterprise,https://www.indiamart.com/sgglobalenterprisesdelhi/?pos=201&kwd=plastic baby bottle&tags=||||8752.144|Price|product|||TS|rsf:gd-|-stype:attr=1|qr_nm:gd|res:RC5|com-cf:nl|ptrs:na|ktp:N0|mc:22704|mtp:S|qry_typ:P|lang:en|wc:3|cs:8833|v=4,False,Narela,New Delhi,"House No R-208, Gali No 12A, Mother Dairy, Swatantra Nagar, North Delhi,, Narela, New Delhi - 110040, Dist.Delhi, Delhi",7942706773,
Plastic Baby Sipper Bottle,https://www.indiamart.com/proddetail/baby-sipper-bottle-2854390768533.html?pos=202&kwd=plastic baby bottle&tags=||||8234.698|Price|product|||TS|rsf:gd-|-stype:attr=1|qr_nm:gd|res:RC5|com-cf:nl|ptrs:na|ktp:N0|mc:22704|mtp:S|qry_typ:P|lang:en|wc:3|cs:8833|v=4,Liza Industries,https://www.indiamart.com/lizaindustries-dadranagarhaveli/?pos=202&kwd=plastic baby bottle&tags=||||8234.698|Price|product|||TS|rsf:gd-|-stype:attr=1|qr_nm:gd|res:RC5|com-cf:nl|ptrs:na|ktp:N0|mc:22704|mtp:S|qry_typ:P|lang:en|wc:3|cs:8833|v=4,False,Goregaon West,Dadra,"Ground, First, Second, B-1, B-2,Indl Shed Near B-1, Survey No 52, Waghdhara Road, Goregaon West, Dadra - 396230, Dadra and Nagar Haveli and Daman and Diu",8047687665,
"Transparent Plastic baby shipper bottle, Packaging Type: Box, 1-2 Years",https://www.indiamart.com/proddetail/baby-shipper-bottle-2851090879648.html?pos=203&kwd=plastic baby bottle&tags=||||8038.093|Price|product|||TS|rsf:gd-|-stype:attr=1|qr_nm:gd|res:RC5|com-cf:nl|ptrs:na|ktp:N0|mc:22704|mtp:S|qry_typ:P|lang:en|wc:3|cs:8833|v=4,J K Enterprise,https://www.shivalaykitchenware.com/?pos=203&kwd=plastic baby bottle&tags=||||8038.093|Price|product|||TS|rsf:gd-|-stype:attr=1|qr_nm:gd|res:RC5|com-cf:nl|ptrs:na|ktp:N0|mc:22704|mtp:S|qry_typ:P|lang:en|wc:3|cs:8833|v=4,False,Vavdi,Rajkot,"Revenue Survey No. 35, Shed No. 9, Plot No. 2, Patel Chowk, Vavdi, B/H Tulip, Opp. Mahakali Street, Gondal Road, Vavdi, Rajkot - 360004, Dist.Rajkot, Gujarat",8048975832,
"Plastic Baby Sipper Bottle, Capacity: 200 mL",https://www.indiamart.com/proddetail/plastic-baby-sipper-bottle-2854185312097.html?pos=204&kwd=plastic baby bottle&tags=||||8038.093|Price|product|||MDC|rsf:gd-|-stype:attr=1|qr_nm:gd|res:RC5|com-cf:nl|ptrs:na|ktp:N0|mc:22704|mtp:S|qry_typ:P|lang:en|wc:3|cs:8833|v=4,Rameshwar Industries,https://www.indiamart.com/rameshwarindustries-rajkot-gujarat/?pos=204&kwd=plastic baby bottle&tags=||||8038.093|Price|product|||MDC|rsf:gd-|-stype:attr=1|qr_nm:gd|res:RC5|com-cf:nl|ptrs:na|ktp:N0|mc:22704|mtp:S|qry_typ:P|lang:en|wc:3|cs:8833|v=4,False,Veraval,Rajkot,"Old RS No 107/1 Palki 2,Behined Muscat Polymer Plot No 11,Revnue Survey No 271/2,, Veraval, Rajkot - 360024, Dist.Rajkot, Gujarat",8044013909,
"3 Pcs Baby Plastic Water Bottle , Fridge Bottle",https://www.indiamart.com/proddetail/3-pcs-baby-plastic-water-bottle-fridge-bottle-22697916891.html?pos=205&kwd=plastic baby bottle&tags=||||8228.275|Price|product|||TS|rsf:gd-|-stype:attr=1|qr_nm:gd|res:RC5|com-cf:nl|ptrs:na|ktp:N0|mc:22704|mtp:S|qry_typ:P|lang:en|wc:3|cs:8833|v=4,Shri Hari Plastoware,https://www.shrihariplastoware.net/?pos=205&kwd=plastic baby bottle&tags=||||8228.275|Price|product|||TS|rsf:gd-|-stype:attr=1|qr_nm:gd|res:RC5|com-cf:nl|ptrs:na|ktp:N0|mc:22704|mtp:S|qry_typ:P|lang:en|wc:3|cs:8833|v=4,False,Taluka Sanand,Ahmedabad,"Plot 9, Opposite. Zydus-Cadila, Chacharwadi,taluka Sanand,akshar Indu. Estate,sanand, Taluka Sanand, Ahmedabad - 382213, Dist.Ahmedabad, Gujarat",8046042682,
"Mylo Girrafe Plastic Baby Feeding Bottle, Age Group: 3-12 Months",https://www.indiamart.com/proddetail/mylo-girrafe-plastic-baby-feeding-bottle-2854999513912.html?pos=206&kwd=plastic baby bottle&tags=||||8752.144|Price|product|||MDC|rsf:gd-|-stype:attr=1|qr_nm:gd|res:RC5|com-cf:nl|ptrs:na|ktp:N0|mc:22704|mtp:S|qry_typ:P|lang:en|wc:3|cs:8833|v=4,Curepills Healthcare Private Limited,https://www.indiamart.com/curepillshealthcare/?pos=206&kwd=plastic baby bottle&tags=||||8752.144|Price|product|||MDC|rsf:gd-|-stype:attr=1|qr_nm:gd|res:RC5|com-cf:nl|ptrs:na|ktp:N0|mc:22704|mtp:S|qry_typ:P|lang:en|wc:3|cs:8833|v=4,False,,New Delhi,"Second Floor, B-37, DDA Shed, Okhla Industrial Estate Phase 2, South East Delhi, New Delhi - 110020, Dist.Delhi, Delhi",7949308749,
"Multicolor Baby Spoon Feeder Bottle, Age Group: 3-12 Months, Capacity: 90ml",https://www.indiamart.com/proddetail/baby-spoon-feeder-bottle-26766747591.html?pos=207&kwd=plastic baby bottle&tags=||||8752.144|Price|product|||TS|rsf:gd-|-stype:attr=1|qr_nm:gd|res:RC5|com-cf:nl|ptrs:na|ktp:N0|mc:22704|mtp:S|qry_typ:P|lang:en|wc:3|cs:8833|v=4,Shri Shyam Enterprises,https://www.indiamart.com/shrishyamenterprisesnewdelhi/?pos=207&kwd=plastic baby bottle&tags=||||8752.144|Price|product|||TS|rsf:gd-|-stype:attr=1|qr_nm:gd|res:RC5|com-cf:nl|ptrs:na|ktp:N0|mc:22704|mtp:S|qry_typ:P|lang:en|wc:3|cs:8833|v=4,False,Tajpur Kalan,New Delhi,"House No.392, First Floor, Village Tajpur Kalan, North Delhi, Tajpur Kalan, New Delhi - 110036, Dist.Delhi, Delhi",8048212783,
"Kids Plastic Bottle, Capacity: 300 mL",https://www.indiamart.com/proddetail/kids-plastic-bottle-26390835888.html?pos=208&kwd=plastic baby bottle&tags=||||8823.154|Price|product|||TS|rsf:gd-|-stype:attr=1|qr_nm:gd|res:RC5|com-cf:nl|ptrs:na|ktp:N0|mc:22704|mtp:S|qry_typ:P|lang:en|wc:3|cs:8833|v=4,A V S Sales Agency,https://www.indiamart.com/avs-salesagency/?pos=208&kwd=plastic baby bottle&tags=||||8823.154|Price|product|||TS|rsf:gd-|-stype:attr=1|qr_nm:gd|res:RC5|com-cf:nl|ptrs:na|ktp:N0|mc:22704|mtp:S|qry_typ:P|lang:en|wc:3|cs:8833|v=4,False,Sikandra,Agra,"Plot No-6, Khasra No-1367, At Triveni Rangoli Extension, Mauza Baipur,, Sikandra, Agra - 282007, Dist.Agra, Uttar Pradesh",8047675376,
"Kids Plastic Water Bottle, Capacity: 500 mL",https://www.indiamart.com/proddetail/kids-plastic-water-bottle-2854512620355.html?pos=209&kwd=plastic baby bottle&tags=||||8793.739|Price|product|||TS|rsf:gd-|-stype:attr=1|qr_nm:gd|res:RC5|com-cf:nl|ptrs:na|ktp:N0|mc:22704|mtp:S|qry_typ:P|lang:en|wc:3|cs:8833|v=4,Razopo E-Store,https://www.indiamart.com/razopo-estore/?pos=209&kwd=plastic baby bottle&tags=||||8793.739|Price|product|||TS|rsf:gd-|-stype:attr=1|qr_nm:gd|res:RC5|com-cf:nl|ptrs:na|ktp:N0|mc:22704|mtp:S|qry_typ:P|lang:en|wc:3|cs:8833|v=4,False,Bharatpur Gate,Mathura,"22-GF, Ramgunj Plaza, Bharatpur Gate, Badri Nagar,, Bharatpur Gate, Mathura - 281001, Dist.Mathura, Uttar Pradesh",8045733830,
"Kids Printed Plastic Sipper Bottle, Capacity: 500 mL",https://www.indiamart.com/proddetail/kids-printed-plastic-bottle-2852202774691.html?pos=210&kwd=plastic baby bottle&tags=||||8230.883|Price|product|||TS|rsf:gd-|-stype:attr=1|qr_nm:gd|res:RC5|com-cf:nl|ptrs:na|ktp:N0|mc:22704|mtp:S|qry_typ:P|lang:en|wc:3|cs:8833|v=4,Rihish,https://www.indiamart.com/rihish-surat/?pos=210&kwd=plastic baby bottle&tags=||||8230.883|Price|product|||TS|rsf:gd-|-stype:attr=1|qr_nm:gd|res:RC5|com-cf:nl|ptrs:na|ktp:N0|mc:22704|mtp:S|qry_typ:P|lang:en|wc:3|cs:8833|v=4,False,Chorasi,Surat,"Ground Floor, Plot No. 9, Shubham Industries-1, Saniya Hemad, Chorasi, Surat - 395006, Dist.Surat, Gujarat",8045165300,
