product_title,product_link,company_name,company_link,is_verified_exporter,city_region,city,address_details,phone_number,phone_number_extension
Cotton Multicolor Baby Receiving Blanket,https://www.indiamart.com/proddetail/baby-receiving-blanket-23352378462.html?pos=1&kwd=receiving blanket&tags=BA||||8228.275|Price|product|||TS|rsf:gd-|-stype:attr=1|qr_nm:gd|res:RC2|com-cf:nl|ptrs:na|ktp:N0|mc:55819|mtp:S|qry_typ:P|lang:en|wc:2|flavl:0|cs:9605|v=4,King Enterprise,https://www.kingenterpriseindia.com/?pos=1&kwd=receiving blanket&tags=BA||||8228.275|Price|product|||TS|rsf:gd-|-stype:attr=1|qr_nm:gd|res:RC2|com-cf:nl|ptrs:na|ktp:N0|mc:55819|mtp:S|qry_typ:P|lang:en|wc:2|flavl:0|cs:9605|v=4,False,Opp. Haripura Bus Stand,Ahmedabad,"Block- E 28, Ground Floor, Abhishek Estate-1, Opp. Haripura Bus Stand, Ahmedabad - 380016, Dist.Ahmedabad, Gujarat",8047632934,
Fleece Receiving Blanket,https://www.indiamart.com/proddetail/fleece-receiving-blanket-6947906233.html?pos=2&kwd=receiving blanket&tags=BB||||8747.203|Price|product|||TS|rsf:gd-|-stype:attr=1|qr_nm:gd|res:RC2|com-cf:nl|ptrs:na|ktp:N0|mc:55819|mtp:S|qry_typ:P|lang:en|wc:2|flavl:0|cs:9605|v=4,Vaibhav Overseas,https://www.vaibhavoverseas.net/?pos=2&kwd=receiving blanket&tags=BB||||8747.203|Price|product|||TS|rsf:gd-|-stype:attr=1|qr_nm:gd|res:RC2|com-cf:nl|ptrs:na|ktp:N0|mc:55819|mtp:S|qry_typ:P|lang:en|wc:2|flavl:0|cs:9605|v=4,False,Huda,Panipat,"60, M/S Vaibhav Overseas, Sector-29,Part-I, Huda, Huda, Panipat - 132103, Dist.Panipat, Haryana",8046051980,
"Mifa Baby White Bamboo Muslin Receiving Blanket, 0-6 Months, Size: 39x38 Inch",https://www.indiamart.com/proddetail/bamboo-muslin-receiving-blanket-2850733996355.html?pos=3&kwd=receiving blanket&tags=BA||||8810.737|Price|product|||NA|rsf:gd-|-stype:attr=1|qr_nm:gd|res:RC2|com-cf:nl|ptrs:na|ktp:N0|mc:55819|mtp:S|qry_typ:P|lang:en|wc:2|flavl:0|cs:9605|v=4,Mifa Handlooms,https://www.indiamart.com/mifa-handlooms/?pos=3&kwd=receiving blanket&tags=BA||||8810.737|Price|product|||NA|rsf:gd-|-stype:attr=1|qr_nm:gd|res:RC2|com-cf:nl|ptrs:na|ktp:N0|mc:55819|mtp:S|qry_typ:P|lang:en|wc:2|flavl:0|cs:9605|v=4,False,,Saharanpur,"Opp- Zakiya Masjid Near Rashid Garden,Vardhman Colony,Chilkana Road,Saharanpur,Saharanpur, Saharanpur - 247001, Dist.Saharanpur, Uttar Pradesh",8069033754,858
Cotton White Flannel Baby Receiving Blankets,https://www.indiamart.com/proddetail/flannel-baby-receiving-blankets-2358653762.html?pos=4&kwd=receiving blanket&tags=||||8559.269|Price|product|||TS|rsf:gd-|-stype:attr=1|qr_nm:gd|res:RC2|com-cf:nl|ptrs:na|ktp:N0|mc:55819|mtp:S|qry_typ:P|lang:en|wc:2|flavl:0|cs:9605|v=4,Central India Fabrics,https://www.centralindiafabrics.net/?pos=4&kwd=receiving blanket&tags=||||8559.269|Price|product|||TS|rsf:gd-|-stype:attr=1|qr_nm:gd|res:RC2|com-cf:nl|ptrs:na|ktp:N0|mc:55819|mtp:S|qry_typ:P|lang:en|wc:2|flavl:0|cs:9605|v=4,True,Avantika Nagar,Indore,"2/A/C, Sector D, Sanwer Road Opposite Bandganga Police Station, Avantika Nagar, Indore - 452015, Dist.Indore, Madhya Pradesh",8048965370,
"Pink Receiving Blanket, Age Group: 0-1yr",https://www.indiamart.com/proddetail/receiving-blanket-23148972755.html?pos=5&kwd=receiving blanket&tags=CC||||8706.263|Price|product|||TS|rsf:gd-|-stype:attr=1|qr_nm:gd|res:RC2|com-cf:nl|ptrs:na|ktp:N0|mc:55819|mtp:S|qry_typ:P|lang:en|wc:2|flavl:0|cs:9605|v=4,Sivam Export,https://www.indiamart.com/sivamexport-karur/?pos=5&kwd=receiving blanket&tags=CC||||8706.263|Price|product|||TS|rsf:gd-|-stype:attr=1|qr_nm:gd|res:RC2|com-cf:nl|ptrs:na|ktp:N0|mc:55819|mtp:S|qry_typ:P|lang:en|wc:2|flavl:0|cs:9605|v=4,False,,Karur,"6/1 Thiru Nagar,3rd Street, Karur - 639002, Dist.Karur, Tamil Nadu",8046050918,
BABY RECEIVING BLANKET,https://www.indiamart.com/proddetail/baby-receiving-blanket-2854585141997.html?pos=6&kwd=receiving blanket&tags=||||8230.883|Price|product|||TS|rsf:gd-|-stype:attr=1|qr_nm:gd|res:RC2|com-cf:nl|ptrs:na|ktp:N0|mc:55819|mtp:S|qry_typ:P|lang:en|wc:2|flavl:0|cs:9605|v=4,BABYHOLIC,https://www.babyholic.in/?pos=6&kwd=receiving blanket&tags=||||8230.883|Price|product|||TS|rsf:gd-|-stype:attr=1|qr_nm:gd|res:RC2|com-cf:nl|ptrs:na|ktp:N0|mc:55819|mtp:S|qry_typ:P|lang:en|wc:2|flavl:0|cs:9605|v=4,False,,Surat,"Ground Floor, Plot No. F/56/, And F/57, Laxmi Narayan Industrial Estate, Udhana, Kailash Fashion, Surat - 394210, Dist.Surat, Gujarat",8045732096,
Cotton Multicolor Baby Receiving Blanket,https://www.indiamart.com/proddetail/baby-receiving-blanket-2854165422455.html?pos=7&kwd=receiving blanket&tags=||||8559.269|Price|product|||TS|rsf:gd-|-stype:attr=1|qr_nm:gd|res:RC2|com-cf:nl|ptrs:na|ktp:N0|mc:55819|mtp:S|qry_typ:P|lang:en|wc:2|flavl:0|cs:9605|v=4,Nayak Textile Private Limited,https://www.flannelmanufacturer.com/?pos=7&kwd=receiving blanket&tags=||||8559.269|Price|product|||TS|rsf:gd-|-stype:attr=1|qr_nm:gd|res:RC2|com-cf:nl|ptrs:na|ktp:N0|mc:55819|mtp:S|qry_typ:P|lang:en|wc:2|flavl:0|cs:9605|v=4,False,Industrial Area,Indore,"100,Industrial Area,Sector F,Sanwer Road,Indore, Industrial Area, Indore - 452015, Dist.Indore, Madhya Pradesh",7942789323,
Baby Receiving Blankets,https://www.indiamart.com/proddetail/baby-receiving-blankets-13442351733.html?pos=8&kwd=receiving blanket&tags=||||8559.269|Price|product|||MDC|rsf:gd-|-stype:attr=1|qr_nm:gd|res:RC2|com-cf:nl|ptrs:na|ktp:N0|mc:55819|mtp:S|qry_typ:P|lang:en|wc:2|flavl:0|cs:9605|v=4,Navkar Textiles,https://www.indiamart.com/navkartextilesindore/?pos=8&kwd=receiving blanket&tags=||||8559.269|Price|product|||MDC|rsf:gd-|-stype:attr=1|qr_nm:gd|res:RC2|com-cf:nl|ptrs:na|ktp:N0|mc:55819|mtp:S|qry_typ:P|lang:en|wc:2|flavl:0|cs:9605|v=4,False,Shivaji Nagar,Indore,"No. 339, Shivaji Nagar, Behind Hukumchand Mill, Shivaji Nagar, Indore - 452003, Dist.Indore, Madhya Pradesh",8046069243,
Printed Baby Blanket,,RR Creations,https://www.rrcreation.co.in/?pos=9&kwd=receiving blanket&tags=||||8601.347|Price|product|||TS|rsf:gd-|-stype:attr=1|qr_nm:gd|res:RC2|com-cf:nl|ptrs:na|ktp:N0|mc:55819|mtp:S|qry_typ:P|lang:en|wc:2|flavl:0|cs:9605|v=4,False,Raghunathgarh,Jaipur,"A7D, Raghunath Colony, Galta Gate, Raghunathgarh, Jaipur - 302003, Dist.Jaipur, Rajasthan",8047620731,
Printed Newborn Infant Baby Swaddle Blanket Sleeping Swaddle With Bag,https://www.indiamart.com/proddetail/newborn-infant-baby-swaddle-blanket-sleeping-swaddle-with-bag-23761603991.html?pos=10&kwd=receiving blanket&tags=||||8601.347|Price|product|||TS|rsf:gd-|-stype:attr=1|qr_nm:gd|res:RC2|com-cf:nl|ptrs:na|ktp:N0|mc:55819|mtp:S|qry_typ:P|lang:en|wc:2|flavl:0|cs:9605|v=4,Gopali Arts,https://www.gopaliarts.in/?pos=10&kwd=receiving blanket&tags=||||8601.347|Price|product|||TS|rsf:gd-|-stype:attr=1|qr_nm:gd|res:RC2|com-cf:nl|ptrs:na|ktp:N0|mc:55819|mtp:S|qry_typ:P|lang:en|wc:2|flavl:0|cs:9605|v=4,False,G1-652 Sitapura Phase-1,Jaipur,"G1-652, Sitapura Phase-1, G1-652 Sitapura Phase-1, Jaipur - 302022, Dist.Jaipur, Rajasthan",8048264082,
"USA Baby Muslin Kids Double Cloth Free Receiving Swaddles, Fleece Blanket for Kids, Quilted Blankets",https://www.indiamart.com/proddetail/usa-baby-muslin-kids-double-cloth-free-receiving-swaddles-fleece-blanket-for-kids-quilted-blankets-20162679373.html?pos=11&kwd=receiving blanket&tags=||||8706.263|Price|product|||TS|rsf:gd-|-stype:attr=1|qr_nm:gd|res:RC2|com-cf:nl|ptrs:na|ktp:N0|mc:55819|mtp:S|qry_typ:P|lang:en|wc:2|flavl:0|cs:9605|v=4,Mercury Weavers,https://www.indiamart.com/mercuryweavers/?pos=11&kwd=receiving blanket&tags=||||8706.263|Price|product|||TS|rsf:gd-|-stype:attr=1|qr_nm:gd|res:RC2|com-cf:nl|ptrs:na|ktp:N0|mc:55819|mtp:S|qry_typ:P|lang:en|wc:2|flavl:0|cs:9605|v=4,False,Gowripuram,Karur,"35/3, 2nd Floor, Gandhi Nagar 3rd Cross, Karur Town, Gowripuram, Karur - 639001, Dist.Karur, Tamil Nadu",8047641180,
"Multicolor Baby Cotton Muslin Swaddle, Size: Singe",https://www.indiamart.com/proddetail/baby-cotton-muslin-swaddle-2849329098130.html?pos=12&kwd=receiving blanket&tags=||||8211.142|Price|product|||TS|rsf:gd-|-stype:attr=1|qr_nm:gd|res:RC2|com-cf:nl|ptrs:na|ktp:N0|mc:55819|mtp:S|qry_typ:P|lang:en|wc:2|flavl:0|cs:9605|v=4,ShanBuyers,https://www.indiamart.com/shanbuyers/?pos=12&kwd=receiving blanket&tags=||||8211.142|Price|product|||TS|rsf:gd-|-stype:attr=1|qr_nm:gd|res:RC2|com-cf:nl|ptrs:na|ktp:N0|mc:55819|mtp:S|qry_typ:P|lang:en|wc:2|flavl:0|cs:9605|v=4,False,Dahisar East,Mumbai,"316, Floor No. 3rd, Sarita Building, Prabhat Ind Complex, Road Western Express Highway, Toll Naka, Dahisar, Dahisar East, Mumbai - 400068, Dist.Mumbai, Maharashtra",8047670828,
Hooded Baby Blanket,https://www.indiamart.com/proddetail/hooded-baby-blanket-2852379491662.html?pos=13&kwd=receiving blanket&tags=||||8211.142|Price|product|||TS|rsf:gd-|-stype:attr=1|qr_nm:gd|res:RC2|com-cf:nl|ptrs:na|ktp:N0|mc:55819|mtp:S|qry_typ:P|lang:en|wc:2|flavl:0|cs:9605|v=4,P For Panda Baby Products Private Limited,https://www.p4pandababyproducts.com/?pos=13&kwd=receiving blanket&tags=||||8211.142|Price|product|||TS|rsf:gd-|-stype:attr=1|qr_nm:gd|res:RC2|com-cf:nl|ptrs:na|ktp:N0|mc:55819|mtp:S|qry_typ:P|lang:en|wc:2|flavl:0|cs:9605|v=4,False,Goregaon West,Mumbai,"904 A Wing,9 Th Floor,Triple S Heights,Jakeria Road, Goregaon West, Mumbai - 400064, Dist.Mumbai, Maharashtra",7942710871,
"Multicolor Polyester Fleece Baby Blankets Set, Size: Singe",https://www.indiamart.com/proddetail/baby-blankets-set-2852649324112.html?pos=14&kwd=receiving blanket&tags=||||8747.203|Price|product|||TS|rsf:gd-|-stype:attr=1|qr_nm:gd|res:RC2|com-cf:nl|ptrs:na|ktp:N0|mc:55819|mtp:S|qry_typ:P|lang:en|wc:2|flavl:0|cs:9605|v=4,Jessa Ram Khushi Ram,https://www.jessaramkhushiram.com/?pos=14&kwd=receiving blanket&tags=||||8747.203|Price|product|||TS|rsf:gd-|-stype:attr=1|qr_nm:gd|res:RC2|com-cf:nl|ptrs:na|ktp:N0|mc:55819|mtp:S|qry_typ:P|lang:en|wc:2|flavl:0|cs:9605|v=4,False,Old Housing Board Colony,Panipat,"Gaba Building, Pachranga Bazar, Old Housing Board Colony, Panipat - 132103, Dist.Panipat, Haryana",8043864954,
"White Cotton 3D Hand Block Printed MulMul Double Bed Dohar/Summer Blanket, Floral",https://www.indiamart.com/proddetail/3d-hand-block-printed-mulmul-double-bed-dohar-summer-blanket-2854560390473.html?pos=15&kwd=receiving blanket&tags=||||8601.347|Price|product|||TS|rsf:gd-|-stype:attr=1|qr_nm:gd|res:RC2|com-cf:nl|ptrs:na|ktp:N0|mc:55819|mtp:S|qry_typ:P|lang:en|wc:2|cs:8842|v=4,Indus Art And Emporium,https://www.indusart.in/?pos=15&kwd=receiving blanket&tags=||||8601.347|Price|product|||TS|rsf:gd-|-stype:attr=1|qr_nm:gd|res:RC2|com-cf:nl|ptrs:na|ktp:N0|mc:55819|mtp:S|qry_typ:P|lang:en|wc:2|cs:8842|v=4,True,Mansarovar,Jaipur,"H/3, First Floor, RIICO Industrial Area, Mansarovar, Jaipur - 302020, Dist.Jaipur, Rajasthan",8048956816,
Kuddle Up Flannel Baby Blankets(Duck Print),https://www.indiamart.com/proddetail/kuddle-up-flannel-baby-blankets-duck-print-2853771467748.html?pos=16&kwd=receiving blanket&tags=||||8307.81||product|||MDC|rsf:gd-|-stype:attr=1|qr_nm:gd|res:RC2|com-cf:nl|ptrs:na|ktp:N0|mc:55819|mtp:S|qry_typ:P|lang:en|wc:2|cs:8842|v=4,Medline Healthcare Industries Private Limited,https://www.indiamart.com/medlinehealthcareindustries/?pos=16&kwd=receiving blanket&tags=||||8307.81||product|||MDC|rsf:gd-|-stype:attr=1|qr_nm:gd|res:RC2|com-cf:nl|ptrs:na|ktp:N0|mc:55819|mtp:S|qry_typ:P|lang:en|wc:2|cs:8842|v=4,False,Viman Nagar,Pune,"101, Garnets Bay, Next To Hotel Four Points By Sheraton Viman Nagar, Ahmednagar Road, Viman Nagar, Pune - 411014, Dist.Pune, Maharashtra",8048958807,
Printed Baby Fleece Blanket,https://www.indiamart.com/proddetail/baby-fleece-blanket-20967303055.html?pos=17&kwd=receiving blanket&tags=||||8747.203|Price|proxy|||TS|rsf:gd-|-stype:attr=1|qr_nm:gd|res:RC2|com-cf:nl|ptrs:na|ktp:N0|mc:55819|mtp:S|qry_typ:P|lang:en|wc:2|cs:8842|v=4,Mahalaxmi Woollen Processors,https://www.mahalaxmiwoollen.in/?pos=17&kwd=receiving blanket&tags=||||8747.203|Price|proxy|||TS|rsf:gd-|-stype:attr=1|qr_nm:gd|res:RC2|com-cf:nl|ptrs:na|ktp:N0|mc:55819|mtp:S|qry_typ:P|lang:en|wc:2|cs:8842|v=4,False,Desraj Colony,Panipat,"Desraj Colony, Desraj Colony, Panipat - 132103, Dist.Panipat, Haryana",8047645393,
Size: Double Multicolor Woolen Blanket Manufacturer,https://www.indiamart.com/proddetail/woolen-blanket-manufacturer-2854381313533.html?pos=18&kwd=receiving blanket&tags=||||8747.203|Price|proxy|||TS|rsf:gd-|-stype:attr=1|qr_nm:gd|res:RC2|com-cf:nl|ptrs:na|ktp:N0|mc:55819|mtp:S|qry_typ:P|lang:en|wc:2|cs:8842|v=4,Om Shakti Textiles,https://www.omshaktitextiles.com/?pos=18&kwd=receiving blanket&tags=||||8747.203|Price|proxy|||TS|rsf:gd-|-stype:attr=1|qr_nm:gd|res:RC2|com-cf:nl|ptrs:na|ktp:N0|mc:55819|mtp:S|qry_typ:P|lang:en|wc:2|cs:8842|v=4,False,Huda,Panipat,"Plot No. 299-300, Sector 29, Part I, Huda, Panipat - 132103, Dist.Panipat, Haryana",8048951194,
"Multicolor Single Beautiful Bright Color Embroidered Throw Blanket, Packaging Type: Box, Size: 50x70 Inches",https://www.indiamart.com/proddetail/beautiful-bright-color-embroidered-throw-blanket-23409095197.html?pos=19&kwd=receiving blanket&tags=||||8601.347|Price|product|||TS|rsf:gd-|-stype:attr=1|qr_nm:gd|res:RC2|com-cf:nl|ptrs:na|ktp:N0|mc:55819|mtp:S|qry_typ:P|lang:en|wc:2|cs:8842|v=4,Trade Star Exports,https://www.tradestar.co.in/?pos=19&kwd=receiving blanket&tags=||||8601.347|Price|product|||TS|rsf:gd-|-stype:attr=1|qr_nm:gd|res:RC2|com-cf:nl|ptrs:na|ktp:N0|mc:55819|mtp:S|qry_typ:P|lang:en|wc:2|cs:8842|v=4,True,,Jaipur,"H 1 1256, Riico Industrial Area, Sitapura,, Jaipur - 302022, Dist.Jaipur, Rajasthan",8046033994,
"Oscar Super Soft Sherpa Fabric Multi use baby blanket, 0-6 Months, Size: 29 X 27 Inches",https://www.indiamart.com/proddetail/multi-use-baby-blanket-11829416891.html?pos=20&kwd=receiving blanket&tags=||||8778.123|Price|product|||TS|rsf:gd-|-stype:attr=1|qr_nm:gd|res:RC2|com-cf:nl|ptrs:na|ktp:N0|mc:55819|mtp:S|qry_typ:P|lang:en|wc:2|cs:8842|v=4,Oscar Overseas,https://www.oscar-india.com/?pos=20&kwd=receiving blanket&tags=||||8778.123|Price|product|||TS|rsf:gd-|-stype:attr=1|qr_nm:gd|res:RC2|com-cf:nl|ptrs:na|ktp:N0|mc:55819|mtp:S|qry_typ:P|lang:en|wc:2|cs:8842|v=4,False,,Noida,"A-99 Sector 5, Noida - 201301, Dist.Gautam Budh Nagar, Uttar Pradesh",8046058290,
Blanket Gift Set,https://www.indiamart.com/proddetail/blanket-gift-set-2853467468462.html?pos=21&kwd=receiving blanket&tags=||||9045.955|Price|product|||MDC|rsf:gd-|-stype:attr=1|qr_nm:gd|res:RC2|com-cf:nl|ptrs:na|ktp:N0|mc:55819|mtp:S|qry_typ:P|lang:en|wc:2|cs:8842|v=4,Shree Nath Textiles,https://www.indiamart.com/shreenathtextiles/?pos=21&kwd=receiving blanket&tags=||||9045.955|Price|product|||MDC|rsf:gd-|-stype:attr=1|qr_nm:gd|res:RC2|com-cf:nl|ptrs:na|ktp:N0|mc:55819|mtp:S|qry_typ:P|lang:en|wc:2|cs:8842|v=4,False,General Ganj,Kanpur,"55/67 A, G 1, Ishwari Market, Kahu Kothi, General Ganj, Kanpur - 208001, Uttar Pradesh",7942671636,
"Multicolor Printed Polar Fleece Blankets, Packaging Type: Roll, Size: 100x90 Inch",https://www.indiamart.com/proddetail/polar-fleece-blankets-26015831691.html?pos=22&kwd=receiving blanket&tags=||||8747.203|Price|proxy|||TS|rsf:gd-|-stype:attr=1|qr_nm:gd|res:RC2|com-cf:nl|ptrs:na|ktp:N0|mc:55819|mtp:S|qry_typ:P|lang:en|wc:2|cs:8842|v=4,A. A. ENTERPRISES,https://www.indiamart.com/aaenterprises-panipat/?pos=22&kwd=receiving blanket&tags=||||8747.203|Price|proxy|||TS|rsf:gd-|-stype:attr=1|qr_nm:gd|res:RC2|com-cf:nl|ptrs:na|ktp:N0|mc:55819|mtp:S|qry_typ:P|lang:en|wc:2|cs:8842|v=4,True,GT Road,Panipat,"Sec-6, Railway Crossing, Siddharth Nagar, Near Gulshan Kiryana Store,, GT Road, Panipat - 132103, Dist.Panipat, Haryana",8043852269,
"Super soft mink blanket, Size: Double",https://www.indiamart.com/proddetail/super-soft-mink-blanket-24327756697.html?pos=23&kwd=receiving blanket&tags=||||8747.203|Price|proxy|||TS|rsf:gd-|-stype:attr=1|qr_nm:gd|res:RC2|com-cf:nl|ptrs:na|ktp:N0|mc:55819|mtp:S|qry_typ:P|lang:en|wc:2|cs:8842|v=4,Navya Enterprises,https://www.enterprisesnavya.com/?pos=23&kwd=receiving blanket&tags=||||8747.203|Price|proxy|||TS|rsf:gd-|-stype:attr=1|qr_nm:gd|res:RC2|com-cf:nl|ptrs:na|ktp:N0|mc:55819|mtp:S|qry_typ:P|lang:en|wc:2|cs:8842|v=4,False,Chadau Mohalla,Panipat,"H No.809, Purewal Colony, Chadau Mohalla, Panipat - 132103, Dist.Panipat, Haryana",8048968729,
"White ( Base ) Babymoon Cotton Swaddle Wrap Warm Wrapping Blanket, Size: 21 X 24 Inch",https://www.indiamart.com/proddetail/babymoon-cotton-swaddle-wrap-warm-wrapping-blanket-19511108973.html?pos=24&kwd=receiving blanket&tags=||||8228.275|Price|product|||MDC|rsf:gd-|-stype:attr=1|qr_nm:gd|res:RC2|com-cf:nl|ptrs:na|ktp:N0|mc:55819|mtp:S|qry_typ:P|lang:en|wc:2|cs:8842|v=4,Dream Works,https://www.indiamart.com/dreamworks-ahmedabad/?pos=24&kwd=receiving blanket&tags=||||8228.275|Price|product|||MDC|rsf:gd-|-stype:attr=1|qr_nm:gd|res:RC2|com-cf:nl|ptrs:na|ktp:N0|mc:55819|mtp:S|qry_typ:P|lang:en|wc:2|cs:8842|v=4,False,Sanathal,Ahmedabad,"5,Chanakya Bunglows,Nr Lad Society Common Plot,Vastrapur, Sanathal, Ahmedabad - 380054, Dist.Ahmedabad, Gujarat",8047663803,
"Soft Material Printed Hooded Baby Blanket, 0-5",https://www.indiamart.com/proddetail/hooded-baby-blanket-2850047389573.html?pos=25&kwd=receiving blanket&tags=||||8747.203|Price|proxy|||TS|rsf:gd-|-stype:attr=1|qr_nm:gd|res:RC2|com-cf:nl|ptrs:na|ktp:N0|mc:55819|mtp:S|qry_typ:P|lang:en|wc:2|cs:8842|v=4,Shri Ram Handloom Industries,https://www.shriramhandloomindustries.in/?pos=25&kwd=receiving blanket&tags=||||8747.203|Price|proxy|||TS|rsf:gd-|-stype:attr=1|qr_nm:gd|res:RC2|com-cf:nl|ptrs:na|ktp:N0|mc:55819|mtp:S|qry_typ:P|lang:en|wc:2|cs:8842|v=4,False,Model Town,Panipat,"2, Bal Mukund Market, Pachranga Bazar, Model Town, Panipat - 132103, Dist.Panipat, Haryana",8048262156,
Super Soft Cloudy Baby Blankets,https://www.indiamart.com/proddetail/super-soft-cloudy-baby-blankets-2852051905873.html?pos=26&kwd=receiving blanket&tags=||||9045.955||product|||MDC|rsf:gd-|-stype:attr=1|qr_nm:gd|res:RC2|com-cf:nl|ptrs:na|ktp:N0|mc:55819|mtp:S|qry_typ:P|lang:en|wc:2|cs:8842|v=4,The Textiles,https://www.indiamart.com/textiles-kanpur/?pos=26&kwd=receiving blanket&tags=||||9045.955||product|||MDC|rsf:gd-|-stype:attr=1|qr_nm:gd|res:RC2|com-cf:nl|ptrs:na|ktp:N0|mc:55819|mtp:S|qry_typ:P|lang:en|wc:2|cs:8842|v=4,False,Meerpur Cantt,Kanpur,"66, Faithful Ganj Kanpur Nagar, Meerpur Cantt, Kanpur - 208004, Uttar Pradesh",7942865242,
Dazzle Cotton Swaddle/Wrapper/Blanket with Hooded Cap for Newborn 0 to 3yrs Baby Girl,https://www.indiamart.com/proddetail/dazzle-cotton-swaddle-wrapper-blanket-with-hooded-cap-for-newborn-0-to-3yrs-baby-girl-27157209433.html?pos=27&kwd=receiving blanket&tags=||||8228.275|Price|product|||TS|rsf:gd-|-stype:attr=1|qr_nm:gd|res:RC2|com-cf:nl|ptrs:na|ktp:N0|mc:55819|mtp:S|qry_typ:P|lang:en|wc:2|cs:8842|v=4,Rushabh Business Centre,https://www.indiamart.com/rushabh-business-centre/?pos=27&kwd=receiving blanket&tags=||||8228.275|Price|product|||TS|rsf:gd-|-stype:attr=1|qr_nm:gd|res:RC2|com-cf:nl|ptrs:na|ktp:N0|mc:55819|mtp:S|qry_typ:P|lang:en|wc:2|cs:8842|v=4,False,Satellite Nehru Nagar,Ahmedabad,"Shop No.7, Ground Floor, Galaxy Mall, Opp Jhansi Ki Rani Brts , Nerhu Nagar, Satellite Nehru Nagar, Ahmedabad - 380015, Dist.Ahmedabad, Gujarat",8047622454,
"KIDOCARE Multicolor Bamboo Cotton Swaddle, 0-18 Months, Size: 120 CM X 110 CM",https://www.indiamart.com/proddetail/bamboo-cotton-swaddle-2849392192262.html?pos=28&kwd=receiving blanket&tags=||||8211.142|Price|product|||TS|rsf:gd-|-stype:attr=1|qr_nm:gd|res:RC2|com-cf:nl|ptrs:na|ktp:N0|mc:55819|mtp:S|qry_typ:P|lang:en|wc:2|cs:8842|v=4,Merayo Egrab LLP,https://www.indiamart.com/merayoegrabllp/?pos=28&kwd=receiving blanket&tags=||||8211.142|Price|product|||TS|rsf:gd-|-stype:attr=1|qr_nm:gd|res:RC2|com-cf:nl|ptrs:na|ktp:N0|mc:55819|mtp:S|qry_typ:P|lang:en|wc:2|cs:8842|v=4,False,Borivali West,Mumbai,"11/9d Saibaba Nagar, Opp Saibaba Garden Eltee Apartment Borivali, Borivali West, Mumbai - 400092, Dist.Mumbai, Maharashtra",7942559613,
Flannel Baby Blanket,https://www.indiamart.com/proddetail/flannel-baby-blanket-2852262250030.html?pos=29&kwd=receiving blanket&tags=||||8752.144|Price|proxy|||TS|rsf:gd-|-stype:attr=1|qr_nm:gd|res:RC2|com-cf:nl|ptrs:na|ktp:N0|mc:55819|mtp:S|qry_typ:P|lang:en|wc:2|cs:8842|v=4,Shivani Bed Cover,https://www.indiamart.com/shivanibedcover-delhi/?pos=29&kwd=receiving blanket&tags=||||8752.144|Price|proxy|||TS|rsf:gd-|-stype:attr=1|qr_nm:gd|res:RC2|com-cf:nl|ptrs:na|ktp:N0|mc:55819|mtp:S|qry_typ:P|lang:en|wc:2|cs:8842|v=4,False,Kamla Nagar,New Delhi,"5164, Kohlapur Road, Kamla Nagar, Kamla Nagar, New Delhi - 110007, Dist.Delhi, Delhi",8047803363,
Double Red Super Soft Blanket,https://www.indiamart.com/proddetail/super-soft-blanket-27111767073.html?pos=30&kwd=receiving blanket&tags=||||8747.203|Price|proxy|||TS|rsf:gd-|-stype:attr=1|qr_nm:gd|res:RC2|com-cf:nl|ptrs:na|ktp:N0|mc:55819|mtp:S|qry_typ:P|lang:en|wc:2|cs:8842|v=4,Om Handloom Industries,https://www.indiamart.com/omhandloomindustries/?pos=30&kwd=receiving blanket&tags=||||8747.203|Price|proxy|||TS|rsf:gd-|-stype:attr=1|qr_nm:gd|res:RC2|com-cf:nl|ptrs:na|ktp:N0|mc:55819|mtp:S|qry_typ:P|lang:en|wc:2|cs:8842|v=4,False,Amar Bhawan Chowk Area,Panipat,"194/4, Near Hanuman Mandir, Ghati Purbian, Panipat Opp. Maharaja aggarsain kambal market, Pachranga Bazar, Amar Bhawan Chowk Area, Panipat - 132103, Dist.Panipat, Haryana",8043829211,
Velvet Blue Receiving Blanket,https://www.indiamart.com/proddetail/receiving-blanket-2853061194762.html?pos=31&kwd=receiving blanket&tags=CC||||9763.981||product|||NA|rsf:gd-|-stype:attr=1|qr_nm:gd|res:RC2|com-cf:nl|ptrs:na|ktp:N0|mc:55819|mtp:S|qry_typ:P|lang:en|wc:2|cs:8842|v=4,Fancy Cloth Store,https://www.indiamart.com/fancy-cloth-store-katihar/?pos=31&kwd=receiving blanket&tags=CC||||9763.981||product|||NA|rsf:gd-|-stype:attr=1|qr_nm:gd|res:RC2|com-cf:nl|ptrs:na|ktp:N0|mc:55819|mtp:S|qry_typ:P|lang:en|wc:2|cs:8842|v=4,False,,Katihar,"0,Salmari Bazar,Salmari,Katihar, Katihar - 855113, Dist.Katihar, Bihar",8069707354,286
Printed Abracadabra Receiving Blanket Set,https://www.indiamart.com/proddetail/receiving-blanket-set-15237136088.html?pos=32&kwd=receiving blanket&tags=CC||||9839.57|Price|product|||NA|rsf:gd-|-stype:attr=1|qr_nm:gd|res:RC2|com-cf:nl|ptrs:na|ktp:N0|mc:55819|mtp:S|qry_typ:P|lang:en|wc:2|cs:8842|v=4,ARS Abundance,https://www.indiamart.com/ars-abundance-kolkata/?pos=32&kwd=receiving blanket&tags=CC||||9839.57|Price|product|||NA|rsf:gd-|-stype:attr=1|qr_nm:gd|res:RC2|com-cf:nl|ptrs:na|ktp:N0|mc:55819|mtp:S|qry_typ:P|lang:en|wc:2|cs:8842|v=4,False,Ballygunge,Kolkata,"1 A, Cornfield Road, Ballygunge, Kolkata - 700019, Dist.Kolkata, West Bengal",8048247130,1419
Infant Camo Receiving Blanket,https://www.indiamart.com/proddetail/infant-camo-receiving-blanket-20883851555.html?pos=33&kwd=receiving blanket&tags=CC||||8466.539|Price|product|||NA|rsf:gd-|-stype:attr=1|qr_nm:gd|res:RC2|com-cf:nl|ptrs:na|ktp:N0|mc:55819|mtp:S|qry_typ:P|lang:en|wc:2|cs:8842|v=4,Olive Planet,https://www.indiamart.com/olive-planet-madikeri/?pos=33&kwd=receiving blanket&tags=CC||||8466.539|Price|product|||NA|rsf:gd-|-stype:attr=1|qr_nm:gd|res:RC2|com-cf:nl|ptrs:na|ktp:N0|mc:55819|mtp:S|qry_typ:P|lang:en|wc:2|cs:8842|v=4,False,Madikeri,Coorg,"Kohinoor Road The Unique, Kohinoor Road, Above Karnataka Hardwares, Madikeri, Coorg - 571201, Dist.Kodagu, Karnataka",8043884012,
Baby Receiving Blankets,https://www.indiamart.com/proddetail/baby-receiving-blankets-1236976188.html?pos=34&kwd=receiving blanket&tags=CC||||8635.5205||product|||NA|rsf:gd-|-stype:attr=1|qr_nm:gd|res:RC2|com-cf:nl|ptrs:na|ktp:N0|mc:55819|mtp:S|qry_typ:P|lang:en|wc:2|cs:8842|v=4,A.C.V.Products Pvt. Ltd.,https://www.indiamart.com/acvproducts-net-94684/?pos=34&kwd=receiving blanket&tags=CC||||8635.5205||product|||NA|rsf:gd-|-stype:attr=1|qr_nm:gd|res:RC2|com-cf:nl|ptrs:na|ktp:N0|mc:55819|mtp:S|qry_typ:P|lang:en|wc:2|cs:8842|v=4,False,Vadapudupatti,Theni,"No. 1593/ 2 B, Vadapudupatti, Theni District Vadapudupatti, Vadapudupatti, Theni - 625531, Dist.Theni, Tamil Nadu",8048372420,774
"Assorted Checks Raised Relief Donation Blanket government supply blanket, Size: 145 X 230 cm",https://www.indiamart.com/proddetail/relief-donation-blanket-government-supply-blanket-25974881833.html?pos=35&kwd=receiving blanket&tags=||||8747.203|Price|proxy|||TS|rsf:gd-|-stype:attr=1|qr_nm:gd|res:RC2|com-cf:nl|ptrs:na|ktp:N0|mc:55819|mtp:S|qry_typ:P|lang:en|wc:2|cs:8842|v=4,M/S K S Handloom,https://www.indiamart.com/ks-handloom-panipat/?pos=35&kwd=receiving blanket&tags=||||8747.203|Price|proxy|||TS|rsf:gd-|-stype:attr=1|qr_nm:gd|res:RC2|com-cf:nl|ptrs:na|ktp:N0|mc:55819|mtp:S|qry_typ:P|lang:en|wc:2|cs:8842|v=4,False,Shiv Nagar,Panipat,"Shop No-15 Pachranga Bazar, Shiv Nagar, Panipat - 132103, Dist.Panipat, Haryana",8043851290,
Plain Receiving Swaddler,https://www.indiamart.com/proddetail/receiving-swaddler-22410172755.html?pos=36&kwd=receiving blanket&tags=CC||||8507.67|Price|product|||NA|rsf:gd-|-stype:attr=1|qr_nm:gd|res:RC2|com-cf:nl|ptrs:na|ktp:N0|mc:55819|mtp:S|qry_typ:P|lang:en|wc:2|cs:8842|v=4,First Baby,https://www.indiamart.com/first-baby/?pos=36&kwd=receiving blanket&tags=CC||||8507.67|Price|product|||NA|rsf:gd-|-stype:attr=1|qr_nm:gd|res:RC2|com-cf:nl|ptrs:na|ktp:N0|mc:55819|mtp:S|qry_typ:P|lang:en|wc:2|cs:8842|v=4,False,Aluva,Ernakulam,"Puthuvassery, Nedumbassery PO, Aluva, Ernakulam - 683585, Dist.Ernakulam, Kerala",8048250217,632
Baby Receiving Sheets,https://www.indiamart.com/proddetail/baby-receiving-sheets-22972999697.html?pos=37&kwd=receiving blanket&tags=CC||||8211.142|Price|product|||NA|rsf:gd-|-stype:attr=1|qr_nm:gd|res:RC2|com-cf:nl|ptrs:na|ktp:N0|mc:55819|mtp:S|qry_typ:P|lang:en|wc:2|cs:8842|v=4,Little Peaches India,https://www.indiamart.com/little-peaches-india/?pos=37&kwd=receiving blanket&tags=CC||||8211.142|Price|product|||NA|rsf:gd-|-stype:attr=1|qr_nm:gd|res:RC2|com-cf:nl|ptrs:na|ktp:N0|mc:55819|mtp:S|qry_typ:P|lang:en|wc:2|cs:8842|v=4,False,Andheri,Mumbai,"3FLR PLOT-9 WESTERN INDL.EST MIDC EXPORT PROCESSING ZONE ANDHERI, Andheri, Mumbai - 400093, Dist.Mumbai, Maharashtra",8048371526,835
assorted Loft Fleece Baby Blanket harshit international,https://www.indiamart.com/proddetail/loft-fleece-baby-blanket-harshit-international-12429978633.html?pos=38&kwd=receiving blanket&tags=||||8747.203|Price|product|||TS|rsf:gd-|-stype:attr=1|qr_nm:gd|res:RC2|com-cf:nl|ptrs:na|ktp:N0|mc:55819|mtp:S|qry_typ:P|lang:en|wc:2|cs:8842|v=4,Harshit International,https://www.indiamart.com/harshitinternational/?pos=38&kwd=receiving blanket&tags=||||8747.203|Price|product|||TS|rsf:gd-|-stype:attr=1|qr_nm:gd|res:RC2|com-cf:nl|ptrs:na|ktp:N0|mc:55819|mtp:S|qry_typ:P|lang:en|wc:2|cs:8842|v=4,False,Huda,Panipat,"Urban Estate, Sector- 12, 600, Near SD Vidya Mandir, Huda, Panipat - 132103, Dist.Panipat, Haryana",8046047820,
Momsyard Velvet bb03pk happy everyday s double layered baby receiving blanket,https://www.indiamart.com/proddetail/momsyard-bb03pk-happy-everyday-s-double-layered-baby-receiving-blanket-19431624433.html?pos=39&kwd=receiving blanket&tags=CC||||8211.142|Price|product|||NA|rsf:gd-|-stype:attr=1|qr_nm:gd|res:RC2|com-cf:nl|ptrs:na|ktp:N0|mc:55819|mtp:S|qry_typ:P|lang:en|wc:2|cs:8842|v=4,Momsyard,https://www.indiamart.com/moms-yard/?pos=39&kwd=receiving blanket&tags=CC||||8211.142|Price|product|||NA|rsf:gd-|-stype:attr=1|qr_nm:gd|res:RC2|com-cf:nl|ptrs:na|ktp:N0|mc:55819|mtp:S|qry_typ:P|lang:en|wc:2|cs:8842|v=4,False,Andheri West,Mumbai,"Room No. 547, Adarsh Nagar, Jogeshwari, New Link Road Opposite HP Petrol Pump, Beside Amar Glass Lane, Andheri West, Mumbai - 400102, Dist.Mumbai, Maharashtra",8047827737,
Super Soft Blanket,https://www.indiamart.com/proddetail/super-soft-blanket-2849856404430.html?pos=40&kwd=receiving blanket&tags=CC||||8749.74||product|||NA|rsf:gd-|-stype:attr=1|qr_nm:gd|res:RC2|com-cf:nl|ptrs:na|ktp:N0|mc:55819|mtp:S|qry_typ:P|lang:en|wc:2|cs:8842|v=4,Maulifab Private Limited,https://www.indiamart.com/maulifab/?pos=40&kwd=receiving blanket&tags=CC||||8749.74||product|||NA|rsf:gd-|-stype:attr=1|qr_nm:gd|res:RC2|com-cf:nl|ptrs:na|ktp:N0|mc:55819|mtp:S|qry_typ:P|lang:en|wc:2|cs:8842|v=4,False,,Gharaunda,"0 Faridpur Road Pundri Karnal, Gharaunda - 132114, Dist.Karnal, Haryana",7942791749,
"Muslin Blue & Pink Newborn Baby Swaddle Wrap, Size: Medium",https://www.indiamart.com/proddetail/newborn-baby-swaddle-wrap-2853211970055.html?pos=41&kwd=receiving blanket&tags=CC||||8211.142|Price|product|||NA|rsf:gd-|-stype:attr=1|qr_nm:gd|res:RC2|com-cf:nl|ptrs:na|ktp:N0|mc:55819|mtp:S|qry_typ:P|lang:en|wc:2|cs:8842|v=4,Snowhite Baby Products,https://www.indiamart.com/company/1143719/?pos=41&kwd=receiving blanket&tags=CC||||8211.142|Price|product|||NA|rsf:gd-|-stype:attr=1|qr_nm:gd|res:RC2|com-cf:nl|ptrs:na|ktp:N0|mc:55819|mtp:S|qry_typ:P|lang:en|wc:2|cs:8842|v=4,False,Malad West,Mumbai,"SHOP NO.14,LINKWAY ESTATE, LINK ROAD, MALAD WEST LINK ROAD, MALAD WEST, Malad West, Mumbai - 400063, Dist.Mumbai, Maharashtra",8069707383,253
Sleep Knit Thermal Blankets,https://www.indiamart.com/proddetail/sleep-knit-thermal-blankets-23957940791.html?pos=42&kwd=receiving blanket&tags=CC||||8741.812||product|||NA|rsf:gd-|-stype:attr=1|qr_nm:gd|res:RC2|com-cf:nl|ptrs:na|ktp:N0|mc:55819|mtp:S|qry_typ:P|lang:en|wc:2|cs:8842|v=4,Insigne Carpets Private Limited,https://www.indiamart.com/insigne-carpets-private-limited/?pos=42&kwd=receiving blanket&tags=CC||||8741.812||product|||NA|rsf:gd-|-stype:attr=1|qr_nm:gd|res:RC2|com-cf:nl|ptrs:na|ktp:N0|mc:55819|mtp:S|qry_typ:P|lang:en|wc:2|cs:8842|v=4,False,Sushant Nagar,Gurgaon,"h.no. A-12 Sushant Lok, Phase-ii, Sector-55 Gurgaon Gurgaon Haryana 122001 Phase-II, Sushant Nagar, Gurgaon, Dist.Gurgaon, Haryana",8048371713,394
Bebe Favour Baby Hooded Receiving Blanket - Pink,https://www.indiamart.com/proddetail/bebe-favour-baby-hooded-receiving-blanket-pink-2854346134997.html?pos=51&kwd=receiving blanket&tags=||||8752.144|Price|product|||NA|rsf:gd-|-stype:attr=1|qr_nm:gd|res:RC2|com-cf:nl|ptrs:na|ktp:N0|mc:55819|mtp:S|qry_typ:P|lang:en|wc:2|cs:8842|v=4,BD Impex,https://www.indiamart.com/company/2395482/?pos=51&kwd=receiving blanket&tags=||||8752.144|Price|product|||NA|rsf:gd-|-stype:attr=1|qr_nm:gd|res:RC2|com-cf:nl|ptrs:na|ktp:N0|mc:55819|mtp:S|qry_typ:P|lang:en|wc:2|cs:8842|v=4,False,,New Delhi,"The Moms Darling - Baby Shop 163, Kapil Vihar, Pitampura, New Delhi - 110034, Dist.Delhi, Delhi",,
Plain Receiving Swaddler,https://www.indiamart.com/proddetail/receiving-swaddler-22410172755.html?pos=44&kwd=receiving blanket&tags=CC||||8507.67|Price|product|||NA|rsf:gd-|-stype:attr=1|qr_nm:gd|res:RC2|com-cf:nl|ptrs:na|ktp:N0|mc:55819|mtp:S|qry_typ:P|lang:en|wc:2|cs:8842|v=4,First Baby,https://www.indiamart.com/first-baby/?pos=44&kwd=receiving blanket&tags=CC||||8507.67|Price|product|||NA|rsf:gd-|-stype:attr=1|qr_nm:gd|res:RC2|com-cf:nl|ptrs:na|ktp:N0|mc:55819|mtp:S|qry_typ:P|lang:en|wc:2|cs:8842|v=4,False,Aluva,Ernakulam,"Puthuvassery, Nedumbassery PO, Aluva, Ernakulam - 683585, Dist.Ernakulam, Kerala",8048250217,632
Baby Receiving Sheets,https://www.indiamart.com/proddetail/baby-receiving-sheets-22972999697.html?pos=45&kwd=receiving blanket&tags=CC||||8211.142|Price|product|||NA|rsf:gd-|-stype:attr=1|qr_nm:gd|res:RC2|com-cf:nl|ptrs:na|ktp:N0|mc:55819|mtp:S|qry_typ:P|lang:en|wc:2|cs:8842|v=4,Little Peaches India,https://www.indiamart.com/little-peaches-india/?pos=45&kwd=receiving blanket&tags=CC||||8211.142|Price|product|||NA|rsf:gd-|-stype:attr=1|qr_nm:gd|res:RC2|com-cf:nl|ptrs:na|ktp:N0|mc:55819|mtp:S|qry_typ:P|lang:en|wc:2|cs:8842|v=4,False,Andheri,Mumbai,"3FLR PLOT-9 WESTERN INDL.EST MIDC EXPORT PROCESSING ZONE ANDHERI, Andheri, Mumbai - 400093, Dist.Mumbai, Maharashtra",8048371526,835
Momsyard Velvet bb03pk happy everyday s double layered baby receiving blanket,https://www.indiamart.com/proddetail/momsyard-bb03pk-happy-everyday-s-double-layered-baby-receiving-blanket-19431624433.html?pos=46&kwd=receiving blanket&tags=CC||||8211.142|Price|product|||NA|rsf:gd-|-stype:attr=1|qr_nm:gd|res:RC2|com-cf:nl|ptrs:na|ktp:N0|mc:55819|mtp:S|qry_typ:P|lang:en|wc:2|cs:8842|v=4,Momsyard,https://www.indiamart.com/moms-yard/?pos=46&kwd=receiving blanket&tags=CC||||8211.142|Price|product|||NA|rsf:gd-|-stype:attr=1|qr_nm:gd|res:RC2|com-cf:nl|ptrs:na|ktp:N0|mc:55819|mtp:S|qry_typ:P|lang:en|wc:2|cs:8842|v=4,False,Andheri West,Mumbai,"Room No. 547, Adarsh Nagar, Jogeshwari, New Link Road Opposite HP Petrol Pump, Beside Amar Glass Lane, Andheri West, Mumbai - 400102, Dist.Mumbai, Maharashtra",8047827737,
Super Soft Blanket,https://www.indiamart.com/proddetail/super-soft-blanket-2849856404430.html?pos=47&kwd=receiving blanket&tags=CC||||8749.74||product|||NA|rsf:gd-|-stype:attr=1|qr_nm:gd|res:RC2|com-cf:nl|ptrs:na|ktp:N0|mc:55819|mtp:S|qry_typ:P|lang:en|wc:2|cs:8842|v=4,Maulifab Private Limited,https://www.indiamart.com/maulifab/?pos=47&kwd=receiving blanket&tags=CC||||8749.74||product|||NA|rsf:gd-|-stype:attr=1|qr_nm:gd|res:RC2|com-cf:nl|ptrs:na|ktp:N0|mc:55819|mtp:S|qry_typ:P|lang:en|wc:2|cs:8842|v=4,False,,Gharaunda,"0 Faridpur Road Pundri Karnal, Gharaunda - 132114, Dist.Karnal, Haryana",7942791749,
Sleep Knit Thermal Blankets,https://www.indiamart.com/proddetail/sleep-knit-thermal-blankets-23957940791.html?pos=48&kwd=receiving blanket&tags=CC||||8741.812||product|||NA|rsf:gd-|-stype:attr=1|qr_nm:gd|res:RC2|com-cf:nl|ptrs:na|ktp:N0|mc:55819|mtp:S|qry_typ:P|lang:en|wc:2|cs:8842|v=4,Insigne Carpets Private Limited,https://www.indiamart.com/insigne-carpets-private-limited/?pos=48&kwd=receiving blanket&tags=CC||||8741.812||product|||NA|rsf:gd-|-stype:attr=1|qr_nm:gd|res:RC2|com-cf:nl|ptrs:na|ktp:N0|mc:55819|mtp:S|qry_typ:P|lang:en|wc:2|cs:8842|v=4,False,Sushant Nagar,Gurgaon,"h.no. A-12 Sushant Lok, Phase-ii, Sector-55 Gurgaon Gurgaon Haryana 122001 Phase-II, Sushant Nagar, Gurgaon, Dist.Gurgaon, Haryana",8048371713,394
"Muslin Blue & Pink Newborn Baby Swaddle Wrap, Size: Medium",https://www.indiamart.com/proddetail/newborn-baby-swaddle-wrap-2853211970055.html?pos=49&kwd=receiving blanket&tags=CC||||8211.142|Price|product|||NA|rsf:gd-|-stype:attr=1|qr_nm:gd|res:RC2|com-cf:nl|ptrs:na|ktp:N0|mc:55819|mtp:S|qry_typ:P|lang:en|wc:2|cs:8842|v=4,Snowhite Baby Products,https://www.indiamart.com/company/1143719/?pos=49&kwd=receiving blanket&tags=CC||||8211.142|Price|product|||NA|rsf:gd-|-stype:attr=1|qr_nm:gd|res:RC2|com-cf:nl|ptrs:na|ktp:N0|mc:55819|mtp:S|qry_typ:P|lang:en|wc:2|cs:8842|v=4,False,Malad West,Mumbai,"SHOP NO.14,LINKWAY ESTATE, LINK ROAD, MALAD WEST LINK ROAD, MALAD WEST, Malad West, Mumbai - 400063, Dist.Mumbai, Maharashtra",8069707383,253
Flannel Receiving Blanket from Best Textiles,https://www.indiamart.com/proddetail/flannel-receiving-blanket-from-best-textiles-11033765073.html?pos=50&kwd=receiving blanket&tags=||||8752.144||product|||NA|rsf:gd-|-stype:attr=1|qr_nm:gd|res:RC2|com-cf:nl|ptrs:na|ktp:N0|mc:55819|mtp:S|qry_typ:P|lang:en|wc:2|cs:8842|v=4,Best Textiles Limited,https://www.indiamart.com/best-textiles-ltd/?pos=50&kwd=receiving blanket&tags=||||8752.144||product|||NA|rsf:gd-|-stype:attr=1|qr_nm:gd|res:RC2|com-cf:nl|ptrs:na|ktp:N0|mc:55819|mtp:S|qry_typ:P|lang:en|wc:2|cs:8842|v=4,False,,New Delhi,"B-85, Okhla Phase-II New Delhi, New Delhi - 110020, Dist.Delhi, Delhi",7949355762,
Bebe Favour Baby Hooded Receiving Blanket - Pink,https://www.indiamart.com/proddetail/bebe-favour-baby-hooded-receiving-blanket-pink-2854346134997.html?pos=51&kwd=receiving blanket&tags=||||8752.144|Price|product|||NA|rsf:gd-|-stype:attr=1|qr_nm:gd|res:RC2|com-cf:nl|ptrs:na|ktp:N0|mc:55819|mtp:S|qry_typ:P|lang:en|wc:2|cs:8842|v=4,BD Impex,https://www.indiamart.com/company/2395482/?pos=51&kwd=receiving blanket&tags=||||8752.144|Price|product|||NA|rsf:gd-|-stype:attr=1|qr_nm:gd|res:RC2|com-cf:nl|ptrs:na|ktp:N0|mc:55819|mtp:S|qry_typ:P|lang:en|wc:2|cs:8842|v=4,False,,New Delhi,"The Moms Darling - Baby Shop 163, Kapil Vihar, Pitampura, New Delhi - 110034, Dist.Delhi, Delhi",,
Maxbell Cotton Muslin Receiving Blanket Swaddle Bedding Cover for Baby Black Pattern,https://www.indiamart.com/proddetail/maxbell-cotton-muslin-receiving-blanket-swaddle-bedding-cover-for-baby-black-pattern-2851588665691.html?pos=52&kwd=receiving blanket&tags=||||8752.144|Price|product|||FCPE|rsf:gd-|-stype:attr=1|qr_nm:gd|res:RC2|com-cf:nl|ptrs:na|ktp:N0|mc:55819|mtp:S|qry_typ:P|lang:en|wc:2|cs:8842|v=4,Aladdin Shoppers,https://www.indiamart.com/aladdin-shoppers/?pos=52&kwd=receiving blanket&tags=||||8752.144|Price|product|||FCPE|rsf:gd-|-stype:attr=1|qr_nm:gd|res:RC2|com-cf:nl|ptrs:na|ktp:N0|mc:55819|mtp:S|qry_typ:P|lang:en|wc:2|cs:8842|v=4,False,,New Delhi,"1/5496-B, Gali No. 16, Balbir Nagar Extn, Shahdara, East Delhi, New Delhi - 110032, Dist.Delhi, Delhi",,
Muslin Blue Receiving Blanket,https://www.indiamart.com/proddetail/baby-muslin-blankets-2854613678448.html?pos=53&kwd=receiving blanket&tags=||||8281.036|Price|product|||NA|rsf:gd-|-stype:attr=1|qr_nm:gd|res:RC2|com-cf:nl|ptrs:na|ktp:N0|mc:55819|mtp:S|qry_typ:P|lang:en|wc:2|cs:8842|v=4,Blueshield Textiles LLP,https://www.indiamart.com/blueshield-textiles-llp/?pos=53&kwd=receiving blanket&tags=||||8281.036|Price|product|||NA|rsf:gd-|-stype:attr=1|qr_nm:gd|res:RC2|com-cf:nl|ptrs:na|ktp:N0|mc:55819|mtp:S|qry_typ:P|lang:en|wc:2|cs:8842|v=4,False,MAKARPURA ROAD,Vadodara,"408/2-3 GIDC GIDC, MAKARPURA ROAD, Vadodara - 390010, Dist.Vadodara, Gujarat",8046053134,
"Cotton Printed Sunbaby White Cocoon Swaddle Baby Bath Towel, For Bed",https://www.indiamart.com/proddetail/sunbaby-white-cocoon-swaddle-baby-bath-towel-24759009930.html?pos=54&kwd=receiving blanket&tags=||||8752.144|Price|product|||NA|rsf:gd-|-stype:attr=1|qr_nm:gd|res:RC2|com-cf:nl|ptrs:na|ktp:N0|mc:55819|mtp:S|qry_typ:P|lang:en|wc:2|cs:8842|v=4,Krona Liquatec Ltd.,https://www.indiamart.com/kronaliquatec/?pos=54&kwd=receiving blanket&tags=||||8752.144|Price|product|||NA|rsf:gd-|-stype:attr=1|qr_nm:gd|res:RC2|com-cf:nl|ptrs:na|ktp:N0|mc:55819|mtp:S|qry_typ:P|lang:en|wc:2|cs:8842|v=4,False,,New Delhi,"B Ii/96, M.C.I.E, Badarpur, South Delhi, New Delhi - 110044, Dist.Delhi, Delhi",8047303429,
"Cotton Baby Blanket Cum Baby Sleeping Bag, Newly Born",https://www.indiamart.com/proddetail/baby-blanket-cum-baby-sleeping-bag-24742461188.html?pos=55&kwd=receiving blanket&tags=||||8211.142|Price|product|||NA|rsf:gd-|-stype:attr=1|qr_nm:gd|res:RC2|com-cf:nl|ptrs:na|ktp:N0|mc:55819|mtp:S|qry_typ:P|lang:en|wc:2|cs:8842|v=4,Baby World,https://www.indiamart.com/babyworld/?pos=55&kwd=receiving blanket&tags=||||8211.142|Price|product|||NA|rsf:gd-|-stype:attr=1|qr_nm:gd|res:RC2|com-cf:nl|ptrs:na|ktp:N0|mc:55819|mtp:S|qry_typ:P|lang:en|wc:2|cs:8842|v=4,False,Masjid Bandar,Mumbai,"12, Gorund Floor, Fatimabai Building, Dharamashala Street, Umerkhadi, Chinchbunder, Masjid Bandar, Mumbai - 400009, Dist.Mumbai, Maharashtra",7942539685,
Hooded Double Layer Reversible Soft Baby Blanket/Wrapper/Sleeping Bag,https://www.indiamart.com/proddetail/hooded-double-layer-reversible-soft-baby-blanket-wrapper-sleeping-bag-22794629455.html?pos=56&kwd=receiving blanket&tags=||||8307.81|Price|product|||NA|rsf:gd-|-stype:attr=1|qr_nm:gd|res:RC2|com-cf:nl|ptrs:na|ktp:N0|mc:55819|mtp:S|qry_typ:P|lang:en|wc:2|cs:8842|v=4,Dream Collection,https://www.indiamart.com/dream-collection-pune/?pos=56&kwd=receiving blanket&tags=||||8307.81|Price|product|||NA|rsf:gd-|-stype:attr=1|qr_nm:gd|res:RC2|com-cf:nl|ptrs:na|ktp:N0|mc:55819|mtp:S|qry_typ:P|lang:en|wc:2|cs:8842|v=4,False,Rahatani,Pune,"38 FL-A/202 ,, Garmala cly ,, Rahatani, Pune, Maharashtra, 411017 Garmala colony, Rahatani, Pune - 411017, Dist.Pune, Maharashtra",8046073893,
"Cotton Printed Sunbaby White Cocoon Swaddle Baby Bath Towel, For Bed",https://www.indiamart.com/proddetail/sunbaby-white-cocoon-swaddle-baby-bath-towel-24759009930.html?pos=57&kwd=receiving blanket&tags=||||8752.144|Price|product|||NA|rsf:gd-|-stype:attr=1|qr_nm:gd|res:RC2|com-cf:nl|ptrs:na|ktp:N0|mc:55819|mtp:S|qry_typ:P|lang:en|wc:2|cs:8842|v=4,Krona Liquatec Ltd.,https://www.indiamart.com/kronaliquatec/?pos=57&kwd=receiving blanket&tags=||||8752.144|Price|product|||NA|rsf:gd-|-stype:attr=1|qr_nm:gd|res:RC2|com-cf:nl|ptrs:na|ktp:N0|mc:55819|mtp:S|qry_typ:P|lang:en|wc:2|cs:8842|v=4,False,,New Delhi,"B Ii/96, M.C.I.E, Badarpur, South Delhi, New Delhi - 110044, Dist.Delhi, Delhi",8047303429,
"Cotton Baby Blanket Cum Baby Sleeping Bag, Newly Born",https://www.indiamart.com/proddetail/baby-blanket-cum-baby-sleeping-bag-24742461188.html?pos=62&kwd=receiving blanket&tags=||||8211.142|Price|product|||NA|rsf:gd-|-stype:attr=1|qr_nm:gd|res:RC2|com-cf:nl|ptrs:na|ktp:N0|mc:55819|mtp:S|qry_typ:P|lang:en|wc:2|cs:8842|v=4,Baby World,https://www.indiamart.com/babyworld/?pos=62&kwd=receiving blanket&tags=||||8211.142|Price|product|||NA|rsf:gd-|-stype:attr=1|qr_nm:gd|res:RC2|com-cf:nl|ptrs:na|ktp:N0|mc:55819|mtp:S|qry_typ:P|lang:en|wc:2|cs:8842|v=4,False,Masjid Bandar,Mumbai,"12, Gorund Floor, Fatimabai Building, Dharamashala Street, Umerkhadi, Chinchbunder, Masjid Bandar, Mumbai - 400009, Dist.Mumbai, Maharashtra",7942539685,
Hooded Double Layer Reversible Soft Baby Blanket/Wrapper/Sleeping Bag,https://www.indiamart.com/proddetail/hooded-double-layer-reversible-soft-baby-blanket-wrapper-sleeping-bag-22794629455.html?pos=59&kwd=receiving blanket&tags=||||8307.81|Price|product|||NA|rsf:gd-|-stype:attr=1|qr_nm:gd|res:RC2|com-cf:nl|ptrs:na|ktp:N0|mc:55819|mtp:S|qry_typ:P|lang:en|wc:2|cs:8842|v=4,Dream Collection,https://www.indiamart.com/dream-collection-pune/?pos=59&kwd=receiving blanket&tags=||||8307.81|Price|product|||NA|rsf:gd-|-stype:attr=1|qr_nm:gd|res:RC2|com-cf:nl|ptrs:na|ktp:N0|mc:55819|mtp:S|qry_typ:P|lang:en|wc:2|cs:8842|v=4,False,Rahatani,Pune,"38 FL-A/202 ,, Garmala cly ,, Rahatani, Pune, Maharashtra, 411017 Garmala colony, Rahatani, Pune - 411017, Dist.Pune, Maharashtra",8046073893,
"Woolen Pink Newborn Baby Blankets, Size: Singe",https://www.indiamart.com/proddetail/newborn-baby-blankets-2854290022633.html?pos=60&kwd=receiving blanket&tags=||||8663.873|Price|product|||NA|rsf:gd-|-stype:attr=1|qr_nm:gd|res:RC2|com-cf:nl|ptrs:na|ktp:N0|mc:55819|mtp:S|qry_typ:P|lang:en|wc:2|cs:8842|v=4,Novelty Impex,https://www.indiamart.com/noveltyimpex-bengaluru/?pos=60&kwd=receiving blanket&tags=||||8663.873|Price|product|||NA|rsf:gd-|-stype:attr=1|qr_nm:gd|res:RC2|com-cf:nl|ptrs:na|ktp:N0|mc:55819|mtp:S|qry_typ:P|lang:en|wc:2|cs:8842|v=4,False,Bengaluru Urban,Bengaluru,"Ground Floor, No.103, Shop No.45, Maharaja Plaza, Mamulpet, Bengaluru Urban, Bengaluru - 560053, Dist.Bengaluru, Karnataka",8045730369,
"Woolen Assorted Checks HANDLOOM BLANKET RELIEF ( APDA RAHAT), Size: 150 X 225 Cm",https://www.indiamart.com/proddetail/handloom-blanket-relief-apda-rahat-21656950212.html?pos=61&kwd=receiving blanket&tags=||||8819.914||product|||NA|rsf:gd-|-stype:attr=1|qr_nm:gd|res:RC2|com-cf:nl|ptrs:na|ktp:N0|mc:55819|mtp:S|qry_typ:P|lang:en|wc:2|cs:8842|v=4,Swadeshi Kambal Udyogik Utpadan Sahakari Samiti Ltd.,https://www.indiamart.com/swadeshi-kambal-udyogik-utpadan-sahakari-samiti-ltd/?pos=61&kwd=receiving blanket&tags=||||8819.914||product|||NA|rsf:gd-|-stype:attr=1|qr_nm:gd|res:RC2|com-cf:nl|ptrs:na|ktp:N0|mc:55819|mtp:S|qry_typ:P|lang:en|wc:2|cs:8842|v=4,False,,Muzaffarnagar,"KABRI ROAD BEHIND POWER HOUSE, Muzaffarnagar - 251001, Dist.Muzaffarnagar, Uttar Pradesh",8069196721,673
"Cotton Baby Blanket Cum Baby Sleeping Bag, Newly Born",https://www.indiamart.com/proddetail/baby-blanket-cum-baby-sleeping-bag-24742461188.html?pos=62&kwd=receiving blanket&tags=||||8211.142|Price|product|||NA|rsf:gd-|-stype:attr=1|qr_nm:gd|res:RC2|com-cf:nl|ptrs:na|ktp:N0|mc:55819|mtp:S|qry_typ:P|lang:en|wc:2|cs:8842|v=4,Baby World,https://www.indiamart.com/babyworld/?pos=62&kwd=receiving blanket&tags=||||8211.142|Price|product|||NA|rsf:gd-|-stype:attr=1|qr_nm:gd|res:RC2|com-cf:nl|ptrs:na|ktp:N0|mc:55819|mtp:S|qry_typ:P|lang:en|wc:2|cs:8842|v=4,False,Masjid Bandar,Mumbai,"12, Gorund Floor, Fatimabai Building, Dharamashala Street, Umerkhadi, Chinchbunder, Masjid Bandar, Mumbai - 400009, Dist.Mumbai, Maharashtra",7942539685,
New Hand Made Kantha Bedspread Throw Blanket,https://www.indiamart.com/proddetail/new-hand-made-kantha-bedspread-throw-blanket-10693290955.html?pos=63&kwd=receiving blanket&tags=||||8601.347|Price|product|||NA|rsf:gd-|-stype:attr=1|qr_nm:gd|res:RC2|com-cf:nl|ptrs:na|ktp:N0|mc:55819|mtp:S|qry_typ:P|lang:en|wc:2|cs:8842|v=4,H.A.G. Art And Craft,https://www.indiamart.com/hagartcraft/?pos=63&kwd=receiving blanket&tags=||||8601.347|Price|product|||NA|rsf:gd-|-stype:attr=1|qr_nm:gd|res:RC2|com-cf:nl|ptrs:na|ktp:N0|mc:55819|mtp:S|qry_typ:P|lang:en|wc:2|cs:8842|v=4,False,Jorawar Singh Gate,Jaipur,"Handicraft Market, Jorawar Singh Gate, Amer Road, Jorawar Singh Gate, Jaipur - 302002, Dist.Jaipur, Rajasthan",8048372755,529
Handmade Cotton Baby Blanket - 100% Cotton Best Newborn Gifts,https://www.indiamart.com/proddetail/handmade-cotton-baby-blanket-100-cotton-best-newborn-gifts-2853711893748.html?pos=64&kwd=receiving blanket&tags=||||8228.275|Price|product|||NA|rsf:gd-|-stype:attr=1|qr_nm:gd|res:RC2|com-cf:nl|ptrs:na|ktp:N0|mc:55819|mtp:S|qry_typ:P|lang:en|wc:2|cs:8842|v=4,Bumblebee Baby Wear,https://www.indiamart.com/bumblebee-baby-wear/?pos=64&kwd=receiving blanket&tags=||||8228.275|Price|product|||NA|rsf:gd-|-stype:attr=1|qr_nm:gd|res:RC2|com-cf:nl|ptrs:na|ktp:N0|mc:55819|mtp:S|qry_typ:P|lang:en|wc:2|cs:8842|v=4,False,,Ahmedabad,"Nehru Park Circle Vastrapur Shilalekh Complex, 1, First Floor, Ahmedabad - 380015, Dist.Ahmedabad, Gujarat",,
Polka Tots Organic Muslin Cotton two Layer Blanket SuperSoft Size 110 x 110 CM (Sheep),https://www.indiamart.com/proddetail/polka-tots-organic-muslin-cotton-two-layer-blanket-supersoft-size-110-x-110-cm-sheep-2852417452073.html?pos=65&kwd=receiving blanket&tags=||||8228.275|Price|product|||NA|rsf:gd-|-stype:attr=1|qr_nm:gd|res:RC2|com-cf:nl|ptrs:na|ktp:N0|mc:55819|mtp:S|qry_typ:P|lang:en|wc:2|cs:8842|v=4,Eclat Globalbiz LLP,https://www.indiamart.com/eclatglobalbiz/?pos=65&kwd=receiving blanket&tags=||||8228.275|Price|product|||NA|rsf:gd-|-stype:attr=1|qr_nm:gd|res:RC2|com-cf:nl|ptrs:na|ktp:N0|mc:55819|mtp:S|qry_typ:P|lang:en|wc:2|cs:8842|v=4,False,,Ahmedabad,"Shilp Zaveri, Ahmedabad - 380004, Dist.Ahmedabad, Gujarat",,
Police Blankets,https://www.indiamart.com/proddetail/police-blankets-6421443973.html?pos=66&kwd=receiving blanket&tags=||||8747.203||product|||NA|rsf:gd-|-stype:attr=1|qr_nm:gd|res:RC2|com-cf:nl|ptrs:na|ktp:N0|mc:55819|mtp:S|qry_typ:P|lang:en|wc:2|cs:8842|v=4,Jindal Yarns Private Limited,https://www.indiamart.com/jindal-yarns/?pos=66&kwd=receiving blanket&tags=||||8747.203||product|||NA|rsf:gd-|-stype:attr=1|qr_nm:gd|res:RC2|com-cf:nl|ptrs:na|ktp:N0|mc:55819|mtp:S|qry_typ:P|lang:en|wc:2|cs:8842|v=4,False,Industrial Area,Panipat,"E-1, Main Unit,, Industrial Area, Panipat - 132103, Dist.Panipat, Haryana",8043889289,
Baby Bathware,https://www.indiamart.com/proddetail/baby-bathware-14432333191.html?pos=67&kwd=receiving blanket&tags=||||8211.142||product|||NA|rsf:gd-|-stype:attr=1|qr_nm:gd|res:RC2|com-cf:nl|ptrs:na|ktp:N0|mc:55819|mtp:S|qry_typ:P|lang:en|wc:2|cs:8842|v=4,Trans Atlantic Traders,https://www.indiamart.com/trans-atlantic-traders/?pos=67&kwd=receiving blanket&tags=||||8211.142||product|||NA|rsf:gd-|-stype:attr=1|qr_nm:gd|res:RC2|com-cf:nl|ptrs:na|ktp:N0|mc:55819|mtp:S|qry_typ:P|lang:en|wc:2|cs:8842|v=4,False,Nariman Point,Mumbai,"No. 124-B, Jolly Maker Chambers, No. 2 Nariman Point, Nariman Point, Mumbai - 400021, Dist.Mumbai, Maharashtra",8048372512,898
Plain Baby Sheet,https://www.indiamart.com/proddetail/plain-baby-sheet-5022713073.html?pos=68&kwd=receiving blanket&tags=||||8626.744||product|||NA|rsf:gd-|-stype:attr=1|qr_nm:gd|res:RC2|com-cf:nl|ptrs:na|ktp:N0|mc:55819|mtp:S|qry_typ:P|lang:en|wc:2|cs:8842|v=4,Jayam Knit Wear,https://www.indiamart.com/jayamknitwear/?pos=68&kwd=receiving blanket&tags=||||8626.744||product|||NA|rsf:gd-|-stype:attr=1|qr_nm:gd|res:RC2|com-cf:nl|ptrs:na|ktp:N0|mc:55819|mtp:S|qry_typ:P|lang:en|wc:2|cs:8842|v=4,False,15 Velampalayam,Tiruppur,",NO.120,,P.N. ROAD 60 FEET ROAD EAST,, 15 Velampalayam, Tiruppur - 641652, Dist.Coimbatore, Tamil Nadu",8062245053,153
Polyester Blankets,https://www.indiamart.com/proddetail/polyester-blankets-2620660948.html?pos=69&kwd=receiving blanket&tags=||||8661.854||product|||NA|rsf:gd-|-stype:attr=1|qr_nm:gd|res:RC2|com-cf:nl|ptrs:na|ktp:N0|mc:55819|mtp:S|qry_typ:P|lang:en|wc:2|cs:8842|v=4,Paragon Knitting Mills Regd,https://www.indiamart.com/paragon-knitting-mills-regd/?pos=69&kwd=receiving blanket&tags=||||8661.854||product|||NA|rsf:gd-|-stype:attr=1|qr_nm:gd|res:RC2|com-cf:nl|ptrs:na|ktp:N0|mc:55819|mtp:S|qry_typ:P|lang:en|wc:2|cs:8842|v=4,False,,Ludhiana,"Textile Colony Paragon Knitting Mills Rahon Road Near Village Meharban, Ludhiana - 141007, Dist.Ludhiana, Punjab",8048372002,179
"Patchwork Kantha, Embroidered, Cotton",https://www.indiamart.com/proddetail/patchwork-kantha-2851305066991.html?pos=70&kwd=receiving blanket&tags=||||8601.347|Price|product|||NA|rsf:gd-|-stype:attr=1|qr_nm:gd|res:RC2|com-cf:nl|ptrs:na|ktp:N0|mc:55819|mtp:S|qry_typ:P|lang:en|wc:2|cs:8842|v=4,Chirag International Inc.,https://www.indiamart.com/chirag-international-rajasthan/?pos=70&kwd=receiving blanket&tags=||||8601.347|Price|product|||NA|rsf:gd-|-stype:attr=1|qr_nm:gd|res:RC2|com-cf:nl|ptrs:na|ktp:N0|mc:55819|mtp:S|qry_typ:P|lang:en|wc:2|cs:8842|v=4,False,Brahampuri,Jaipur,"771 Khawash Ji Ka Rasta Hawa Mahal Bazar, Brahampuri, Jaipur - 302002, Dist.Jaipur, Rajasthan",8047544186,
Blue And White Indian handmade cotton Bird Print kantha Quilt,https://www.indiamart.com/proddetail/indian-handmade-cotton-bird-print-kantha-quilt-26492276473.html?pos=71&kwd=receiving blanket&tags=||||8601.347|Price|product|||NA|rsf:gd-|-stype:graph-attr=1|qr_nm:gd|res:RC2|com-cf:nl|ptrs:na|ktp:N0|mc:55819|mtp:S|qry_typ:P|lang:en|wc:2|cs:9417|v=4,Jodhana Arts,https://www.indiamart.com/jodhana-arts-craft/?pos=71&kwd=receiving blanket&tags=||||8601.347|Price|product|||NA|rsf:gd-|-stype:graph-attr=1|qr_nm:gd|res:RC2|com-cf:nl|ptrs:na|ktp:N0|mc:55819|mtp:S|qry_typ:P|lang:en|wc:2|cs:9417|v=4,False,,Jaipur,"R-36-BB, FATIMA COLONY,RAM GARD ROAD, JAIPUR, Jaipur - 302002, Dist.Jaipur, Rajasthan",8069264865,370
Receiving Blanket,,Maa Shambhavi Parda Ghar,https://www.indiamart.com/maa-shambhavi-parda-ghar/?pos=72&kwd=receiving blanket&tags=CC||||9454.622|Price|product|||NA|rsf:gd-|-stype:graph-attr=1|qr_nm:gd|res:RC2|com-cf:nl|ptrs:na|ktp:N0|mc:55819|mtp:S|qry_typ:P|lang:en|wc:2|cs:9417|v=4,False,,Gopalganj,"01,1st Floor,Kukurbhuka,Mahuawan Gopalganj,Gopalganj, Gopalganj - 841437, Bihar",8062270211,226
Baby Receiving Blanket,,Shubhada Textiles,https://www.indiamart.com/shubhdatextiles/?pos=73&kwd=receiving blanket&tags=CC||||8559.269|Price|product|||NA|rsf:gd-|-stype:graph-attr=1|qr_nm:gd|res:RC2|com-cf:nl|ptrs:na|ktp:N0|mc:55819|mtp:S|qry_typ:P|lang:en|wc:2|cs:9417|v=4,False,Jawahar,Indore,"50, M.T. Cloth Market, Jawahar, Indore - 452002, Dist.Indore, Madhya Pradesh",8048372441,325
Baby Receiving Blanket,,Intermarket India Pvt. Ltd.,https://www.indiamart.com/intermarket-india-limited/?pos=74&kwd=receiving blanket&tags=CC||||8211.142||product|||NA|rsf:gd-|-stype:graph-attr=1|qr_nm:gd|res:RC2|com-cf:nl|ptrs:na|ktp:N0|mc:55819|mtp:S|qry_typ:P|lang:en|wc:2|cs:9417|v=4,False,,Mumbai,"406, Western Edge-1, Near Magathane Bus Depot, Western Express Highway, Borivali (E) Mumbai, Mumbai - 400066, Dist.Mumbai, Maharashtra",8069013447,805
Baby Receiving Blanket,,A J Enterprises,https://www.indiamart.com/ajenterprises-205162620/?pos=75&kwd=receiving blanket&tags=||||8601.347||product|||NA|rsf:gd-|-stype:graph-attr=1|qr_nm:gd|res:RC2|com-cf:nl|ptrs:na|ktp:N0|mc:55819|mtp:S|qry_typ:P|lang:en|wc:2|cs:9417|v=4,False,Jamna Puri,Jaipur,"Ishwarlal Jat S/o Hardev Jat Chopara Ki Dhani Cheethwari, Jamna Puri, Jaipur - 303805, Dist.Jaipur, Rajasthan",8069707355,701
Receiving Blanket,,Avni Overseas,https://www.indiamart.com/avni-overseas-panipat/?pos=76&kwd=receiving blanket&tags=CC||||8747.203||product|||NA|rsf:gr-|-stype:graph-attr=1|qr_nm:gd|res:RC2|com-cf:nl|ptrs:na|ktp:N0|mc:55819|mtp:S|qry_typ:P|lang:en|wc:2|cs:9417|v=4,False,Garhi Sikanderpur,Panipat,"Kabidri Village Panipat, Garhi Sikanderpur, Panipat - 132103, Dist.Panipat, Haryana",7942642872,
Receiving Blanket,,Occasions,https://www.indiamart.com/occasions-hyderabad/?pos=77&kwd=receiving blanket&tags=CC||||8788.159|Price|product|||NA|rsf:gr-|-stype:graph-attr=1|qr_nm:gd|res:RC2|com-cf:nl|ptrs:na|ktp:N0|mc:55819|mtp:S|qry_typ:P|lang:en|wc:2|cs:9417|v=4,False,Secunderabad,Secunderabad,"6A AND B, SIDDAMSETTY COMPLEX, PARKLANE, SECUNDERABAD 6 A And B Parklane Siddamsetty Complex, 500003, Hyderabad, Secunderabad, Secunderabad - 500003, Dist.Hyderabad, Telangana",8048250214,565
Receiving Blanket,,Sushil Vastralya,https://www.indiamart.com/sushil-vastralya/?pos=78&kwd=receiving blanket&tags=CC||||8559.269||product|||NA|rsf:gr-|-stype:graph-attr=1|qr_nm:gd|res:RC2|com-cf:nl|ptrs:na|ktp:N0|mc:55819|mtp:S|qry_typ:P|lang:en|wc:2|cs:9417|v=4,False,,Indore,"381 381 M.g. Road,gorakund, M.g. Road,gorakund, M.g. Road,gorakund,, Indore - 452001, Dist.Indore, Madhya Pradesh",8062245113,515
Receiving Blanket,,Starbury Apparels,https://www.indiamart.com/starbury-apparels/?pos=79&kwd=receiving blanket&tags=CC||||8626.744|Price|product|||NA|rsf:gr-|-stype:graph-attr=1|qr_nm:gd|res:RC2|com-cf:nl|ptrs:na|ktp:N0|mc:55819|mtp:S|qry_typ:P|lang:en|wc:2|cs:9417|v=4,False,Nallur,Tiruppur,"kasipalayam 12/2 Sidco Main Road, Vijayapuram Po, Nallur, Vijayapuram, Nallur, Tiruppur - 641606, Dist.Coimbatore, Tamil Nadu",8048370034,3096
Receiving Blanket,,Abhinandan,https://www.indiamart.com/abhinandan-kidswear/?pos=80&kwd=receiving blanket&tags=CC||||8307.81|Price|product|||NA|rsf:gr-|-stype:graph-attr=1|qr_nm:gd|res:RC2|com-cf:nl|ptrs:na|ktp:N0|mc:55819|mtp:S|qry_typ:P|lang:en|wc:2|cs:9417|v=4,False,589 Rasta Peth,Pune,"E/28, Indraprasth Complex, 589 Rasta Peth, Pune - 411011, Dist.Pune, Maharashtra",8048372969,8573
Receiving Blanket,,Global Trader,https://www.indiamart.com/global-trader-tiruppur/?pos=81&kwd=receiving blanket&tags=CC||||8626.744||product|||NA|rsf:gr-|-stype:graph-attr=1|qr_nm:gd|res:RC2|com-cf:nl|ptrs:na|ktp:N0|mc:55819|mtp:S|qry_typ:P|lang:en|wc:2|cs:9417|v=4,False,Post Office Road,Tiruppur,"39-a Jainagar Iii Block Kangayam Road Nallur, Post Office Road, Tiruppur - 641606, Dist.Coimbatore, Tamil Nadu",8069017242,949
Receiving Blanket,,Gemini,https://www.indiamart.com/gemini-imphal/?pos=82&kwd=receiving blanket&tags=CC||||10404.834||product|||NA|rsf:gr-|-stype:graph-attr=1|qr_nm:gd|res:RC2|com-cf:nl|ptrs:na|ktp:N0|mc:55819|mtp:S|qry_typ:P|lang:en|wc:2|cs:9417|v=4,False,Imphal,Imphal,"Alu Gali Thangal Bazar Alu Gali, Imphal, Imphal - 795001, Dist.Imphal, Manipur",8069728229,337
Receiving Blanket,,Organic & More,https://www.indiamart.com/organic-more/?pos=83&kwd=receiving blanket&tags=CC||||8778.123||product|||NA|rsf:gr-|-stype:graph-attr=1|qr_nm:gd|res:RC2|com-cf:nl|ptrs:na|ktp:N0|mc:55819|mtp:S|qry_typ:P|lang:en|wc:2|cs:9417|v=4,False,Sector 63,Noida,"G-45, Sector-63, Sector 63 , Noida - 201301, Dist.Gautam Budh Nagar, Uttar Pradesh",8048370005,5907
