product_title,product_link,company_name,company_link,is_verified_exporter,city_region,city,address_details,phone_number,phone_number_extension
Baby Seed Nursing Pillow,https://www.indiamart.com/proddetail/baby-seed-nursing-pillow-2854240007491.html?pos=1&kwd=seed pillow&tags=A||||8752.144|Price|product|||MDC|rsf:gd-|-stype:attr=1|qr_nm:gd|res:RC3|com-cf:nl|ptrs:na|ktp:N0|mc:188815|mtp:S|qry_typ:P|lang:en|wc:2|flavl:0-1|cs:9751|v=4,Komal Embroidery,https://www.indiamart.com/komal-embroidery-newdelhi/?pos=1&kwd=seed pillow&tags=A||||8752.144|Price|product|||MDC|rsf:gd-|-stype:attr=1|qr_nm:gd|res:RC3|com-cf:nl|ptrs:na|ktp:N0|mc:188815|mtp:S|qry_typ:P|lang:en|wc:2|flavl:0-1|cs:9751|v=4,False,Rithala,New Delhi,"Ground Floor, Shop No. PVT-3, KH No. 1203, Lal Doora Village Rithala Near Surya Hotel, Rithala, New Delhi - 110085, Dist.Delhi, Delhi",8045730251,
peach U Newborn Baby Pillow,https://www.indiamart.com/proddetail/newborn-baby-pillow-23575836191.html?pos=2&kwd=seed pillow&tags=A||||9045.955|Price|product|||TS|rsf:gd-|-stype:attr=1|qr_nm:gd|res:RC3|com-cf:nl|ptrs:na|ktp:N0|mc:188815|mtp:S|qry_typ:P|lang:en|wc:2|flavl:0-1|cs:9751|v=4,Divya Soft Toys,https://www.divyasofttoys.com/?pos=2&kwd=seed pillow&tags=A||||9045.955|Price|product|||TS|rsf:gd-|-stype:attr=1|qr_nm:gd|res:RC3|com-cf:nl|ptrs:na|ktp:N0|mc:188815|mtp:S|qry_typ:P|lang:en|wc:2|flavl:0-1|cs:9751|v=4,False,Sanigawan,Kanpur,"Global Hospital, Plot No. 52, Araji No. 266, Sanigawan Road, Swarn Jayanti Vistar Part-1, Sanigawan, Kanpur - 208021, Uttar Pradesh",8046078101,
White Rectangular Baby Mustard Seed Cotton Pillow,https://www.indiamart.com/proddetail/baby-mustard-seed-cotton-pillow-2853468608012.html?pos=3&kwd=seed pillow&tags=A||||8752.144|Price|product|||MDC|rsf:gd-|-stype:attr=1|qr_nm:gd|res:RC3|com-cf:nl|ptrs:na|ktp:N0|mc:188815|mtp:S|qry_typ:P|lang:en|wc:2|flavl:0-1|cs:9751|v=4,Kapil Enterprises,https://www.indiamart.com/kapilenterprisesnew-delhi/?pos=3&kwd=seed pillow&tags=A||||8752.144|Price|product|||MDC|rsf:gd-|-stype:attr=1|qr_nm:gd|res:RC3|com-cf:nl|ptrs:na|ktp:N0|mc:188815|mtp:S|qry_typ:P|lang:en|wc:2|flavl:0-1|cs:9751|v=4,False,Vijay Vihar,New Delhi,"Ground Floor, E-25, Vijay Vihar, Near Badi Masjid, Rohini Sector 7, North West Delhi, Vijay Vihar, New Delhi - 110085, Dist.Delhi, Delhi",7949092118,
round Baby Mustard Seed Pillow,https://www.indiamart.com/proddetail/baby-mustard-seed-pillow-26630448391.html?pos=4&kwd=seed pillow&tags=A||||8752.144|Price|product|||TS|rsf:gd-|-stype:attr=1|qr_nm:gd|res:RC3|com-cf:nl|ptrs:na|ktp:N0|mc:188815|mtp:S|qry_typ:P|lang:en|wc:2|flavl:0-1|cs:9751|v=4,Verma Enterprises,https://www.styaloindia.com/?pos=4&kwd=seed pillow&tags=A||||8752.144|Price|product|||TS|rsf:gd-|-stype:attr=1|qr_nm:gd|res:RC3|com-cf:nl|ptrs:na|ktp:N0|mc:188815|mtp:S|qry_typ:P|lang:en|wc:2|flavl:0-1|cs:9751|v=4,False,Samaypur,New Delhi,"Plot No.180/1-B, Kh.No. 955/1, 1st, Block-C, Raja Vihar, Siraspur, Badli, North West Delhi, Samaypur, New Delhi - 110042, Dist.Delhi, Delhi",8047654672,
BABY Mustard Seed Pillow for babies - RAI,https://www.indiamart.com/proddetail/baby-mustard-seed-pillow-for-babies-rai-2851497440848.html?pos=5&kwd=seed pillow&tags=A||||8752.144|Price|product|||TS|rsf:gd-|-stype:attr=1|qr_nm:gd|res:RC3|com-cf:nl|ptrs:na|ktp:N0|mc:188815|mtp:S|qry_typ:P|lang:en|wc:2|flavl:0-1|cs:9751|v=4,Ekta Overseas,https://www.indiamart.com/ektaoverseas-newdelhi/?pos=5&kwd=seed pillow&tags=A||||8752.144|Price|product|||TS|rsf:gd-|-stype:attr=1|qr_nm:gd|res:RC3|com-cf:nl|ptrs:na|ktp:N0|mc:188815|mtp:S|qry_typ:P|lang:en|wc:2|flavl:0-1|cs:9751|v=4,False,Shahdara,New Delhi,"1/95, Gali No.3, Near Navjeevan Phisical Center, Vishwas Nagar, Shahdara,, Shahdara, New Delhi - 110032, Dist.Delhi, Delhi",7942628926,
Yellow Flying Kiss Baby Pillow,https://www.indiamart.com/proddetail/flying-kiss-baby-pillow-20710451155.html?pos=6&kwd=seed pillow&tags=A||||8752.144|Price|product|||TS|rsf:gd-|-stype:attr=1|qr_nm:gd|res:RC3|com-cf:nl|ptrs:na|ktp:N0|mc:188815|mtp:S|qry_typ:P|lang:en|wc:2|flavl:0-1|cs:9751|v=4,National Overseas,https://www.indiamart.com/nationaltraders-vishwashnagar/?pos=6&kwd=seed pillow&tags=A||||8752.144|Price|product|||TS|rsf:gd-|-stype:attr=1|qr_nm:gd|res:RC3|com-cf:nl|ptrs:na|ktp:N0|mc:188815|mtp:S|qry_typ:P|lang:en|wc:2|flavl:0-1|cs:9751|v=4,False,Shahdara,New Delhi,"1/99, Gali No. 3, Vishwas Nagar, Shahdara, New Delhi - 110032, Dist.Delhi, Delhi",8046047673,
Multicolor Mustard Seed Pillows,https://www.indiamart.com/proddetail/mustard-seed-pillows-27096664030.html?pos=7&kwd=seed pillow&tags=A||||8752.144|Price|product|||MDC|rsf:gd-|-stype:attr=1|qr_nm:gd|res:RC3|com-cf:nl|ptrs:na|ktp:N0|mc:188815|mtp:S|qry_typ:P|lang:en|wc:2|flavl:0-1|cs:9751|v=4,L T Textiles,https://www.indiamart.com/lttextiles/?pos=7&kwd=seed pillow&tags=A||||8752.144|Price|product|||MDC|rsf:gd-|-stype:attr=1|qr_nm:gd|res:RC3|com-cf:nl|ptrs:na|ktp:N0|mc:188815|mtp:S|qry_typ:P|lang:en|wc:2|flavl:0-1|cs:9751|v=4,False,Pahari Dhiraj,New Delhi,"5189-90 Main Road, Sadar Bazar, Pahari Dhiraj, New Delhi - 110006, Dist.Delhi, Delhi",7942958455,
Sky Blue (Base) Pseudo Baby Mustard Seed Pillow,https://www.indiamart.com/proddetail/pseudo-baby-mustard-seed-pillow-2855024791862.html?pos=8&kwd=seed pillow&tags=A||||8752.144|Price|product|||MDC|rsf:gd-|-stype:attr=1|qr_nm:gd|res:RC3|com-cf:nl|ptrs:na|ktp:N0|mc:188815|mtp:S|qry_typ:P|lang:en|wc:2|flavl:0-1|cs:9751|v=4,Dealsup,https://www.indiamart.com/dealsup-north-delhi/?pos=8&kwd=seed pillow&tags=A||||8752.144|Price|product|||MDC|rsf:gd-|-stype:attr=1|qr_nm:gd|res:RC3|com-cf:nl|ptrs:na|ktp:N0|mc:188815|mtp:S|qry_typ:P|lang:en|wc:2|flavl:0-1|cs:9751|v=4,False,,New Delhi,"Kamal Pur Majra, Khasra No. 7/14, Kamal Vihar, Village Burari North Delhi, New Delhi - 110084, Dist.Delhi, Delhi",7942532252,
U Baby Rai Pillow,https://www.indiamart.com/proddetail/baby-rai-pillow-9466965888.html?pos=9&kwd=seed pillow&tags=BA||||8211.142|Price|product|||MDC|rsf:gd-|-stype:attr=1|qr_nm:gd|res:RC3|com-cf:nl|ptrs:na|ktp:N0|mc:188815|mtp:S|qry_typ:P|lang:en|wc:2|flavl:0-1|cs:9751|v=4,Milee Fashion,https://www.indiamart.com/mileefashion/?pos=9&kwd=seed pillow&tags=BA||||8211.142|Price|product|||MDC|rsf:gd-|-stype:attr=1|qr_nm:gd|res:RC3|com-cf:nl|ptrs:na|ktp:N0|mc:188815|mtp:S|qry_typ:P|lang:en|wc:2|flavl:0-1|cs:9751|v=4,False,Chedda Nagar,Mumbai,"Veer Sambhaji Nagar, Near Hanuman Mandir PL Lokhande Marg, Chembur, Chedda Nagar, Mumbai - 400089, Dist.Mumbai, Maharashtra",8048966118,
Browm And White Rectangular Mustard Seed Pillow For Newborn Babies,https://www.indiamart.com/proddetail/mustard-seed-pillow-for-newborn-babies-23908138130.html?pos=10&kwd=seed pillow&tags=BA||||8752.144|Price|product|||TS|rsf:gd-|-stype:attr=1|qr_nm:gd|res:RC3|com-cf:nl|ptrs:na|ktp:N0|mc:188815|mtp:S|qry_typ:P|lang:en|wc:2|flavl:0-1|cs:9751|v=4,Mom & Son,https://www.theindianchoice.com/?pos=10&kwd=seed pillow&tags=BA||||8752.144|Price|product|||TS|rsf:gd-|-stype:attr=1|qr_nm:gd|res:RC3|com-cf:nl|ptrs:na|ktp:N0|mc:188815|mtp:S|qry_typ:P|lang:en|wc:2|flavl:0-1|cs:9751|v=4,False,Karawal Nagar,New Delhi,"B-57 Gali Number-1 Mukund Vihar, Near Pnb Bank, Karawal Nagar, New Delhi - 110094, Dist.Delhi, Delhi",7942565509,
"Pink Rectangular Craftx Mustard Seed Pillow For Newborn Babies, Newly Born",https://www.indiamart.com/proddetail/craftx-mustard-seed-pillow-for-newborn-babies-23211938648.html?pos=11&kwd=seed pillow&tags=BB||||8752.144|Price|product|||TS|rsf:gd-|-stype:attr=1|qr_nm:gd|res:RC3|com-cf:nl|ptrs:na|ktp:N0|mc:188815|mtp:S|qry_typ:P|lang:en|wc:2|flavl:0-1|cs:9751|v=4,Craftx Inc,https://www.indiamart.com/missru-trading-company/?pos=11&kwd=seed pillow&tags=BB||||8752.144|Price|product|||TS|rsf:gd-|-stype:attr=1|qr_nm:gd|res:RC3|com-cf:nl|ptrs:na|ktp:N0|mc:188815|mtp:S|qry_typ:P|lang:en|wc:2|flavl:0-1|cs:9751|v=4,False,Bawana,New Delhi,"N-191, Sec-02, Bawana Industrial Area, Bawana, New Delhi - 110084, Dist.Delhi, Delhi",8048952385,
Mustard Seed Pillow,https://www.indiamart.com/proddetail/mustard-seed-pillow-2853951418348.html?pos=12&kwd=seed pillow&tags=BA||||8211.142|Price|product|||TS|rsf:gd-|-stype:attr=1|qr_nm:gd|res:RC3|com-cf:nl|ptrs:na|ktp:N0|mc:188815|mtp:S|qry_typ:P|lang:en|wc:2|flavl:0-1|cs:9751|v=4,Welcome Enterprise,https://www.welcomeenterprise.in/?pos=12&kwd=seed pillow&tags=BA||||8211.142|Price|product|||TS|rsf:gd-|-stype:attr=1|qr_nm:gd|res:RC3|com-cf:nl|ptrs:na|ktp:N0|mc:188815|mtp:S|qry_typ:P|lang:en|wc:2|flavl:0-1|cs:9751|v=4,False,Santacruz West,Mumbai,"1,Gulam Rasul Chawl No. 149,Khot Wadi, Besant Road,Santacruz West, Santacruz West, Mumbai - 400054, Dist.Mumbai, Maharashtra",8048601972,
Baby Mustard Seed Pillow,https://www.indiamart.com/proddetail/baby-mustard-seed-pillow-2854060802588.html?pos=13&kwd=seed pillow&tags=BA||||8752.144|Price|product|||TS|rsf:gd-|-stype:attr=1|qr_nm:gd|res:RC3|com-cf:nl|ptrs:na|ktp:N0|mc:188815|mtp:S|qry_typ:P|lang:en|wc:2|flavl:0-1|cs:9751|v=4,Fun Play Enterprises,https://www.funplayenterprises.in/?pos=13&kwd=seed pillow&tags=BA||||8752.144|Price|product|||TS|rsf:gd-|-stype:attr=1|qr_nm:gd|res:RC3|com-cf:nl|ptrs:na|ktp:N0|mc:188815|mtp:S|qry_typ:P|lang:en|wc:2|flavl:0-1|cs:9751|v=4,False,Karala,New Delhi,"G Floor, KH No 72/20, Block B, Utsav Vihar, Village Karala, North West Delhi, Karala, New Delhi - 110081, Dist.Delhi, Delhi",7942829879,
Baby Rai Mustard Seed Pillow,https://www.indiamart.com/proddetail/baby-rai-mustard-seed-pillow-2854264380473.html?pos=14&kwd=seed pillow&tags=BA||||8668.838|Price|product|||TS|rsf:gd-|-stype:attr=1|qr_nm:gd|res:RC3|com-cf:nl|ptrs:na|ktp:N0|mc:188815|mtp:S|qry_typ:P|lang:en|wc:2|flavl:0-1|cs:9751|v=4,New Asia Textiles,https://www.indiamart.com/new-asia-textiles/?pos=14&kwd=seed pillow&tags=BA||||8668.838|Price|product|||TS|rsf:gd-|-stype:attr=1|qr_nm:gd|res:RC3|com-cf:nl|ptrs:na|ktp:N0|mc:188815|mtp:S|qry_typ:P|lang:en|wc:2|flavl:0-1|cs:9751|v=4,False,,Erode,"42, Mosikeeranar Street-4 indra nagar, Erode - 638003, Dist.Erode, Tamil Nadu",8046070169,
Safe n cute Newborn Babies Mustard Seed Pillow,https://www.indiamart.com/proddetail/safe-n-cute-newborn-babies-mustard-seed-pillow-2852802630430.html?pos=15&kwd=seed pillow&tags=BA||||8580.032|Price|product|||TS|rsf:gd-|-stype:attr=1|qr_nm:gd|res:RC3|com-cf:nl|ptrs:na|ktp:N0|mc:188815|mtp:S|qry_typ:P|lang:en|wc:2|cs:8894|v=4,Ritu Infants Care,https://www.indiamart.com/ritu-infants-care/?pos=15&kwd=seed pillow&tags=BA||||8580.032|Price|product|||TS|rsf:gd-|-stype:attr=1|qr_nm:gd|res:RC3|com-cf:nl|ptrs:na|ktp:N0|mc:188815|mtp:S|qry_typ:P|lang:en|wc:2|cs:8894|v=4,False,Sunder Nagar,Amritsar,"232, Tilak Nagar, Shivala Colony, Sunder Nagar, Amritsar - 143001, Dist.Amritsar, Punjab",7942712512,
Round sep Baby mustard pillow,https://www.indiamart.com/proddetail/baby-mustard-pillow-2853240969491.html?pos=16&kwd=seed pillow&tags=BA||||8752.144|Price|product|||TS|rsf:gd-|-stype:attr=1|qr_nm:gd|res:RC3|com-cf:nl|ptrs:na|ktp:N0|mc:188815|mtp:S|qry_typ:P|lang:en|wc:2|cs:8894|v=4,Bankey Bihari Enterprises,https://www.indiamart.com/bankey-bihari-enterprisesnewdelhi/?pos=16&kwd=seed pillow&tags=BA||||8752.144|Price|product|||TS|rsf:gd-|-stype:attr=1|qr_nm:gd|res:RC3|com-cf:nl|ptrs:na|ktp:N0|mc:188815|mtp:S|qry_typ:P|lang:en|wc:2|cs:8894|v=4,False,Jahangirpuri,New Delhi,"Plot No 51 First Floor Street No 11 Harijan Colony Village Bhalsva, Jahangirpuri, New Delhi - 110033, Dist.Delhi, Delhi",7942825166,
Mustard Seed Pillow,https://www.indiamart.com/proddetail/mustard-seed-pillow-2854494102773.html?pos=17&kwd=seed pillow&tags=BB||||8954.051|Price|product|||MDC|rsf:gd-|-stype:attr=1|qr_nm:gd|res:RC3|com-cf:nl|ptrs:na|ktp:N0|mc:188815|mtp:S|qry_typ:P|lang:en|wc:2|cs:8894|v=4,Earthwise Collective Private Limited,https://www.indiamart.com/earthwise-collective/?pos=17&kwd=seed pillow&tags=BB||||8954.051|Price|product|||MDC|rsf:gd-|-stype:attr=1|qr_nm:gd|res:RC3|com-cf:nl|ptrs:na|ktp:N0|mc:188815|mtp:S|qry_typ:P|lang:en|wc:2|cs:8894|v=4,False,,Chennai,"9/2, 35/2, Bagirathiammal Street, T Nagar,, Chennai - 600017, Dist.Chennai, Tamil Nadu",7942801118,
"Pink Round Shape Full Rai Baby Pillow, 6Month",https://www.indiamart.com/proddetail/round-shape-full-rai-baby-pillow-24514373462.html?pos=18&kwd=seed pillow&tags=BA||||8785.791|Price|product|||TS|rsf:gd-|-stype:attr=1|qr_nm:gd|res:RC3|com-cf:nl|ptrs:na|ktp:N0|mc:188815|mtp:S|qry_typ:P|lang:en|wc:2|cs:8894|v=4,Ilaki Intercraft (India),https://www.indiamart.com/ilakiintercraft/?pos=18&kwd=seed pillow&tags=BA||||8785.791|Price|product|||TS|rsf:gd-|-stype:attr=1|qr_nm:gd|res:RC3|com-cf:nl|ptrs:na|ktp:N0|mc:188815|mtp:S|qry_typ:P|lang:en|wc:2|cs:8894|v=4,False,Tronica City,Ghaziabad,"D-69 Sector D-1 Tronica City, Tronica City, Ghaziabad - 201103, Dist.Ghaziabad, Uttar Pradesh",7942552124,
White (Base Color) Rectangular Newborn Baby Rai Seed Fill Pillow,https://www.indiamart.com/proddetail/newborn-baby-rai-seed-fill-pillow-2853396638530.html?pos=19&kwd=seed pillow&tags=BA||||8230.883|Price|product|||MDC|rsf:gd-|-stype:attr=1|qr_nm:gd|res:RC3|com-cf:nl|ptrs:na|ktp:N0|mc:188815|mtp:S|qry_typ:P|lang:en|wc:2|cs:8894|v=4,P & C Enterprise,https://www.indiamart.com/pc-enterprisesurat/?pos=19&kwd=seed pillow&tags=BA||||8230.883|Price|product|||MDC|rsf:gd-|-stype:attr=1|qr_nm:gd|res:RC3|com-cf:nl|ptrs:na|ktp:N0|mc:188815|mtp:S|qry_typ:P|lang:en|wc:2|cs:8894|v=4,False,Punagam,Surat,"4TH, L-11, Shubh Plaza NR. Bhaiya Nagar, Satguru Mobile, Punagam, Surat - 395010, Dist.Surat, Gujarat",7949222404,
Pink Rectangular Mustard Seed Pillow For Newborn Babies,https://www.indiamart.com/proddetail/mustard-seed-pillow-for-newborn-babies-2854279716062.html?pos=20&kwd=seed pillow&tags=BB||||9189.305|Price|product|||MDC|rsf:gd-|-stype:attr=1|qr_nm:gd|res:RC3|com-cf:nl|ptrs:na|ktp:N0|mc:188815|mtp:S|qry_typ:P|lang:en|wc:2|cs:8894|v=4,Sudhanjali Enterprises,https://www.indiamart.com/sudhanjalienterprises/?pos=20&kwd=seed pillow&tags=BB||||9189.305|Price|product|||MDC|rsf:gd-|-stype:attr=1|qr_nm:gd|res:RC3|com-cf:nl|ptrs:na|ktp:N0|mc:188815|mtp:S|qry_typ:P|lang:en|wc:2|cs:8894|v=4,False,,Prayagraj,"H No-10/7, Basahi, Nataka Babura, Khain, Prayagraj - 212307, Dist.Allahabad, Uttar Pradesh",7942964273,
Baby-Mustard-Seeds-Soft-Neck-Support-Pillow-For-Head-Shaping-Original-Imafzmgh2Merhhsc,https://www.indiamart.com/proddetail/baby-mustard-seeds-soft-neck-support-pillow-for-head-shaping-original-imafzmgh2merhhsc-24191027373.html?pos=21&kwd=seed pillow&tags=BA||||8752.144|Price|product|||TS|rsf:gd-|-stype:attr=1|qr_nm:gd|res:RC3|com-cf:nl|ptrs:na|ktp:N0|mc:188815|mtp:S|qry_typ:P|lang:en|wc:2|cs:8894|v=4,Chinmay Kids,https://www.indiamart.com/chinmaykids/?pos=21&kwd=seed pillow&tags=BA||||8752.144|Price|product|||TS|rsf:gd-|-stype:attr=1|qr_nm:gd|res:RC3|com-cf:nl|ptrs:na|ktp:N0|mc:188815|mtp:S|qry_typ:P|lang:en|wc:2|cs:8894|v=4,False,Nayagaon,New Delhi,"C-99, Street No. 4, First Pusta, Nayagaon, New Delhi - 110053, Dist.Delhi, Delhi",8046054858,
Blue U Panfikh Baby Seeds Pillow,https://www.indiamart.com/proddetail/panfikh-baby-seeds-pillow-2852315298873.html?pos=22&kwd=seed pillow&tags=BA||||8226.563|Price|product|||MDC|rsf:gd-|-stype:attr=1|qr_nm:gd|res:RC3|com-cf:nl|ptrs:na|ktp:N0|mc:188815|mtp:S|qry_typ:P|lang:en|wc:2|cs:8894|v=4,Pehal Enterprises,https://www.indiamart.com/pehalenterprises/?pos=22&kwd=seed pillow&tags=BA||||8226.563|Price|product|||MDC|rsf:gd-|-stype:attr=1|qr_nm:gd|res:RC3|com-cf:nl|ptrs:na|ktp:N0|mc:188815|mtp:S|qry_typ:P|lang:en|wc:2|cs:8894|v=4,False,Nerul,Navi Mumbai,"Ground Floor, Shop No 01, Plot No 74, C/O Suman Dattatray Tandel, Premnath Residency, Sector 44, Seawoods Nerul, Nerul, Navi Mumbai - 400706, Dist.Thane, Maharashtra",8043844515,
Gray Elephant Newborn Baby Pillow,https://www.indiamart.com/proddetail/elephant-newborn-baby-pillow-2853953361633.html?pos=23&kwd=seed pillow&tags=BA||||8752.144||product|||MDC|rsf:gd-|-stype:attr=1|qr_nm:gd|res:RC3|com-cf:nl|ptrs:na|ktp:N0|mc:188815|mtp:S|qry_typ:P|lang:en|wc:2|cs:8894|v=4,Topscotch Enterprises,https://www.indiamart.com/topscotch-enterprises-newdelhi/?pos=23&kwd=seed pillow&tags=BA||||8752.144||product|||MDC|rsf:gd-|-stype:attr=1|qr_nm:gd|res:RC3|com-cf:nl|ptrs:na|ktp:N0|mc:188815|mtp:S|qry_typ:P|lang:en|wc:2|cs:8894|v=4,False,North Delhi,New Delhi,"Street No 7 BLKB, Kadipur Ground Floor Plot No 99-A,KH. No. 1311 Swaroop Vihar, North Delhi, New Delhi - 110036, Dist.Delhi, Delhi",8044564980,
Mickey Mouse Cotton Printed Baby Pillow,https://www.indiamart.com/proddetail/mickey-mouse-cotton-printed-baby-pillow-2852673504891.html?pos=24&kwd=seed pillow&tags=BA||||8230.883|Price|product|||MDC|rsf:gd-|-stype:attr=1|qr_nm:gd|res:RC3|com-cf:nl|ptrs:na|ktp:N0|mc:188815|mtp:S|qry_typ:P|lang:en|wc:2|cs:8894|v=4,Shri Shri Fashion,https://www.indiamart.com/shri-shri-fashion/?pos=24&kwd=seed pillow&tags=BA||||8230.883|Price|product|||MDC|rsf:gd-|-stype:attr=1|qr_nm:gd|res:RC3|com-cf:nl|ptrs:na|ktp:N0|mc:188815|mtp:S|qry_typ:P|lang:en|wc:2|cs:8894|v=4,False,Varachha,Surat,"A-231, Narayan Nagar, Near Nalanda School, Punagam,, Varachha, Surat - 395010, Dist.Surat, Gujarat",7942712235,
Nursing Pillow - Breast Feeding Pillow - Bottle Feeding Pillow - Infant Nursing Pillow,https://www.indiamart.com/proddetail/nursing-pillow-breast-feeding-pillow-bottle-feeding-pillow-infant-nursing-pillow-2850011469491.html?pos=25&kwd=seed pillow&tags=BA||||8668.838|Price|product|||TS|rsf:gd-|-stype:attr=1|qr_nm:gd|res:RC3|com-cf:nl|ptrs:na|ktp:N0|mc:188815|mtp:S|qry_typ:P|lang:en|wc:2|cs:8894|v=4,Sri Kalyan Export Private Limited,https://www.firstinbabydress.com/?pos=25&kwd=seed pillow&tags=BA||||8668.838|Price|product|||TS|rsf:gd-|-stype:attr=1|qr_nm:gd|res:RC3|com-cf:nl|ptrs:na|ktp:N0|mc:188815|mtp:S|qry_typ:P|lang:en|wc:2|cs:8894|v=4,False,Vilarasampatti,Erode,"192/4, Ishwarya Garden, Sengodampalayam, Villarasampatti Post, Erode,, Vilarasampatti, Erode - 638107, Dist.Erode, Tamil Nadu",8046030291,
Red Baby Rai Pillow,https://www.indiamart.com/proddetail/baby-rai-pillow-16222648448.html?pos=26&kwd=seed pillow&tags=BB||||8545.6045|Price|product|||MDC|rsf:gd-|-stype:attr=1|qr_nm:gd|res:RC3|com-cf:nl|ptrs:na|ktp:N0|mc:188815|mtp:S|qry_typ:P|lang:en|wc:2|cs:8894|v=4,Shraddha Saburi,https://www.indiamart.com/shraddhasaburi/?pos=26&kwd=seed pillow&tags=BB||||8545.6045|Price|product|||MDC|rsf:gd-|-stype:attr=1|qr_nm:gd|res:RC3|com-cf:nl|ptrs:na|ktp:N0|mc:188815|mtp:S|qry_typ:P|lang:en|wc:2|cs:8894|v=4,False,Cantonment Area,Firozpur,"263, Suji Bazar, M/s Shraddha Saburi, Ferozepur Cantt, Cantonment Area, Firozpur - 152001, Dist.Firozpur, Punjab",8048979628,
"Hut Shape Baby Mustard Seed Pillow, Packaging Type: Single pec pack, 3-12 Months",https://www.indiamart.com/proddetail/baby-mustard-seed-pillow-12619891155.html?pos=27&kwd=seed pillow&tags=BB||||8779.266|Price|product|||NA|rsf:gd-|-stype:attr=1|qr_nm:gd|res:RC3|com-cf:nl|ptrs:na|ktp:N0|mc:188815|mtp:S|qry_typ:P|lang:en|wc:2|cs:8894|v=4,Anita Fashions,https://www.indiamart.com/anitafashions/?pos=27&kwd=seed pillow&tags=BB||||8779.266|Price|product|||NA|rsf:gd-|-stype:attr=1|qr_nm:gd|res:RC3|com-cf:nl|ptrs:na|ktp:N0|mc:188815|mtp:S|qry_typ:P|lang:en|wc:2|cs:8894|v=4,False,Lawi Khurd,Solan,"Shop No. 4, Anand Cinema Complex, Lawi Khurd, Solan - 173212, Dist.Solan, Himachal Pradesh",8048614729,
PRINTED Rectangular Mustard Seed Pillow For Newborn Babies / Rai Seed Pillow For Baby,https://www.indiamart.com/proddetail/mustard-seed-pillow-for-newborn-babies-rai-seed-pillow-for-baby-27573545833.html?pos=28&kwd=seed pillow&tags=BB||||8236.946|Price|product|||NA|rsf:gd-|-stype:attr=1|qr_nm:gd|res:RC3|com-cf:nl|ptrs:na|ktp:N0|mc:188815|mtp:S|qry_typ:P|lang:en|wc:2|cs:8894|v=4,Pranita Textile,https://www.indiamart.com/pranita-textile/?pos=28&kwd=seed pillow&tags=BB||||8236.946|Price|product|||NA|rsf:gd-|-stype:attr=1|qr_nm:gd|res:RC3|com-cf:nl|ptrs:na|ktp:N0|mc:188815|mtp:S|qry_typ:P|lang:en|wc:2|cs:8894|v=4,False,,Raigad,"Unit No 206, 2nd Fioor, Silver Springs, Taloja Midc, Taloja Panchanand, Raigad., Raigad - 410208, Maharashtra",8043855238,
Mustard Seed Pillow For Newborn Babies,https://www.indiamart.com/proddetail/mustard-seed-pillow-for-newborn-babies-2851123617362.html?pos=29&kwd=seed pillow&tags=BA||||8752.144|Price|product|||NA|rsf:gd-|-stype:attr=1|qr_nm:gd|res:RC3|com-cf:nl|ptrs:na|ktp:N0|mc:188815|mtp:S|qry_typ:P|lang:en|wc:2|cs:8894|v=4,S.P. Enterprises,https://www.indiamart.com/spenterprisesdelhiindia/?pos=29&kwd=seed pillow&tags=BA||||8752.144|Price|product|||NA|rsf:gd-|-stype:attr=1|qr_nm:gd|res:RC3|com-cf:nl|ptrs:na|ktp:N0|mc:188815|mtp:S|qry_typ:P|lang:en|wc:2|cs:8894|v=4,False,Samaypur,New Delhi,"Khasra No 6/25, Ground Floor, Gali No-14 Block - J, North Delhi, Samaypur, New Delhi - 110042, Dist.Delhi, Delhi",7942833187,
Smiley Face Baby Mustard Seed Pillow,https://www.indiamart.com/proddetail/smiley-face-baby-mustard-seed-pillow-2852975139948.html?pos=30&kwd=seed pillow&tags=BA||||8559.269|Price|product|||NA|rsf:gd-|-stype:attr=1|qr_nm:gd|res:RC3|com-cf:nl|ptrs:na|ktp:N0|mc:188815|mtp:S|qry_typ:P|lang:en|wc:2|cs:8894|v=4,Navkar Traders,https://www.indiamart.com/navkar-tradersindore/?pos=30&kwd=seed pillow&tags=BA||||8559.269|Price|product|||NA|rsf:gd-|-stype:attr=1|qr_nm:gd|res:RC3|com-cf:nl|ptrs:na|ktp:N0|mc:188815|mtp:S|qry_typ:P|lang:en|wc:2|cs:8894|v=4,False,Sukhlia,Indore,"304, Shyam Bhatika Ke Pass, Shyam Nagar,, Sukhlia, Indore - 452010, Dist.Indore, Madhya Pradesh",7942962327,
Green Rectangular Mustard Seed Pillow For Newborn Babies,https://www.indiamart.com/proddetail/mustard-seed-pillow-for-newborn-babies-2854936790097.html?pos=31&kwd=seed pillow&tags=BB||||8752.144|Price|product|||NA|rsf:gd-|-stype:attr=1|qr_nm:gd|res:RC3|com-cf:nl|ptrs:na|ktp:N0|mc:188815|mtp:S|qry_typ:P|lang:en|wc:2|cs:8894|v=4,Kesree India,https://www.indiamart.com/company/231259651/?pos=31&kwd=seed pillow&tags=BB||||8752.144|Price|product|||NA|rsf:gd-|-stype:attr=1|qr_nm:gd|res:RC3|com-cf:nl|ptrs:na|ktp:N0|mc:188815|mtp:S|qry_typ:P|lang:en|wc:2|cs:8894|v=4,False,,New Delhi,"KH No 80/9, Vashist Encl Baba CLY, Burari Delhi, New Delhi - 110084, Dist.Delhi, Delhi",8048247100,4089
White (Base) Rectangular Merrie's mustard seed pillow for babies,https://www.indiamart.com/proddetail/merrie-s-mustard-seed-pillow-for-babies-2849362480630.html?pos=32&kwd=seed pillow&tags=BA||||8211.142|Price|product|||NA|rsf:gd-|-stype:attr=1|qr_nm:gd|res:RC3|com-cf:nl|ptrs:na|ktp:N0|mc:188815|mtp:S|qry_typ:P|lang:en|wc:2|cs:8894|v=4,Dee Bee & Co.,https://www.indiamart.com/me-nmoms/?pos=32&kwd=seed pillow&tags=BA||||8211.142|Price|product|||NA|rsf:gd-|-stype:attr=1|qr_nm:gd|res:RC3|com-cf:nl|ptrs:na|ktp:N0|mc:188815|mtp:S|qry_typ:P|lang:en|wc:2|cs:8894|v=4,False,,Mumbai,"A-202, 2nd floor, Aaradhya Nalanda, R B Mehta Marg, Mumbai, Mumbai Suburban, Mumbai - 400077, Dist.Mumbai, Maharashtra",7942792773,
U Printed Cotton Soft Baby Seed Pillow,https://www.indiamart.com/proddetail/printed-cotton-soft-baby-seed-pillow-25977401212.html?pos=33&kwd=seed pillow&tags=BA||||8752.144|Price|product|||NA|rsf:gd-|-stype:attr=1|qr_nm:gd|res:RC3|com-cf:nl|ptrs:na|ktp:N0|mc:188815|mtp:S|qry_typ:P|lang:en|wc:2|cs:8894|v=4,Aashia Fashion,https://www.indiamart.com/aashia-fashion/?pos=33&kwd=seed pillow&tags=BA||||8752.144|Price|product|||NA|rsf:gd-|-stype:attr=1|qr_nm:gd|res:RC3|com-cf:nl|ptrs:na|ktp:N0|mc:188815|mtp:S|qry_typ:P|lang:en|wc:2|cs:8894|v=4,False,,New Delhi,"A-21 Shiv Vihar, Vikas Nagar Near Rama Sweets, Uttam Nagar, New Delhi - 110059, Dist.Delhi, Delhi",8047676001,
Apple Blue Check Rai Pillow,https://www.indiamart.com/proddetail/blue-check-rai-pillow-25884135562.html?pos=34&kwd=seed pillow&tags=BA||||8752.144|Price|product|||NA|rsf:gd-|-stype:attr=1|qr_nm:gd|res:RC3|com-cf:nl|ptrs:na|ktp:N0|mc:188815|mtp:S|qry_typ:P|lang:en|wc:2|cs:8894|v=4,Anu Creations,https://www.indiamart.com/anucreations-delhi/?pos=34&kwd=seed pillow&tags=BA||||8752.144|Price|product|||NA|rsf:gd-|-stype:attr=1|qr_nm:gd|res:RC3|com-cf:nl|ptrs:na|ktp:N0|mc:188815|mtp:S|qry_typ:P|lang:en|wc:2|cs:8894|v=4,False,Karol Bagh,New Delhi,"4312, 2nd Floor, Gali Bahuji, Bahadur Garh Road, Sadar Bazar, Central Delhi, Karol Bagh, New Delhi - 110006, Dist.Delhi, Delhi",8047657412,
Baby Rai Pillow,https://www.indiamart.com/proddetail/baby-rai-pillow-2854886586297.html?pos=35&kwd=seed pillow&tags=BA||||8747.203|Price|product|||NA|rsf:gd-|-stype:attr=1|qr_nm:gd|res:RC3|com-cf:nl|ptrs:na|ktp:N0|mc:188815|mtp:S|qry_typ:P|lang:en|wc:2|cs:8894|v=4,Mohini Shopee,https://www.indiamart.com/mohini-shopee/?pos=35&kwd=seed pillow&tags=BA||||8747.203|Price|product|||NA|rsf:gd-|-stype:attr=1|qr_nm:gd|res:RC3|com-cf:nl|ptrs:na|ktp:N0|mc:188815|mtp:S|qry_typ:P|lang:en|wc:2|cs:8894|v=4,False,,Panipat,"Insar Chowk Devi Mandir Road Panipat Panipat, Panipat - 132103, Dist.Panipat, Haryana",8048370182,6148
"Mittenbooty Soft Velvet Baby Neck Rai Pillow, Shape: U Shape, Size: 12x12 Inch",https://www.indiamart.com/proddetail/velvet-baby-neck-rai-pillow-2849767028597.html?pos=36&kwd=seed pillow&tags=BB||||8601.347|Price|product|||NA|rsf:gd-|-stype:attr=1|qr_nm:gd|res:RC3|com-cf:nl|ptrs:na|ktp:N0|mc:188815|mtp:S|qry_typ:P|lang:en|wc:2|cs:8894|v=4,Bhagwati Enterprises,https://www.indiamart.com/bhagwati-enterprisesrajasthan/?pos=36&kwd=seed pillow&tags=BB||||8601.347|Price|product|||NA|rsf:gd-|-stype:attr=1|qr_nm:gd|res:RC3|com-cf:nl|ptrs:na|ktp:N0|mc:188815|mtp:S|qry_typ:P|lang:en|wc:2|cs:8894|v=4,False,,Jaipur,"Ground Floor, ARG Murli Heights, Moti Doongri Road, Jaipur - 302004, Dist.Jaipur, Rajasthan",7942795447,
Baby Mustard Seeds Pillow,,Chauhan Enterprises,https://www.indiamart.com/chauhanenterprises-228571928/?pos=37&kwd=seed pillow&tags=BB||||8752.144|Price|product|||NA|rsf:gd-|-stype:attr=1|qr_nm:gd|res:RC3|com-cf:nl|ptrs:na|ktp:N0|mc:188815|mtp:S|qry_typ:P|lang:en|wc:2|cs:8894|v=4,False,Kanjhawala,New Delhi,"Blk-B, House No. 26-B, Mahavir Vihar, Kanjhawala, New Delhi - 110081, Dist.Delhi, Delhi",8048249780,7447
Seed Pillow,,Yogendra Enterprises,https://www.indiamart.com/yogendraenterprises/?pos=38&kwd=seed pillow&tags=BB||||8817.752|Price|product|||NA|rsf:gd-|-stype:attr=1|qr_nm:gd|res:RC3|com-cf:nl|ptrs:na|ktp:N0|mc:188815|mtp:S|qry_typ:P|lang:en|wc:2|cs:8894|v=4,False,,Hapur,"Dehra Dhaulana, Hapur - 245301, Dist.Hapur, Uttar Pradesh",7942794173,
Musterd seed pillow,,Avioliitto,https://www.indiamart.com/avioliitto/?pos=39&kwd=seed pillow&tags=BA||||8601.347|Price|product|||NA|rsf:gd-|-stype:attr=1|qr_nm:gd|res:RC3|com-cf:nl|ptrs:na|ktp:N0|mc:188815|mtp:S|qry_typ:P|lang:en|wc:2|cs:8894|v=4,False,,Jaipur,"e-40 jhothwara Yamuna Marg Dhanraj House, Jaipur - 302012, Dist.Jaipur, Rajasthan",8048371809,145
Rai pillow,,Snugglers Babycare Products LLP,https://www.indiamart.com/snugglers-babycare-products-llp/?pos=40&kwd=seed pillow&tags=BB||||8211.142||product|||NA|rsf:gd-|-stype:attr=1|qr_nm:gd|res:RC3|com-cf:nl|ptrs:na|ktp:N0|mc:188815|mtp:S|qry_typ:P|lang:en|wc:2|cs:8894|v=4,False,,Mumbai,"1st Floor Flat No.f 102 Kondivita Midc, Andheri East Sterling Court, Mumbai - 400059, Dist.Mumbai, Maharashtra",8048372529,523
Baby Rai Pillow,,Mahadev Enterprises,https://www.indiamart.com/mahadeventps-bengaluru/?pos=41&kwd=seed pillow&tags=BB||||8663.873|Price|product|||NA|rsf:gd-|-stype:attr=1|qr_nm:gd|res:RC3|com-cf:nl|ptrs:na|ktp:N0|mc:188815|mtp:S|qry_typ:P|lang:en|wc:2|cs:8894|v=4,False,Cubbonpet Main Road,Bengaluru,"32, 1st Floor, 13th Cross, Cubbonpet Main Road, Bengaluru - 560001, Dist.Bengaluru, Karnataka",8047690378,
Head Shaping Rai Mustard Seeds Pillow,,Divy Trading Company,https://www.indiamart.com/divytradingcompany-newdelhi/?pos=42&kwd=seed pillow&tags=BA||||8752.144|Price|product|||NA|rsf:gd-|-stype:attr=1|qr_nm:gd|res:RC3|com-cf:nl|ptrs:na|ktp:N0|mc:188815|mtp:S|qry_typ:P|lang:en|wc:2|cs:8894|v=4,False,Rohini,New Delhi,"Plot No 132,First Floor, Pocket-18, Sector-24, Best Mega Mall, North West Delhi, Rohini, New Delhi - 110085, Dist.Delhi, Delhi",7942720911,
Baby Rai Pillow,,Mahadev Enterprises,https://www.indiamart.com/mahadeventps-bengaluru/?pos=43&kwd=seed pillow&tags=BB||||8663.873|Price|product|||NA|rsf:gd-|-stype:attr=1|qr_nm:gd|res:RC3|com-cf:nl|ptrs:na|ktp:N0|mc:188815|mtp:S|qry_typ:P|lang:en|wc:2|cs:8894|v=4,False,Cubbonpet Main Road,Bengaluru,"32, 1st Floor, 13th Cross, Cubbonpet Main Road, Bengaluru - 560001, Dist.Bengaluru, Karnataka",8047690378,
Head Shaping Rai Mustard Seeds Pillow,,Divy Trading Company,https://www.indiamart.com/divytradingcompany-newdelhi/?pos=44&kwd=seed pillow&tags=BA||||8752.144|Price|product|||NA|rsf:gd-|-stype:attr=1|qr_nm:gd|res:RC3|com-cf:nl|ptrs:na|ktp:N0|mc:188815|mtp:S|qry_typ:P|lang:en|wc:2|cs:8894|v=4,False,Rohini,New Delhi,"Plot No 132,First Floor, Pocket-18, Sector-24, Best Mega Mall, North West Delhi, Rohini, New Delhi - 110085, Dist.Delhi, Delhi",7942720911,
Multicolor Rectangular Baby Mustard Seeds Pillow,https://www.indiamart.com/proddetail/baby-mustard-seeds-pillow-2853640988230.html?pos=45&kwd=seed pillow&tags=CC||||8228.275|Price|product|||TS|rsf:gd-|-stype:attr=1|qr_nm:gd|res:RC3|com-cf:nl|ptrs:na|ktp:N0|mc:188815|mtp:S|qry_typ:P|lang:en|wc:2|cs:8894|v=4,JSPM Traders,https://www.jspmtraders.com/?pos=45&kwd=seed pillow&tags=CC||||8228.275|Price|product|||TS|rsf:gd-|-stype:attr=1|qr_nm:gd|res:RC3|com-cf:nl|ptrs:na|ktp:N0|mc:188815|mtp:S|qry_typ:P|lang:en|wc:2|cs:8894|v=4,False,Dudheshwar,Ahmedabad,"407, 4th, Block-B, Sumel Business Park-9, Dudheshwar, Dudheshwar, Ahmedabad - 380004, Dist.Ahmedabad, Gujarat",8045908277,
Heart Mustard Seed Pillow For Newborn Babies,https://www.indiamart.com/proddetail/mustard-seed-pillow-for-newborn-babies-2853043732733.html?pos=46&kwd=seed pillow&tags=CC||||8624.416|Price|product|||MDC|rsf:gd-|-stype:attr=1|qr_nm:gd|res:RC3|com-cf:nl|ptrs:na|ktp:N0|mc:188815|mtp:S|qry_typ:P|lang:en|wc:2|cs:8894|v=4,Dayawanti Traders,https://www.indiamart.com/dayawati-trader/?pos=46&kwd=seed pillow&tags=CC||||8624.416|Price|product|||MDC|rsf:gd-|-stype:attr=1|qr_nm:gd|res:RC3|com-cf:nl|ptrs:na|ktp:N0|mc:188815|mtp:S|qry_typ:P|lang:en|wc:2|cs:8894|v=4,False,Indira Colony,Hisar,"Plot No. 137 Dhani Kishandutt, Near Asha High School, Nancy Beauty Parlour, Indira Colony, Indira Colony, Hisar - 125001, Dist.Hisar, Haryana",7942701403,
Elephant Baby Rai Pillow,https://www.indiamart.com/proddetail/elephant-baby-rai-pillow-18193209473.html?pos=47&kwd=seed pillow&tags=CC||||8545.6045|Price|product|||MDC|rsf:gd-|-stype:attr=1|qr_nm:gd|res:RC3|com-cf:nl|ptrs:na|ktp:N0|mc:188815|mtp:S|qry_typ:P|lang:en|wc:2|cs:8894|v=4,Shri Siddhivinayak Traders,https://www.indiamart.com/shrisiddhivinayaktraders-firozpur/?pos=47&kwd=seed pillow&tags=CC||||8545.6045|Price|product|||MDC|rsf:gd-|-stype:attr=1|qr_nm:gd|res:RC3|com-cf:nl|ptrs:na|ktp:N0|mc:188815|mtp:S|qry_typ:P|lang:en|wc:2|cs:8894|v=4,False,Basti Nizamdin,Firozpur,"No.94, Anand Avenue, Backside Marked Office, Malwal Road, Firozpur City, Basti Nizamdin, Firozpur - 152002, Dist.Firozpur, Punjab",8046066644,
Red Elephant Baby Mustard Seeds Pillow,https://www.indiamart.com/proddetail/baby-mustard-seeds-pillow-2854558735488.html?pos=48&kwd=seed pillow&tags=CC||||8752.144|Price|product|||MDC|rsf:gd-|-stype:attr=1|qr_nm:gd|res:RC3|com-cf:nl|ptrs:na|ktp:N0|mc:188815|mtp:S|qry_typ:P|lang:en|wc:2|cs:8894|v=4,Newgen Partners,https://www.indiamart.com/newgenpartners/?pos=48&kwd=seed pillow&tags=CC||||8752.144|Price|product|||MDC|rsf:gd-|-stype:attr=1|qr_nm:gd|res:RC3|com-cf:nl|ptrs:na|ktp:N0|mc:188815|mtp:S|qry_typ:P|lang:en|wc:2|cs:8894|v=4,False,,New Delhi,"Jawahar Park, E-34A, Ground Floor, Laxmi Nagar, East Delhi,, New Delhi - 110092, Dist.Delhi, Delhi",8048213363,
Multicolor Rectangular rai pillow for newborns,https://www.indiamart.com/proddetail/rai-pillow-for-newborns-2853235948255.html?pos=49&kwd=seed pillow&tags=CC||||8230.883|Price|product|||MDC|rsf:gd-|-stype:attr=1|qr_nm:gd|res:RC3|com-cf:nl|ptrs:na|ktp:N0|mc:188815|mtp:S|qry_typ:P|lang:en|wc:2|cs:8894|v=4,Jay Impex,https://www.indiamart.com/jayimpexsurat/?pos=49&kwd=seed pillow&tags=CC||||8230.883|Price|product|||MDC|rsf:gd-|-stype:attr=1|qr_nm:gd|res:RC3|com-cf:nl|ptrs:na|ktp:N0|mc:188815|mtp:S|qry_typ:P|lang:en|wc:2|cs:8894|v=4,False,Athwa,Surat,"1st Floor, 77, Narmad Nagar Soc, Hirabaug,, Athwa, Surat - 395006, Dist.Surat, Gujarat",7942713335,
"Pink,Lavender And Green Cotton Mustard Seeds Baby Pillow",https://www.indiamart.com/proddetail/cotton-mustard-seeds-baby-pillow-2853512945397.html?pos=50&kwd=seed pillow&tags=CC||||8307.81|Price|product|||MDC|rsf:gd-|-stype:attr=1|qr_nm:gd|res:RC3|com-cf:nl|ptrs:na|ktp:N0|mc:188815|mtp:S|qry_typ:P|lang:en|wc:2|cs:8894|v=4,Tabaria Baby Mall,https://www.indiamart.com/tabaria-baby-mallpune/?pos=50&kwd=seed pillow&tags=CC||||8307.81|Price|product|||MDC|rsf:gd-|-stype:attr=1|qr_nm:gd|res:RC3|com-cf:nl|ptrs:na|ktp:N0|mc:188815|mtp:S|qry_typ:P|lang:en|wc:2|cs:8894|v=4,False,Raviwar Peth,Pune,"1088,Manish Market,Raviwar Peth, Raviwar Peth, Pune - 411002, Dist.Pune, Maharashtra",7949092418,
"U Baby Face Pillow, Packaging Type: standard, 3-12 Months",https://www.indiamart.com/proddetail/baby-face-pillow-11861820755.html?pos=51&kwd=seed pillow&tags=CC||||8211.142|Price|product|||TS|rsf:gd-|-stype:attr=1|qr_nm:gd|res:RC3|com-cf:nl|ptrs:na|ktp:N0|mc:188815|mtp:S|qry_typ:P|lang:en|wc:2|cs:8894|v=4,Dhrupti Creation,https://www.indiamart.com/littlecare/?pos=51&kwd=seed pillow&tags=CC||||8211.142|Price|product|||TS|rsf:gd-|-stype:attr=1|qr_nm:gd|res:RC3|com-cf:nl|ptrs:na|ktp:N0|mc:188815|mtp:S|qry_typ:P|lang:en|wc:2|cs:8894|v=4,False,Malad East,Mumbai,"Gala No. 3, Jignesh Diamond House, Near Vaishnavdevi Mandir, Subhash Lane, Malad East, Malad East, Mumbai - 400097, Dist.Mumbai, Maharashtra",8048970316,
Multicolor Rectangular MUSTARD SEEDS PILLOW FOR BORN BABY,https://www.indiamart.com/proddetail/mustard-seeds-pillow-for-born-baby-2849542403012.html?pos=52&kwd=seed pillow&tags=||||8230.883|Price|product|||TS|rsf:gd-|-stype:attr=1|qr_nm:gd|res:RC3|com-cf:nl|ptrs:na|ktp:N0|mc:188815|mtp:S|qry_typ:P|lang:en|wc:2|cs:8894|v=4,Rozzby,https://www.cheaperzonetoys.com/?pos=52&kwd=seed pillow&tags=||||8230.883|Price|product|||TS|rsf:gd-|-stype:attr=1|qr_nm:gd|res:RC3|com-cf:nl|ptrs:na|ktp:N0|mc:188815|mtp:S|qry_typ:P|lang:en|wc:2|cs:8894|v=4,False,Kosam,Surat,"1st Floor D-2,103 Vip Circle Shlok Recidency Utran, Kosam, Surat - 394105, Dist.Surat, Gujarat",8047622002,
"Brown Seeded Kapok Silk Cotton semal ilavampanju, For Filling Material",https://www.indiamart.com/proddetail/seeded-kapok-silk-cotton-semal-ilavampanju-2851548641933.html?pos=53&kwd=seed pillow&tags=||||8622.665|Price|product|||MDC|rsf:gd-|-stype:attr=1|qr_nm:gd|res:RC3|com-cf:nl|ptrs:na|ktp:N0|mc:188815|mtp:S|qry_typ:P|lang:en|wc:2|cs:8894|v=4,Kapok India,https://www.indiamart.com/kapokindia/?pos=53&kwd=seed pillow&tags=||||8622.665|Price|product|||MDC|rsf:gd-|-stype:attr=1|qr_nm:gd|res:RC3|com-cf:nl|ptrs:na|ktp:N0|mc:188815|mtp:S|qry_typ:P|lang:en|wc:2|cs:8894|v=4,False,Ammankulam,Bodinayakanur,"161, Paramasivan Koil Street Theni, Ammankulam, Bodinayakanur - 625513, Tamil Nadu",8047680998,
Mustard Seeds Apple Shape Baby Pillow,https://www.indiamart.com/proddetail/apple-shape-baby-pillow-9182116097.html?pos=54&kwd=seed pillow&tags=||||8752.144|Price|product|||TS|rsf:gd-|-stype:attr=1|qr_nm:gd|res:RC3|com-cf:nl|ptrs:na|ktp:N0|mc:188815|mtp:S|qry_typ:P|lang:en|wc:2|cs:8894|v=4,Prem Chand Brothers,https://www.premchandbrothers.com/?pos=54&kwd=seed pillow&tags=||||8752.144|Price|product|||TS|rsf:gd-|-stype:attr=1|qr_nm:gd|res:RC3|com-cf:nl|ptrs:na|ktp:N0|mc:188815|mtp:S|qry_typ:P|lang:en|wc:2|cs:8894|v=4,False,Delhi Sadar Bazar,New Delhi,"No. 5733, Gandhi Market, Bara Gate Sadar Bazar, Delhi Sadar Bazar, New Delhi - 110006, Dist.Delhi, Delhi",8047631281,
Baby Rai Pillow Set,https://www.indiamart.com/proddetail/baby-rai-pillow-set-22836828562.html?pos=55&kwd=seed pillow&tags=||||8211.142|Price|product|||TS|rsf:gd-|-stype:attr=1|qr_nm:gd|res:RC3|com-cf:nl|ptrs:na|ktp:N0|mc:188815|mtp:S|qry_typ:P|lang:en|wc:2|cs:8894|v=4,Child King Creation,https://www.indiamart.com/childkingcreation-mumbai/?pos=55&kwd=seed pillow&tags=||||8211.142|Price|product|||TS|rsf:gd-|-stype:attr=1|qr_nm:gd|res:RC3|com-cf:nl|ptrs:na|ktp:N0|mc:188815|mtp:S|qry_typ:P|lang:en|wc:2|cs:8894|v=4,False,Malad West,Mumbai,"B 705, Seven Floor, Jagmagia Centre, Mamlatdar Wadi EXTN Road Nahar Nagar, Malad West, Suburban, Malad West, Mumbai - 400064, Dist.Mumbai, Maharashtra",8043805922,
"OEM More than 10 colours available Mini Yoga Bolster / Kids Cotton Yoga Bolster / Yoga Pillow, Shape: Round",https://www.indiamart.com/proddetail/mini-yoga-bolster-kids-cotton-yoga-bolster-yoga-pillow-11833791855.html?pos=56&kwd=seed pillow&tags=||||8706.263|Price|product|||TS|rsf:gd-|-stype:attr=1|qr_nm:gd|res:RC3|com-cf:nl|ptrs:na|ktp:N0|mc:188815|mtp:S|qry_typ:P|lang:en|wc:2|cs:8894|v=4,The Loyal Exports,https://www.yogaaccessories.co.in/?pos=56&kwd=seed pillow&tags=||||8706.263|Price|product|||TS|rsf:gd-|-stype:attr=1|qr_nm:gd|res:RC3|com-cf:nl|ptrs:na|ktp:N0|mc:188815|mtp:S|qry_typ:P|lang:en|wc:2|cs:8894|v=4,False,Ramkrishnapuram,Karur,"No. 12-A, Ramakrishnapuram, Ramkrishnapuram, Karur - 639001, Dist.Karur, Tamil Nadu",8048618331,
Red U Cotton Solid Baby Pillow,https://www.indiamart.com/proddetail/cotton-solid-baby-pillow-2854655453797.html?pos=57&kwd=seed pillow&tags=||||8769.508|Price|product|||MDC|rsf:gd-|-stype:attr=1|qr_nm:gd|res:RC3|com-cf:nl|ptrs:na|ktp:N0|mc:188815|mtp:S|qry_typ:P|lang:en|wc:2|cs:8894|v=4,9noc,https://www.indiamart.com/9noc/?pos=57&kwd=seed pillow&tags=||||8769.508|Price|product|||MDC|rsf:gd-|-stype:attr=1|qr_nm:gd|res:RC3|com-cf:nl|ptrs:na|ktp:N0|mc:188815|mtp:S|qry_typ:P|lang:en|wc:2|cs:8894|v=4,False,,Faridabad,"H No. - 1011, H.B.C Colony, Sector 21C, Faridabad - 121001, Dist.Faridabad, Haryana",7949329664,
"White Rectangular H-73 New Born Baby Sleeping Pillow Pillow, Packaging Type: Box",https://www.indiamart.com/proddetail/h-73-new-born-baby-sleeping-pillow-pillow-2849759818688.html?pos=58&kwd=seed pillow&tags=||||8778.123|Price|product|||TS|rsf:gd-|-stype:attr=1|qr_nm:gd|res:RC3|com-cf:nl|ptrs:na|ktp:N0|mc:188815|mtp:S|qry_typ:P|lang:en|wc:2|cs:8894|v=4,Forever Enterprises,https://www.forever-enterprise.com/?pos=58&kwd=seed pillow&tags=||||8778.123|Price|product|||TS|rsf:gd-|-stype:attr=1|qr_nm:gd|res:RC3|com-cf:nl|ptrs:na|ktp:N0|mc:188815|mtp:S|qry_typ:P|lang:en|wc:2|cs:8894|v=4,False,Bahlolpur,Noida,"Khasra no. 271&272, Bahlolpur, Noida Gali no -1, Bahlolpur, Noida - 201301, Dist.Gautam Budh Nagar, Uttar Pradesh",8048619388,
Dark Print Cotton Baby Mustard Seed Pillow,https://www.indiamart.com/proddetail/baby-mustard-seed-pillow-20587970555.html?pos=59&kwd=seed pillow&tags=CA||||8601.347||product|||NA|rsf:gd-|-stype:attr=1|qr_nm:gd|res:RC3|com-cf:nl|ptrs:na|ktp:N0|mc:188815|mtp:S|qry_typ:P|lang:en|wc:2|cs:8894|v=4,Gurukripa Dresses,https://www.indiamart.com/guru-kripa-dresses-jaipur/?pos=59&kwd=seed pillow&tags=CA||||8601.347||product|||NA|rsf:gd-|-stype:attr=1|qr_nm:gd|res:RC3|com-cf:nl|ptrs:na|ktp:N0|mc:188815|mtp:S|qry_typ:P|lang:en|wc:2|cs:8894|v=4,False,Sitapura,Jaipur,"185/51, Pratap Nagar, Sitapura, Jaipur - 302033, Dist.Jaipur, Rajasthan",8048207293,
Round sep Baby mustard pillow,https://www.indiamart.com/proddetail/baby-mustard-pillow-2853240969491.html?pos=60&kwd=seed pillow&tags=||||8752.144|Price|product|||TS|rsf:gd-|-stype:attr=1|qr_nm:gd|res:RC3|com-cf:nl|ptrs:na|ktp:N0|mc:188815|mtp:S|qry_typ:P|lang:en|wc:2|cs:8894|v=4,Bankey Bihari Enterprises,https://www.indiamart.com/bankey-bihari-enterprisesnewdelhi/?pos=60&kwd=seed pillow&tags=||||8752.144|Price|product|||TS|rsf:gd-|-stype:attr=1|qr_nm:gd|res:RC3|com-cf:nl|ptrs:na|ktp:N0|mc:188815|mtp:S|qry_typ:P|lang:en|wc:2|cs:8894|v=4,False,Jahangirpuri,New Delhi,"Plot No 51 First Floor Street No 11 Harijan Colony Village Bhalsva, Jahangirpuri, New Delhi - 110033, Dist.Delhi, Delhi",7942825166,
Printed Newborn Baby Mustard Seeds Pillow,https://www.indiamart.com/proddetail/newborn-baby-mustard-seeds-pillow-22563767555.html?pos=61&kwd=seed pillow&tags=CC||||8307.81|Price|product|||NA|rsf:gd-|-stype:attr=1|qr_nm:gd|res:RC3|com-cf:nl|ptrs:na|ktp:N0|mc:188815|mtp:S|qry_typ:P|lang:en|wc:2|cs:8894|v=4,Dream Collection,https://www.indiamart.com/dream-collection-pune/?pos=61&kwd=seed pillow&tags=CC||||8307.81|Price|product|||NA|rsf:gd-|-stype:attr=1|qr_nm:gd|res:RC3|com-cf:nl|ptrs:na|ktp:N0|mc:188815|mtp:S|qry_typ:P|lang:en|wc:2|cs:8894|v=4,False,Rahatani,Pune,"38 FL-A/202 ,, Garmala cly ,, Rahatani, Pune, Maharashtra, 411017 Garmala colony, Rahatani, Pune - 411017, Dist.Pune, Maharashtra",8046073893,
Pink Rectangular Seed Pillow,https://www.indiamart.com/proddetail/seed-pillow-2852493387262.html?pos=62&kwd=seed pillow&tags=CC||||8307.81|Price|product|||NA|rsf:gd-|-stype:attr=1|qr_nm:gd|res:RC3|com-cf:nl|ptrs:na|ktp:N0|mc:188815|mtp:S|qry_typ:P|lang:en|wc:2|cs:8894|v=4,Big B Toys And Games,https://www.indiamart.com/big-b-toys-games/?pos=62&kwd=seed pillow&tags=CC||||8307.81|Price|product|||NA|rsf:gd-|-stype:attr=1|qr_nm:gd|res:RC3|com-cf:nl|ptrs:na|ktp:N0|mc:188815|mtp:S|qry_typ:P|lang:en|wc:2|cs:8894|v=4,False,Ravet,Pune,"Shop No. 105, Krishna Heights, Dr. D. Y. Patil College Road, Ravet, Pune - 412101, Dist.Pune, Maharashtra",8048361389,659
Mustered Seed Pillow,,Navi Enterprises,https://www.indiamart.com/navi-enterprises-gurgaon/?pos=63&kwd=seed pillow&tags=CC||||8741.812|Price|product|||NA|rsf:gd-|-stype:attr=1|qr_nm:gd|res:RC3|com-cf:nl|ptrs:na|ktp:N0|mc:188815|mtp:S|qry_typ:P|lang:en|wc:2|cs:8894|v=4,False,Arjun Marg,Gurgaon,"E-11/17, DLF Phase 1, Arjun Marg, Gurgaon - 122002, Dist.Gurgaon, Haryana",8048371718,476
Baby Seed Pillow,https://www.indiamart.com/proddetail/baby-seed-pillow-2853589893312.html?pos=64&kwd=seed pillow&tags=CC||||8752.144|Price|product|||NA|rsf:gd-|-stype:attr=1|qr_nm:gd|res:RC3|com-cf:nl|ptrs:na|ktp:N0|mc:188815|mtp:S|qry_typ:P|lang:en|wc:2|cs:8894|v=4,Gautam Traders,https://www.indiamart.com/karmagroup-delhi/?pos=64&kwd=seed pillow&tags=CC||||8752.144|Price|product|||NA|rsf:gd-|-stype:attr=1|qr_nm:gd|res:RC3|com-cf:nl|ptrs:na|ktp:N0|mc:188815|mtp:S|qry_typ:P|lang:en|wc:2|cs:8894|v=4,False,Johripur,New Delhi,"Hno. 65,Gali No 3 Tunda Nagar, Johripur, New Delhi - 110094, Dist.Delhi, Delhi",8047837511,
Pink and red Baby Seed Pillow,https://www.indiamart.com/proddetail/baby-seed-pillow-22484513688.html?pos=65&kwd=seed pillow&tags=CC||||8601.347|Price|product|||NA|rsf:gd-|-stype:attr=1|qr_nm:gd|res:RC3|com-cf:nl|ptrs:na|ktp:N0|mc:188815|mtp:S|qry_typ:P|lang:en|wc:2|cs:8894|v=4,Lakshay Kid'S Collection,https://www.indiamart.com/lakshaykids-collection/?pos=65&kwd=seed pillow&tags=CC||||8601.347|Price|product|||NA|rsf:gd-|-stype:attr=1|qr_nm:gd|res:RC3|com-cf:nl|ptrs:na|ktp:N0|mc:188815|mtp:S|qry_typ:P|lang:en|wc:2|cs:8894|v=4,False,,Jaipur,"3/882, Malviya Nagar, Jaipur - 302017, Dist.Jaipur, Rajasthan",8048614670,
Multicolor Rectangular Baby Mustard Seed Pillow,https://www.indiamart.com/proddetail/baby-mustard-seed-pillow-23905784112.html?pos=66&kwd=seed pillow&tags=CB||||8769.508|Price|product|||NA|rsf:gd-|-stype:attr=1|qr_nm:gd|res:RC3|com-cf:nl|ptrs:na|ktp:N0|mc:188815|mtp:S|qry_typ:P|lang:en|wc:2|cs:8894|v=4,Ayaana Impex,https://www.indiamart.com/ayaana-impex/?pos=66&kwd=seed pillow&tags=CB||||8769.508|Price|product|||NA|rsf:gd-|-stype:attr=1|qr_nm:gd|res:RC3|com-cf:nl|ptrs:na|ktp:N0|mc:188815|mtp:S|qry_typ:P|lang:en|wc:2|cs:8894|v=4,False,New Industrial Town,Faridabad,"0 Faridabad, New Industrial Town, Faridabad - 121001, Dist.Faridabad, Haryana",8048372237,219
Blue Baby Mustard Seed Pillow,https://www.indiamart.com/proddetail/baby-mustard-seed-pillow-23650893197.html?pos=67&kwd=seed pillow&tags=CC||||8601.347|Price|product|||NA|rsf:gd-|-stype:attr=1|qr_nm:gd|res:RC3|com-cf:nl|ptrs:na|ktp:N0|mc:188815|mtp:S|qry_typ:P|lang:en|wc:2|cs:8894|v=4,Shri Krishna Polymers,https://www.indiamart.com/shrikrishna-polymers/?pos=67&kwd=seed pillow&tags=CC||||8601.347|Price|product|||NA|rsf:gd-|-stype:attr=1|qr_nm:gd|res:RC3|com-cf:nl|ptrs:na|ktp:N0|mc:188815|mtp:S|qry_typ:P|lang:en|wc:2|cs:8894|v=4,False,Adarsh Nagar,Jaipur,"PLOT NO-305,306, UNIT NO-303, SHREE GOPAL NAGAR,GOPALPURA BYPASS 774, Behind Minarva Talkies, Sanganeri Gate,302003,Jaipur, Adarsh Nagar, Jaipur - 302019, Dist.Jaipur, Rajasthan",8047630198,
Pink U Baby Rai Seed Pillow,https://www.indiamart.com/proddetail/baby-rai-seed-pillow-2854722897188.html?pos=68&kwd=seed pillow&tags=CC||||8228.275|Price|product|||NA|rsf:gd-|-stype:attr=1|qr_nm:gd|res:RC3|com-cf:nl|ptrs:na|ktp:N0|mc:188815|mtp:S|qry_typ:P|lang:en|wc:2|cs:8894|v=4,Shishu Apparels,https://www.indiamart.com/shishu-apparels/?pos=68&kwd=seed pillow&tags=CC||||8228.275|Price|product|||NA|rsf:gd-|-stype:attr=1|qr_nm:gd|res:RC3|com-cf:nl|ptrs:na|ktp:N0|mc:188815|mtp:S|qry_typ:P|lang:en|wc:2|cs:8894|v=4,False,,Ahmedabad,"62, Laxmi Vishnu Market, Gheekanta Road, Ghee Kanta, Ahmedabad - 380001, Dist.Ahmedabad, Gujarat",7949322683,
"Assorted Baby Rai ( Musterd Seed ) Pillow, Packaging Type: Plastic bag, Newborn to 12 month",https://www.indiamart.com/proddetail/baby-rai-musterd-seed-pillow-13510483412.html?pos=69&kwd=seed pillow&tags=CC||||8239.3955|Price|product|||NA|rsf:gd-|-stype:attr=1|qr_nm:gd|res:RC3|com-cf:nl|ptrs:na|ktp:N0|mc:188815|mtp:S|qry_typ:P|lang:en|wc:2|cs:8894|v=4,Tiny Toes,https://www.indiamart.com/tiny-toes/?pos=69&kwd=seed pillow&tags=CC||||8239.3955|Price|product|||NA|rsf:gd-|-stype:attr=1|qr_nm:gd|res:RC3|com-cf:nl|ptrs:na|ktp:N0|mc:188815|mtp:S|qry_typ:P|lang:en|wc:2|cs:8894|v=4,False,,Kalyan,"Shop No 4, Jai Sonali Building Dr. Ambedkar road, Kalyan - 421301, Dist.Thane, Maharashtra",8047699360,
Rectangular Mustard Seeds Pillow for New Born Baby,https://www.indiamart.com/proddetail/mustard-seeds-pillow-for-new-born-baby-23795290891.html?pos=70&kwd=seed pillow&tags=CB||||9839.57|Price|product|||NA|rsf:gd-|-stype:attr=1|qr_nm:gd|res:RC3|com-cf:nl|ptrs:na|ktp:N0|mc:188815|mtp:S|qry_typ:P|lang:en|wc:2|cs:8894|v=4,India Shoppers Hub,https://www.indiamart.com/india-shoppers-hub/?pos=70&kwd=seed pillow&tags=CB||||9839.57|Price|product|||NA|rsf:gd-|-stype:attr=1|qr_nm:gd|res:RC3|com-cf:nl|ptrs:na|ktp:N0|mc:188815|mtp:S|qry_typ:P|lang:en|wc:2|cs:8894|v=4,False,,Kolkata,"8, 6th Floor, Shantiniketan Building, Camac Street, Kolkata - 700017, Dist.Kolkata, West Bengal",8046042060,
Baby Pillow,https://www.indiamart.com/proddetail/baby-pillow-8510032955.html?pos=71&kwd=seed pillow&tags=CC||||8752.144||product|||NA|rsf:gd-|-stype:attr=1|qr_nm:gd|res:RC3|com-cf:nl|ptrs:na|ktp:N0|mc:188815|mtp:S|qry_typ:P|lang:en|wc:2|cs:8894|v=4,Divyanshi International,https://www.indiamart.com/tinypetals/?pos=71&kwd=seed pillow&tags=CC||||8752.144||product|||NA|rsf:gd-|-stype:attr=1|qr_nm:gd|res:RC3|com-cf:nl|ptrs:na|ktp:N0|mc:188815|mtp:S|qry_typ:P|lang:en|wc:2|cs:8894|v=4,False,,New Delhi,"FIRST FLOOR,D-114,,NEAR C BLOCK TEMPLE,WEST PATEL NAGAR,Delhi,110008, New Delhi - 110008, Dist.Delhi, Delhi",8047825955,
Rai Pillow,,Sachdeva Enterprises,https://www.indiamart.com/sachdeva-enterprise-new-delhi/?pos=72&kwd=seed pillow&tags=CC||||8752.144|Price|product|||NA|rsf:gd-|-stype:attr=1|qr_nm:gd|res:RC3|com-cf:nl|ptrs:na|ktp:N0|mc:188815|mtp:S|qry_typ:P|lang:en|wc:2|cs:8894|v=4,False,Hari Nagar,New Delhi,"J-19,,NDSE,Part-1, New Delhi Hari Nagar, West Delhi,110064,New Delhi, Hari Nagar, New Delhi - 110049, Dist.Delhi, Delhi",8048249713,9068
Standard Rai Pillow,https://www.indiamart.com/proddetail/rai-pillow-22420053212.html?pos=73&kwd=seed pillow&tags=CC||||8752.144||product|||NA|rsf:gd-|-stype:attr=1|qr_nm:gd|res:RC3|com-cf:nl|ptrs:na|ktp:N0|mc:188815|mtp:S|qry_typ:P|lang:en|wc:2|cs:8894|v=4,L.K. Child Care,https://www.indiamart.com/lkchildcare/?pos=73&kwd=seed pillow&tags=CC||||8752.144||product|||NA|rsf:gd-|-stype:attr=1|qr_nm:gd|res:RC3|com-cf:nl|ptrs:na|ktp:N0|mc:188815|mtp:S|qry_typ:P|lang:en|wc:2|cs:8894|v=4,False,Dilshad Garden,New Delhi,"G4/14,Sundar Nagri, Dilshad Garden, New Delhi - 110093, Dist.Delhi, Delhi",8069033741,713
Baby Pillow,https://www.indiamart.com/proddetail/baby-pillow-12646935712.html?pos=74&kwd=seed pillow&tags=CC||||8752.144|Price|product|||NA|rsf:gd-|-stype:attr=1|qr_nm:gd|res:RC3|com-cf:nl|ptrs:na|ktp:N0|mc:188815|mtp:S|qry_typ:P|lang:en|wc:2|cs:8894|v=4,Mittal Manufacturing Company,https://www.indiamart.com/mittalmanufacturingco/?pos=74&kwd=seed pillow&tags=CC||||8752.144|Price|product|||NA|rsf:gd-|-stype:attr=1|qr_nm:gd|res:RC3|com-cf:nl|ptrs:na|ktp:N0|mc:188815|mtp:S|qry_typ:P|lang:en|wc:2|cs:8894|v=4,False,Sadar Bazaar,New Delhi,"4273, IIIrd Floor, Gali Bahuji, Pahari Dhiraj, Sadar Bazaar, New Delhi - 110006, Dist.Delhi, Delhi",8048372748,189
Mustard Pillow,,Maruti Kids Zone,https://www.indiamart.com/maruti-kids-zone/?pos=75&kwd=seed pillow&tags=CC||||9839.57||product|||NA|rsf:gd-|-stype:attr=1|qr_nm:gd|res:RC3|com-cf:nl|ptrs:na|ktp:N0|mc:188815|mtp:S|qry_typ:P|lang:en|wc:2|cs:8894|v=4,False,Muktaram Babu Street,Kolkata,"No. 109, 1st Floor, Muktaram Babu Street, Kolkata - 700007, Dist.Kolkata, West Bengal",7949342709,
Baby Rai Pillow,https://www.indiamart.com/proddetail/baby-rai-pillow-2852757565048.html?pos=76&kwd=seed pillow&tags=CC||||8813.969|Price|product|||NA|rsf:gd-|-stype:attr=1|qr_nm:gd|res:RC3|com-cf:nl|ptrs:na|ktp:N0|mc:188815|mtp:S|qry_typ:P|lang:en|wc:2|cs:8894|v=4,Sidhartha Medical Store,https://www.indiamart.com/sidhartha-medical-store/?pos=76&kwd=seed pillow&tags=CC||||8813.969|Price|product|||NA|rsf:gd-|-stype:attr=1|qr_nm:gd|res:RC3|com-cf:nl|ptrs:na|ktp:N0|mc:188815|mtp:S|qry_typ:P|lang:en|wc:2|cs:8894|v=4,False,,Meerut,"Sidharth Medical Store Baghpat Road Agarwal Complex Opp Mangalam, Meerut - 250002, Dist.Meerut, Uttar Pradesh",8062270202,610
White U Baby Rai Pillow,https://www.indiamart.com/proddetail/baby-rai-pillow-2853995754562.html?pos=77&kwd=seed pillow&tags=CC||||8723.301|Price|product|||NA|rsf:gd-|-stype:attr=1|qr_nm:gd|res:RC3|com-cf:nl|ptrs:na|ktp:N0|mc:188815|mtp:S|qry_typ:P|lang:en|wc:2|cs:8894|v=4,Lotus Marketing,https://www.indiamart.com/lotusmarketing-bhopal/?pos=77&kwd=seed pillow&tags=CC||||8723.301|Price|product|||NA|rsf:gd-|-stype:attr=1|qr_nm:gd|res:RC3|com-cf:nl|ptrs:na|ktp:N0|mc:188815|mtp:S|qry_typ:P|lang:en|wc:2|cs:8894|v=4,False,Vardhman Green City,Bhopal,"Near Durga Chowk M No-274, Narela Shankery, Vardhman Green City, Bhopal - 462041, Dist.Bhopal, Madhya Pradesh",8044015628,
Baby Cotton Pillow Rai,,Rishav Handicrafts,https://www.indiamart.com/rishavhandicraft/?pos=78&kwd=seed pillow&tags=CC||||8752.144|Price|product|||NA|rsf:gd-|-stype:attr=1|qr_nm:gd|res:RC3|com-cf:nl|ptrs:na|ktp:N0|mc:188815|mtp:S|qry_typ:P|lang:en|wc:2|cs:8894|v=4,False,Karol Bagh,New Delhi,"No. 30/3232, Beadon Pura, Karol Bagh Saraswati Marg, Karol Bagh, New Delhi - 110005, Dist.Delhi, Delhi",8047669026,
Abracadabra Head Shaping Mustard Seed Rai Pillow With Lavender Essentail Oil - Vintage Floral,https://www.indiamart.com/proddetail/abracadabra-head-shaping-mustard-seed-rai-pillow-with-lavender-essentail-oil-vintage-floral-2853589930088.html?pos=79&kwd=seed pillow&tags=CC||||8752.144|Price|product|||NA|rsf:gd-|-stype:attr=1|qr_nm:gd|res:RC3|com-cf:nl|ptrs:na|ktp:N0|mc:188815|mtp:S|qry_typ:P|lang:en|wc:2|cs:8894|v=4,BD Impex,https://www.indiamart.com/company/2395482/?pos=79&kwd=seed pillow&tags=CC||||8752.144|Price|product|||NA|rsf:gd-|-stype:attr=1|qr_nm:gd|res:RC3|com-cf:nl|ptrs:na|ktp:N0|mc:188815|mtp:S|qry_typ:P|lang:en|wc:2|cs:8894|v=4,False,,New Delhi,"The Moms Darling - Baby Shop 163, Kapil Vihar, Pitampura, New Delhi - 110034, Dist.Delhi, Delhi",,
Baby Mustard Seeds Pillow,https://www.indiamart.com/proddetail/baby-mustard-seeds-pillow-2854311777030.html?pos=80&kwd=seed pillow&tags=CC||||8860.933|Price|product|||NA|rsf:gd-|-stype:attr=1|qr_nm:gd|res:RC3|com-cf:nl|ptrs:na|ktp:N0|mc:188815|mtp:S|qry_typ:P|lang:en|wc:2|cs:8894|v=4,Gaurav Familywear,https://www.indiamart.com/gaurav-family-wear/?pos=80&kwd=seed pillow&tags=CC||||8860.933|Price|product|||NA|rsf:gd-|-stype:attr=1|qr_nm:gd|res:RC3|com-cf:nl|ptrs:na|ktp:N0|mc:188815|mtp:S|qry_typ:P|lang:en|wc:2|cs:8894|v=4,False,Prem Nagar,Dehradun,"65 Tyagi Market Premnagar, Prem Nagar, Dehradun - 248007, Dist.Dehradun, Uttarakhand",8048370107,6345
Square Baby Rai /Raggi Pillow,https://www.indiamart.com/proddetail/baby-rai-raggi-pillow-24547220930.html?pos=81&kwd=seed pillow&tags=CC||||8663.873|Price|product|||NA|rsf:gd-|-stype:attr=1|qr_nm:gd|res:RC3|com-cf:nl|ptrs:na|ktp:N0|mc:188815|mtp:S|qry_typ:P|lang:en|wc:2|cs:8894|v=4,N N Enterprises,https://www.indiamart.com/nn-enterprises-bengaluru/?pos=81&kwd=seed pillow&tags=CC||||8663.873|Price|product|||NA|rsf:gd-|-stype:attr=1|qr_nm:gd|res:RC3|com-cf:nl|ptrs:na|ktp:N0|mc:188815|mtp:S|qry_typ:P|lang:en|wc:2|cs:8894|v=4,False,Vidyaranyapura Post,Bengaluru,"NO.475,,RAJEEV GANDHI NAGAR,NTI LAYOUT,1ST PHASE,KODIGEHALLI,BANGALORE Plot No No. 42, 43, 13th Cross, Sir M V Layout, Kodigehalli,560097,Bengaluru, Vidyaranyapura Post, Bengaluru - 560092, Dist.Bengaluru, Karnataka",7942615645,
Classic Pillow with Rai (Pack Of 3),https://www.indiamart.com/proddetail/classic-pillow-with-rai-pack-of-3-23509309930.html?pos=82&kwd=seed pillow&tags=CC||||8984.809|Price|product|||NA|rsf:gd-|-stype:attr=1|qr_nm:gd|res:RC3|com-cf:nl|ptrs:na|ktp:N0|mc:188815|mtp:S|qry_typ:P|lang:en|wc:2|cs:8894|v=4,Ujjwal Creation,https://www.indiamart.com/ujjwal-creation/?pos=82&kwd=seed pillow&tags=CC||||8984.809|Price|product|||NA|rsf:gd-|-stype:attr=1|qr_nm:gd|res:RC3|com-cf:nl|ptrs:na|ktp:N0|mc:188815|mtp:S|qry_typ:P|lang:en|wc:2|cs:8894|v=4,False,GD complex,Jabalpur,"7 2897 Madhatal G D Complex Teen Patti Chowk, GD complex, Jabalpur - 482002, Dist.Jabalpur, Madhya Pradesh",8048361367,116
"Apple Cotton, Mustard Seeds Fruits Baby Pillow Pack Of 1 (Multicolor)",https://www.indiamart.com/proddetail/cotton-mustard-seeds-fruits-baby-pillow-pack-of-1-multicolor-24329686591.html?pos=83&kwd=seed pillow&tags=CC||||8785.791|Price|product|||NA|rsf:gd-|-stype:attr=1|qr_nm:gd|res:RC3|com-cf:nl|ptrs:na|ktp:N0|mc:188815|mtp:S|qry_typ:P|lang:en|wc:2|cs:8894|v=4,Aurapuro,https://www.indiamart.com/sanctify-planet-private-limited/?pos=83&kwd=seed pillow&tags=CC||||8785.791|Price|product|||NA|rsf:gd-|-stype:attr=1|qr_nm:gd|res:RC3|com-cf:nl|ptrs:na|ktp:N0|mc:188815|mtp:S|qry_typ:P|lang:en|wc:2|cs:8894|v=4,False,Nehru Nagar,Ghaziabad,"100 3rd A Nehru Nagar Division, Nehru Nagar, Ghaziabad - 201001, Dist.Ghaziabad, Uttar Pradesh",8048249735,4291
Rectangular Mustard Seeds Pillow for New Born Baby,https://www.indiamart.com/proddetail/mustard-seeds-pillow-for-new-born-baby-23795290891.html?pos=84&kwd=seed pillow&tags=CB||||9839.57|Price|product|||NA|rsf:gd-|-stype:attr=1|qr_nm:gd|res:RC3|com-cf:nl|ptrs:na|ktp:N0|mc:188815|mtp:S|qry_typ:P|lang:en|wc:2|cs:8894|v=4,India Shoppers Hub,https://www.indiamart.com/india-shoppers-hub/?pos=84&kwd=seed pillow&tags=CB||||9839.57|Price|product|||NA|rsf:gd-|-stype:attr=1|qr_nm:gd|res:RC3|com-cf:nl|ptrs:na|ktp:N0|mc:188815|mtp:S|qry_typ:P|lang:en|wc:2|cs:8894|v=4,False,,Kolkata,"8, 6th Floor, Shantiniketan Building, Camac Street, Kolkata - 700017, Dist.Kolkata, West Bengal",8046042060,
"Pink Rectangular Baby Pillow, Packaging Type: Box, 3-12 Months",https://www.indiamart.com/proddetail/baby-pillow-2851967273991.html?pos=85&kwd=seed pillow&tags=CC||||8747.203|Price|product|||NA|rsf:gd-|-stype:attr=1|qr_nm:gd|res:RC3|com-cf:nl|ptrs:na|ktp:N0|mc:188815|mtp:S|qry_typ:P|lang:en|wc:2|cs:8894|v=4,Mohit industries,https://www.indiamart.com/mohit-inds-panipat/?pos=85&kwd=seed pillow&tags=CC||||8747.203|Price|product|||NA|rsf:gd-|-stype:attr=1|qr_nm:gd|res:RC3|com-cf:nl|ptrs:na|ktp:N0|mc:188815|mtp:S|qry_typ:P|lang:en|wc:2|cs:8894|v=4,False,Old Housing Board Colony,Panipat,"495/7, Vardaan Complex, Near Bhai Narayan Singh Gurudwara, Old Housing Board Colony, Panipat - 132103, Dist.Panipat, Haryana",8048249717,7831
Mix Apple shape Chhote Janab Baby Pillow,https://www.indiamart.com/proddetail/chhote-janab-baby-pillow-19499739491.html?pos=86&kwd=seed pillow&tags=||||8752.144|Price|proxy|||TS|rsf:gd-|-stype:attr=1|qr_nm:gd|res:RC3|com-cf:nl|ptrs:na|ktp:N0|mc:188815|mtp:S|qry_typ:P|lang:en|wc:2|cs:8894|v=4,Shree Balaji Infant Wear,https://www.indiamart.com/chhotejanab/?pos=86&kwd=seed pillow&tags=||||8752.144|Price|proxy|||TS|rsf:gd-|-stype:attr=1|qr_nm:gd|res:RC3|com-cf:nl|ptrs:na|ktp:N0|mc:188815|mtp:S|qry_typ:P|lang:en|wc:2|cs:8894|v=4,False,Pahari Dhiraj,New Delhi,"1583- 84, Hathi Khana, Aziz Ganj, Bahadur Garh Road, Pahari Dhiraj, New Delhi - 110006, Dist.Delhi, Delhi",8047639754,
AOP Mustard Seed Pillow Cover,https://www.indiamart.com/proddetail/aop-mustard-seed-pillow-cover-5366679073.html?pos=87&kwd=seed pillow&tags=||||8778.123||product|||NA|rsf:gd-|-stype:attr=1|qr_nm:gd|res:RC3|com-cf:nl|ptrs:na|ktp:N0|mc:188815|mtp:S|qry_typ:P|lang:en|wc:2|cs:8894|v=4,Net Paradigm India Private Limited,https://www.indiamart.com/organicandmore-in-63428/?pos=87&kwd=seed pillow&tags=||||8778.123||product|||NA|rsf:gd-|-stype:attr=1|qr_nm:gd|res:RC3|com-cf:nl|ptrs:na|ktp:N0|mc:188815|mtp:S|qry_typ:P|lang:en|wc:2|cs:8894|v=4,False,Sector 63,Noida,"D-129, Sector 63, Noida - 201301, Dist.Gautam Budh Nagar, Uttar Pradesh",8048371958,106
Rai Pillow For New Born Baby Soft Cotton Fabric With Mustere Seeds 0-12 Months,https://www.indiamart.com/proddetail/rai-pillow-for-new-born-baby-soft-cotton-fabric-with-mustere-seeds-0-12-months-15334063797.html?pos=88&kwd=seed pillow&tags=||||8647.052|Price|product|||NA|rsf:gd-|-stype:attr=1|qr_nm:gd|res:RC3|com-cf:nl|ptrs:na|ktp:N0|mc:188815|mtp:S|qry_typ:P|lang:en|wc:2|cs:8894|v=4,Guru Kripa Shop,https://www.indiamart.com/guru-kripa-shop/?pos=88&kwd=seed pillow&tags=||||8647.052|Price|product|||NA|rsf:gd-|-stype:attr=1|qr_nm:gd|res:RC3|com-cf:nl|ptrs:na|ktp:N0|mc:188815|mtp:S|qry_typ:P|lang:en|wc:2|cs:8894|v=4,False,,Hansi,"Dara Bazar, Hansi - 125033, Dist.Hisar, Haryana",8048372103,287
Head Shaping Pillow For New Born,https://www.indiamart.com/proddetail/head-shaping-pillow-for-new-born-24495587130.html?pos=94&kwd=seed pillow&tags=||||8752.144|Price|product|||NA|rsf:gd-|-stype:attr=1|qr_nm:gd|res:RC3|com-cf:nl|ptrs:na|ktp:N0|mc:188815|mtp:S|qry_typ:P|lang:en|wc:2|cs:8894|v=4,Saaq,https://www.indiamart.com/saaq/?pos=94&kwd=seed pillow&tags=||||8752.144|Price|product|||NA|rsf:gd-|-stype:attr=1|qr_nm:gd|res:RC3|com-cf:nl|ptrs:na|ktp:N0|mc:188815|mtp:S|qry_typ:P|lang:en|wc:2|cs:8894|v=4,False,Durga Park,New Delhi,"Rz-273/1 Durga Park, Palam Colony, Nasirpur Street No-03 Street no.-03, Durga Park, New Delhi - 110045, Dist.Delhi, Delhi",8048249721,9369
Baby Head Protector Pillow,https://www.indiamart.com/proddetail/baby-head-protector-pillow-2849780137897.html?pos=90&kwd=seed pillow&tags=||||8211.142|Price|product|||NA|rsf:gd-|-stype:attr=1|qr_nm:gd|res:RC3|com-cf:nl|ptrs:na|ktp:N0|mc:188815|mtp:S|qry_typ:P|lang:en|wc:2|cs:8894|v=4,Keval Enterprises,https://www.indiamart.com/keval-enterprises-mumbai/?pos=90&kwd=seed pillow&tags=||||8211.142|Price|product|||NA|rsf:gd-|-stype:attr=1|qr_nm:gd|res:RC3|com-cf:nl|ptrs:na|ktp:N0|mc:188815|mtp:S|qry_typ:P|lang:en|wc:2|cs:8894|v=4,False,Dadar West,Mumbai,"Shop No. 20, Madhani Industrial Estate Senapati Bapat Marg, Dadar West, Mumbai - 400028, Dist.Mumbai, Maharashtra",8048951266,
Mustard Seed Pillow For Newborn Babies,https://www.indiamart.com/proddetail/mustard-seed-pillow-for-newborn-babies-2851123617362.html?pos=91&kwd=seed pillow&tags=||||8752.144|Price|product|||NA|rsf:gd-|-stype:attr=1|qr_nm:gd|res:RC3|com-cf:nl|ptrs:na|ktp:N0|mc:188815|mtp:S|qry_typ:P|lang:en|wc:2|cs:8894|v=4,S.P. Enterprises,https://www.indiamart.com/spenterprisesdelhiindia/?pos=91&kwd=seed pillow&tags=||||8752.144|Price|product|||NA|rsf:gd-|-stype:attr=1|qr_nm:gd|res:RC3|com-cf:nl|ptrs:na|ktp:N0|mc:188815|mtp:S|qry_typ:P|lang:en|wc:2|cs:8894|v=4,False,Samaypur,New Delhi,"Khasra No 6/25, Ground Floor, Gali No-14 Block - J, North Delhi, Samaypur, New Delhi - 110042, Dist.Delhi, Delhi",7942833187,
Dark Print Cotton Baby Mustard Seed Pillow,https://www.indiamart.com/proddetail/baby-mustard-seed-pillow-20587970555.html?pos=92&kwd=seed pillow&tags=||||8601.347||product|||NA|rsf:gd-|-stype:attr=1|qr_nm:gd|res:RC3|com-cf:nl|ptrs:na|ktp:N0|mc:188815|mtp:S|qry_typ:P|lang:en|wc:2|cs:8894|v=4,Gurukripa Dresses,https://www.indiamart.com/guru-kripa-dresses-jaipur/?pos=92&kwd=seed pillow&tags=||||8601.347||product|||NA|rsf:gd-|-stype:attr=1|qr_nm:gd|res:RC3|com-cf:nl|ptrs:na|ktp:N0|mc:188815|mtp:S|qry_typ:P|lang:en|wc:2|cs:8894|v=4,False,Sitapura,Jaipur,"185/51, Pratap Nagar, Sitapura, Jaipur - 302033, Dist.Jaipur, Rajasthan",8048207293,
Valvet Soft Baby Neck Pillow,https://www.indiamart.com/proddetail/baby-neck-pillow-26896305755.html?pos=93&kwd=seed pillow&tags=||||9045.955|Price|product|||NA|rsf:gd-|-stype:attr=1|qr_nm:gd|res:RC3|com-cf:nl|ptrs:na|ktp:N0|mc:188815|mtp:S|qry_typ:P|lang:en|wc:2|cs:8894|v=4,Shweta Home Textile,https://www.indiamart.com/shweta-enterprises-kanpur/?pos=93&kwd=seed pillow&tags=||||9045.955|Price|product|||NA|rsf:gd-|-stype:attr=1|qr_nm:gd|res:RC3|com-cf:nl|ptrs:na|ktp:N0|mc:188815|mtp:S|qry_typ:P|lang:en|wc:2|cs:8894|v=4,False,KDA,Kanpur,"383 K-9( B) Pardevanpur Lal Bangla, KDA, Kanpur - 208007, Uttar Pradesh",8047311014,8607
Head Shaping Pillow For New Born,https://www.indiamart.com/proddetail/head-shaping-pillow-for-new-born-24495587130.html?pos=94&kwd=seed pillow&tags=||||8752.144|Price|product|||NA|rsf:gd-|-stype:attr=1|qr_nm:gd|res:RC3|com-cf:nl|ptrs:na|ktp:N0|mc:188815|mtp:S|qry_typ:P|lang:en|wc:2|cs:8894|v=4,Saaq,https://www.indiamart.com/saaq/?pos=94&kwd=seed pillow&tags=||||8752.144|Price|product|||NA|rsf:gd-|-stype:attr=1|qr_nm:gd|res:RC3|com-cf:nl|ptrs:na|ktp:N0|mc:188815|mtp:S|qry_typ:P|lang:en|wc:2|cs:8894|v=4,False,Durga Park,New Delhi,"Rz-273/1 Durga Park, Palam Colony, Nasirpur Street No-03 Street no.-03, Durga Park, New Delhi - 110045, Dist.Delhi, Delhi",8048249721,9369
Cotton Yoga Eye Pillow,https://www.indiamart.com/proddetail/cotton-yoga-eye-pillow-19507099373.html?pos=95&kwd=seed pillow&tags=||||8211.142|Price|product|||NA|rsf:gd-|-stype:attr=1|qr_nm:gd|res:RC3|com-cf:nl|ptrs:na|ktp:N0|mc:188815|mtp:S|qry_typ:P|lang:en|wc:2|cs:8894|v=4,Pure Joy Aromatique,https://www.indiamart.com/pure-joy-aromatique/?pos=95&kwd=seed pillow&tags=||||8211.142|Price|product|||NA|rsf:gd-|-stype:attr=1|qr_nm:gd|res:RC3|com-cf:nl|ptrs:na|ktp:N0|mc:188815|mtp:S|qry_typ:P|lang:en|wc:2|cs:8894|v=4,False,Kandivali East,Mumbai,"Shop No.10, Shiv Surbhi Building, Thakur Village, Kandivali East, Mumbai - 400101, Dist.Mumbai, Maharashtra",8047811094,
ORENDAINDIA BEIGE Round Bolster-Cork,https://www.indiamart.com/proddetail/round-bolster-cork-22534029955.html?pos=96&kwd=seed pillow&tags=||||8752.144||product|||NA|rsf:gd-|-stype:attr=1|qr_nm:gd|res:RC3|com-cf:nl|ptrs:na|ktp:N0|mc:188815|mtp:S|qry_typ:P|lang:en|wc:2|cs:8894|v=4,Orenda,https://www.indiamart.com/orenda-newdelhi/?pos=96&kwd=seed pillow&tags=||||8752.144||product|||NA|rsf:gd-|-stype:attr=1|qr_nm:gd|res:RC3|com-cf:nl|ptrs:na|ktp:N0|mc:188815|mtp:S|qry_typ:P|lang:en|wc:2|cs:8894|v=4,False,Palam Colony,New Delhi,"Wz 93, Street No. 14 A/6, Sadh Nagar RZ- 45/B, Old Mehrauli Road, Raj Nagar I, Palam Colony, Palam Colony, New Delhi - 110045, Dist.Delhi, Delhi",7949084822,
"Black(Base) Kapok Cotton Pillow, For Home, Shape: Rectangular",https://www.indiamart.com/proddetail/kapok-cotton-pillow-2852634869255.html?pos=97&kwd=seed pillow&tags=||||8635.5205|Price|product|||NA|rsf:gd-|-stype:attr=1|qr_nm:gd|res:RC3|com-cf:nl|ptrs:na|ktp:N0|mc:188815|mtp:S|qry_typ:P|lang:en|wc:2|cs:8894|v=4,V S N Silk Cotton,https://www.indiamart.com/vsn-silk-cotton/?pos=97&kwd=seed pillow&tags=||||8635.5205|Price|product|||NA|rsf:gd-|-stype:attr=1|qr_nm:gd|res:RC3|com-cf:nl|ptrs:na|ktp:N0|mc:188815|mtp:S|qry_typ:P|lang:en|wc:2|cs:8894|v=4,False,,Theni,"No.69A, Ottanai Main Road, Singarajapuram, Varusanadu, Theni - 625579, Dist.Theni, Tamil Nadu",8043837823,
Designer Pillows,https://www.indiamart.com/proddetail/designer-pillows-1739512255.html?pos=98&kwd=seed pillow&tags=||||8663.873||product|||NA|rsf:gd-|-stype:attr=1|qr_nm:gd|res:RC3|com-cf:nl|ptrs:na|ktp:N0|mc:188815|mtp:S|qry_typ:P|lang:en|wc:2|cs:8894|v=4,Innovative Sleep Systems Private Limited,https://www.indiamart.com/innovativesleepsystemsprivatelimited/?pos=98&kwd=seed pillow&tags=||||8663.873||product|||NA|rsf:gd-|-stype:attr=1|qr_nm:gd|res:RC3|com-cf:nl|ptrs:na|ktp:N0|mc:188815|mtp:S|qry_typ:P|lang:en|wc:2|cs:8894|v=4,False,,Bengaluru,"No. 23, Banaswadi Main Road, Bengaluru - 560039, Dist.Bengaluru, Karnataka",8062245062,255
Rai pillow,,Mahi Hosiery,https://www.indiamart.com/mahi-hosierydelhi/?pos=99&kwd=seed pillow&tags=CC||||8752.144|Price|product|||MDC|rsf:gd-|-stype:attr=1|qr_nm:gd|res:RC3|com-cf:nl|ptrs:na|ktp:N0|mc:188815|mtp:S|qry_typ:P|lang:en|wc:2|cs:8894|v=4,False,Shastri Nagar,New Delhi,"144, Second Floor, Gali No-5, New Main Road, New Lahore Colony, Shastri Nagar, Shastri Nagar, New Delhi - 110031, Dist.Delhi, Delhi",8047699176,
Mustard Seed Pillow,,Mumkins,https://www.indiamart.com/mumkins/?pos=100&kwd=seed pillow&tags=CC||||8228.275||product|||NA|rsf:gd-|-stype:attr=1|qr_nm:gd|res:RC3|com-cf:nl|ptrs:na|ktp:N0|mc:188815|mtp:S|qry_typ:P|lang:en|wc:2|cs:8894|v=4,False,,Ahmedabad,"Ground Floor/ First Floor Shop No. 03 C.g. Road, Opposite Girish Cold Drinks Prabhu Kripa Complex, Ahmedabad - 380054, Dist.Ahmedabad, Gujarat",8047308800,2690
Mustard Seed Pillow For Newborn Babies,,Nanhi Duniya,https://www.indiamart.com/nanhiduniya/?pos=101&kwd=seed pillow&tags=CC||||8810.737|Price|product|||NA|rsf:gd-|-stype:attr=1|qr_nm:gd|res:RC3|com-cf:nl|ptrs:na|ktp:N0|mc:188815|mtp:S|qry_typ:P|lang:en|wc:2|cs:8894|v=4,False,Nawabganj,Saharanpur,"5/343, Mohalla Mishran Khalapar, Near Dwarikadeesh Mandir, Nawabganj, Saharanpur - 247001, Dist.Saharanpur, Uttar Pradesh",7942544938,
Baby Mustard Seed Pillow.,,Maayer India,https://www.indiamart.com/maayer-india/?pos=102&kwd=seed pillow&tags=CC||||8211.142||product|||NA|rsf:gd-|-stype:attr=1|qr_nm:gd|res:RC3|com-cf:nl|ptrs:na|ktp:N0|mc:188815|mtp:S|qry_typ:P|lang:en|wc:2|cs:8894|v=4,False,,Mumbai,"Ground Floor Shop No. 2 Sasmira Marg, Worli Bus Depost, Mumbai - 400030, Dist.Mumbai, Maharashtra",8047309006,5146
Rai Pillow,,Gitanjali Traders,https://www.indiamart.com/eitabafa-enterprises/?pos=103&kwd=seed pillow&tags=CC||||9572.14||product|||NA|rsf:gd-|-stype:attr=1|qr_nm:gd|res:RC3|com-cf:nl|ptrs:na|ktp:N0|mc:188815|mtp:S|qry_typ:P|lang:en|wc:2|cs:8894|v=4,False,,Bhubaneswar,"Plot No.677/6335/7736 Canal Road Patitapawan Nagar, Bhubaneswar - 751018, Dist.Khorda, Odisha",8069416076,542
Pillow Pl,,Shri Geeta Gorakhpur Handloom And Vastralaya,https://www.indiamart.com/shree-geeta-gorakhpur-handloom-and-vastralaya/?pos=104&kwd=seed pillow&tags=CC||||9045.955||product|||NA|rsf:gd-|-stype:attr=1|qr_nm:gd|res:RC3|com-cf:nl|ptrs:na|ktp:N0|mc:188815|mtp:S|qry_typ:P|lang:en|wc:2|cs:8894|v=4,False,,Kanpur,"Ho No 136 Satbari Road New Azad Nagar Kanpur Nagar, Kanpur - 208011, Uttar Pradesh",8069033784,743
Baby Pillow,,Goodluck Kids World,https://www.indiamart.com/goodluck-kids-world/?pos=105&kwd=seed pillow&tags=CC||||8876.815||product|||NA|rsf:gd-|-stype:attr=1|qr_nm:gd|res:RC3|com-cf:nl|ptrs:na|ktp:N0|mc:188815|mtp:S|qry_typ:P|lang:en|wc:2|cs:8894|v=4,False,,Nagpur,"HOUSE NO 71, ITWARI, Parwarpura, Nagpur, Nagpur, Maharashtra, 440002, Nagpur - 440002, Dist.Nagpur, Maharashtra",8048249724,2218
Baby Rai Pillow,,Baby Planet,https://www.indiamart.com/baby-planet-vasai/?pos=106&kwd=seed pillow&tags=CC||||8210.732||product|||NA|rsf:gd-|-stype:attr=1|qr_nm:gd|res:RC3|com-cf:nl|ptrs:na|ktp:N0|mc:188815|mtp:S|qry_typ:P|lang:en|wc:2|cs:8894|v=4,False,Vasai East,Vasai,"Shop No.1, Hillary Appartment. Janakpuri Complex, Navghar Road, Vasai East., Vasai East, Vasai - 401210, Dist.Thane, Maharashtra",8048372328,186
Baby Rai Pillow,,Manvi Aggarwal,https://www.indiamart.com/manvi-aggarwal/?pos=107&kwd=seed pillow&tags=CC||||8752.144||product|||NA|rsf:gd-|-stype:attr=1|qr_nm:gd|res:RC3|com-cf:nl|ptrs:na|ktp:N0|mc:188815|mtp:S|qry_typ:P|lang:en|wc:2|cs:8894|v=4,False,,New Delhi,"S-52,Ground Floor,South Anarkali,Som Bazar,Krishna Nagar,New East, New Delhi - 110051, Dist.Delhi, Delhi",8047308882,5833
650 Rai Pillow,,Sapphire,https://www.indiamart.com/sapphire-41906781/?pos=108&kwd=seed pillow&tags=CC||||8211.142||product|||NA|rsf:gd-|-stype:attr=1|qr_nm:gd|res:RC3|com-cf:nl|ptrs:na|ktp:N0|mc:188815|mtp:S|qry_typ:P|lang:en|wc:2|cs:8894|v=4,False,Andheri West,Mumbai,"Unit No. 229, Universal Industrial Estate, J. P. Road, Andheri West, Andheri West, Mumbai - 400053, Dist.Mumbai, Maharashtra",8062245103,624
Baby Rai Pillow,,Shri Impex,https://www.indiamart.com/shriimpex-delhi/?pos=109&kwd=seed pillow&tags=CC||||8752.144||product|||NA|rsf:gd-|-stype:attr=1|qr_nm:gd|res:RC3|com-cf:nl|ptrs:na|ktp:N0|mc:188815|mtp:S|qry_typ:P|lang:en|wc:2|cs:8894|v=4,False,Pitampura,New Delhi,"469 SAINIK VIHAR PITAMPURA, Pitampura, New Delhi - 110006, Dist.Delhi, Delhi",8048371525,340
Baby Mustard Seeds Pillow,,Jolly Joy,https://www.indiamart.com/jollyjoy-mumbai/?pos=110&kwd=seed pillow&tags=CC||||8211.142|Price|product|||NA|rsf:gd-|-stype:attr=1|qr_nm:gd|res:RC3|com-cf:nl|ptrs:na|ktp:N0|mc:188815|mtp:S|qry_typ:P|lang:en|wc:2|cs:8894|v=4,False,,Mumbai,"B Wing Shop No 22 Podar Road Laxminarayan Shopping Centre, Mumbai - 400097, Dist.Mumbai, Maharashtra",8048249844,113
Baby Rai Pillow -150/-,,Anita Store,https://www.indiamart.com/anita-store/?pos=111&kwd=seed pillow&tags=CC||||9644.414||product|||NA|rsf:gd-|-stype:attr=1|qr_nm:gd|res:RC3|com-cf:nl|ptrs:na|ktp:N0|mc:188815|mtp:S|qry_typ:P|lang:en|wc:2|cs:8894|v=4,False,Damodarpur,Dhanbad,"C/O- SURESH CHANDRA SAHU,PURANA BAZAR, DARI MOHALLA, DAV SCHOOL ROAD,DHANBAD S/o Suresh Chandra Sahu, C/o Tambul Bhandar Dari Mohalla, Purana Bazar, D.A.V. School Road,,Dhanbad, Damodarpur, Dhanbad - 826001, Dist.Dhanbad, Jharkhand",8048372133,758
Mustard Seeds Toons & Characters Baby Pillow,,Aditya Kids Wear,https://www.indiamart.com/aditya-kids-wear/?pos=112&kwd=seed pillow&tags=CC||||8785.791||product|||NA|rsf:gd-|-stype:attr=1|qr_nm:gd|res:RC3|com-cf:nl|ptrs:na|ktp:N0|mc:188815|mtp:S|qry_typ:P|lang:en|wc:2|cs:8894|v=4,False,,Ghaziabad,"C-322,VIKAS KUNJ,GALI NO-5,Loni 201102, Ghaziabad - 201102, Dist.Ghaziabad, Uttar Pradesh",8047311026,4337
"ABCD Organic Baby Rai Pillow & Bolster, White",,Lil Thugs LLP,https://www.indiamart.com/lil-thugs/?pos=113&kwd=seed pillow&tags=CC||||8307.81||product|||NA|rsf:gd-|-stype:graph-attr=1|qr_nm:gd|res:RC3|com-cf:nl|ptrs:na|ktp:N0|mc:188815|mtp:S|qry_typ:P|lang:en|wc:2|cs:9469|v=4,False,,Pune,"Pl 20,Sn 129/130,Anandpark Parishram Bunglow Aundh,Pune,Pune, Pune - 411007, Dist.Pune, Maharashtra",8047309009,6195
mustard Rai Dana Butti Fabric,,Rudra Fabrics,https://www.indiamart.com/rudra-fabrics-surat/?pos=114&kwd=seed pillow&tags=CC||||8230.883|Price|product|||NA|rsf:gd-|-stype:graph-attr=1|qr_nm:gd|res:RC3|com-cf:nl|ptrs:na|ktp:N0|mc:188815|mtp:S|qry_typ:P|lang:en|wc:2|cs:9469|v=4,False,,Surat,"Plot No 17 Kamrej Sukhram Textile Park Surat Surat, Surat - 394185, Dist.Surat, Gujarat",8048250254,402
Zeel Rai Wear,,Saiyed Bapu Patangwala,https://www.indiamart.com/saiyed-bapu-patangwala/?pos=115&kwd=seed pillow&tags=CC||||8281.036||product|||NA|rsf:gd-|-stype:graph-attr=1|qr_nm:gd|res:RC3|com-cf:nl|ptrs:na|ktp:N0|mc:188815|mtp:S|qry_typ:P|lang:en|wc:2|cs:9469|v=4,False,,Vadodara,"Masum Chamber C-304, Mogalwada Khangal Mohalla, Vadodara - 390017, Dist.Vadodara, Gujarat",8047784050,
Dot Rai Pillow,,Aarav Creation,https://www.indiamart.com/aaravcreation-delhi/?pos=116&kwd=seed pillow&tags=CC||||8752.144|Price|product|||NA|rsf:gd-|-stype:graph-attr=1|qr_nm:gd|res:RC3|com-cf:nl|ptrs:na|ktp:N0|mc:188815|mtp:S|qry_typ:P|lang:en|wc:2|cs:9469|v=4,False,Saboli,Delhi,"Main Road, East Gokulpur, Meet Nagar, Saboli, Delhi, Dist.Delhi, Delhi",8048361390,830
Shasta Daisy Vintage Seed Packet Pillows,,Raj Photo Studio,https://www.indiamart.com/rajphoto-studio/?pos=117&kwd=seed pillow&tags=||||8440.902||product|||NA|rsf:gd-|-stype:graph-attr=1|qr_nm:gd|res:RC3|com-cf:nl|ptrs:na|ktp:N0|mc:188815|mtp:S|qry_typ:P|lang:en|wc:2|cs:9469|v=4,False,Tilak Marg,Kukshi,"Shop No. 107, Tilak Marg, Tilak Marg, Kukshi - 454331, Dist.Dhar, Madhya Pradesh",8048247126,5753
"Bed Set Includes 2 Bolsters, 1 Mustard Seed Pillow And 1 Ac Blanket",,Sunday,https://www.indiamart.com/sunday/?pos=118&kwd=seed pillow&tags=||||8601.347||product|||NA|rsf:gd-|-stype:graph-attr=1|qr_nm:gd|res:RC3|com-cf:nl|ptrs:na|ktp:N0|mc:188815|mtp:S|qry_typ:P|lang:en|wc:2|cs:9469|v=4,False,,Jaipur,",, JAIPURIA MANSION, SONI HOUSE, M.I. ROAD,JAIPUR ,,Jaipur, Jaipur - 302001, Dist.Jaipur, Rajasthan",8048250115,669
"Pink Cotton Baby Sleeping Bag, 0-9 Months",https://www.indiamart.com/proddetail/baby-sleeping-bag-23124195797.html?pos=119&kwd=seed pillow&tags=||||8601.347|Price|product|||NA|rsf:gd-|-stype:graph-attr=1|qr_nm:gd|res:RC3|com-cf:nl|ptrs:na|ktp:N0|mc:188815|mtp:S|qry_typ:P|lang:en|wc:2|cs:9469|v=4,Good Luck,https://www.indiamart.com/goodluck-11178782/?pos=119&kwd=seed pillow&tags=||||8601.347|Price|product|||NA|rsf:gd-|-stype:graph-attr=1|qr_nm:gd|res:RC3|com-cf:nl|ptrs:na|ktp:N0|mc:188815|mtp:S|qry_typ:P|lang:en|wc:2|cs:9469|v=4,False,,Jaipur,"39,SHREE JI NAGAR,,DURGAPURA, Jaipur - 302018, Dist.Jaipur, Rajasthan",8048372419,283
