product_title,product_link,company_name,company_link,is_verified_exporter,city_region,city,address_details,phone_number,phone_number_extension
Plastic Baby Piano Play Gym,https://www.indiamart.com/proddetail/baby-piano-play-gym-2854444998788.html?pos=1&kwd=soft toy baby bed&tags=BA||||8752.144|Price|product|||TS|rsf:gd-|-qr_nm:gd|res:RC4|com-cf:nl|ptrs:na|ktp:N0|mc:223875|mtp:S|qry_typ:P|lang:en|wc:4|flavl:0|cs:8356|v=4,Indial Premium Products,https://www.indiamart.com/indial-premium-products/?pos=1&kwd=soft toy baby bed&tags=BA||||8752.144|Price|product|||TS|rsf:gd-|-qr_nm:gd|res:RC4|com-cf:nl|ptrs:na|ktp:N0|mc:223875|mtp:S|qry_typ:P|lang:en|wc:4|flavl:0|cs:8356|v=4,False,,New Delhi,"68, K Block, Jahangirpuri North West Delhi, New Delhi - 110033, Dist.Delhi, Delhi",8045732973,
"Blue Cotton and synthetic recron Baby Soft Toy Bedding, Size/Dimension: Large, Just Born To 3years",https://www.indiamart.com/proddetail/baby-soft-toy-bedding-21658612755.html?pos=2&kwd=soft toy baby bed&tags=BB||||9842.824|Price|product|||TS|rsf:gd-|-qr_nm:gd|res:RC4|com-cf:nl|ptrs:na|ktp:N0|mc:223875|mtp:S|qry_typ:P|lang:en|wc:4|flavl:0|cs:8356|v=4,Baby Mosquito Net Seller,https://www.indiamart.com/babymosquitonetseller/?pos=2&kwd=soft toy baby bed&tags=BB||||9842.824|Price|product|||TS|rsf:gd-|-qr_nm:gd|res:RC4|com-cf:nl|ptrs:na|ktp:N0|mc:223875|mtp:S|qry_typ:P|lang:en|wc:4|flavl:0|cs:8356|v=4,False,Kailash Nagar,Hooghly,"Paulpara, P. O. Bandel, Kailash Nagar, Hooghly - 712103, Dist.Hooghly, West Bengal",8048953197,
Soft Bed With Pillows,https://www.indiamart.com/proddetail/soft-bed-with-pillows-2854218009530.html?pos=3&kwd=soft toy baby bed&tags=BB||||8538.243|Price|product|||TS|rsf:gd-|-qr_nm:gd|res:RC4|com-cf:nl|ptrs:na|ktp:N0|mc:223875|mtp:S|qry_typ:P|lang:en|wc:4|flavl:0|cs:8356|v=4,Dhroni,https://www.indiamart.com/dhroni-kerala/?pos=3&kwd=soft toy baby bed&tags=BB||||8538.243|Price|product|||TS|rsf:gd-|-qr_nm:gd|res:RC4|com-cf:nl|ptrs:na|ktp:N0|mc:223875|mtp:S|qry_typ:P|lang:en|wc:4|flavl:0|cs:8356|v=4,False,Velloorkunnam,Muvattupuzha,"15/273,276,277,276A,275,275 A-B-C-D, Ernakulam Thekkady Road, Muvattupuzha, Ernakulam, Velloorkunnam, Muvattupuzha - 686673, Dist.Ernakulam, Kerala",7942837842,
Pink Rectangular baby sleeping soft bed,https://www.indiamart.com/proddetail/baby-sleeping-soft-bed-2854450280230.html?pos=4&kwd=soft toy baby bed&tags=BA||||8752.144|Price|product|||MDC|rsf:gd-|-qr_nm:gd|res:RC4|com-cf:nl|ptrs:na|ktp:N0|mc:223875|mtp:S|qry_typ:P|lang:en|wc:4|flavl:0|cs:8356|v=4,Aakash Kumar,https://www.indiamart.com/aakashkumarnewdelhi/?pos=4&kwd=soft toy baby bed&tags=BA||||8752.144|Price|product|||MDC|rsf:gd-|-qr_nm:gd|res:RC4|com-cf:nl|ptrs:na|ktp:N0|mc:223875|mtp:S|qry_typ:P|lang:en|wc:4|flavl:0|cs:8356|v=4,False,South Delhi,New Delhi,"L-188/35, Sangam Vihar Road, Sangam Vihar, South Delhi, New Delhi - 110062, Dist.Delhi, Delhi",7949336442,
Baby Fix Bed,https://www.indiamart.com/proddetail/baby-fix-bed-15506002912.html?pos=5&kwd=soft toy baby bed&tags=BB||||8211.142|Price|product|||MDC|rsf:gd-|-qr_nm:gd|res:RC4|com-cf:nl|ptrs:na|ktp:N0|mc:223875|mtp:S|qry_typ:P|lang:en|wc:4|flavl:0|cs:8356|v=4,Milee Fashion,https://www.indiamart.com/mileefashion/?pos=5&kwd=soft toy baby bed&tags=BB||||8211.142|Price|product|||MDC|rsf:gd-|-qr_nm:gd|res:RC4|com-cf:nl|ptrs:na|ktp:N0|mc:223875|mtp:S|qry_typ:P|lang:en|wc:4|flavl:0|cs:8356|v=4,False,Chedda Nagar,Mumbai,"Veer Sambhaji Nagar, Near Hanuman Mandir PL Lokhande Marg, Chembur, Chedda Nagar, Mumbai - 400089, Dist.Mumbai, Maharashtra",8048966118,
Soft Toys Kids,https://www.indiamart.com/proddetail/soft-toys-kids-4950320491.html?pos=6&kwd=soft toy baby bed&tags=BA||||8752.144|Price|product|||MDC|rsf:gd-|-qr_nm:gd|res:RC4|com-cf:nl|ptrs:na|ktp:N0|mc:223875|mtp:S|qry_typ:P|lang:en|wc:4|flavl:0|cs:8356|v=4,Strawberry Stop,https://www.indiamart.com/strawberystop/?pos=6&kwd=soft toy baby bed&tags=BA||||8752.144|Price|product|||MDC|rsf:gd-|-qr_nm:gd|res:RC4|com-cf:nl|ptrs:na|ktp:N0|mc:223875|mtp:S|qry_typ:P|lang:en|wc:4|flavl:0|cs:8356|v=4,False,ROHINI,New Delhi,"A-3/23,BLOCK A,SECTOR 5,ROHINI, ROHINI, New Delhi - 110085, Dist.Delhi, Delhi",8048601210,
"Organic Cotton Baby Mat, Mat Size: Standard",https://www.indiamart.com/proddetail/baby-mat-22453255191.html?pos=7&kwd=soft toy baby bed&tags=BB||||8663.873|Price|product|||TS|rsf:gd-|-qr_nm:gd|res:RC4|com-cf:nl|ptrs:na|ktp:N0|mc:223875|mtp:S|qry_typ:P|lang:en|wc:4|flavl:0|cs:8356|v=4,Alpha Organics Clothing India,https://www.indiamart.com/alphaorganicsclothingindia/?pos=7&kwd=soft toy baby bed&tags=BB||||8663.873|Price|product|||TS|rsf:gd-|-qr_nm:gd|res:RC4|com-cf:nl|ptrs:na|ktp:N0|mc:223875|mtp:S|qry_typ:P|lang:en|wc:4|flavl:0|cs:8356|v=4,True,Indiranagar,Bengaluru,"NO.3037,INDIRANAGAR,8TH MAIN ROAD, HAL 2ND STAGE,BANGALORE, Indiranagar, Bengaluru - 560038, Dist.Bengaluru, Karnataka",7942540831,
"Fabric Teddy Bear Baby Soft Plush Cushion Cotton Sofa Set, 1-3 Years",https://www.indiamart.com/proddetail/baby-soft-plush-cushion-cotton-sofa-set-2850472501073.html?pos=8&kwd=soft toy baby bed&tags=BB||||8747.203|Price|product|||NA|rsf:gd-|-qr_nm:gd|res:RC4|com-cf:nl|ptrs:na|ktp:N0|mc:223875|mtp:S|qry_typ:P|lang:en|wc:4|flavl:0|cs:8356|v=4,Jai Bohle Textile,https://www.indiamart.com/jai-bohle-textile/?pos=8&kwd=soft toy baby bed&tags=BB||||8747.203|Price|product|||NA|rsf:gd-|-qr_nm:gd|res:RC4|com-cf:nl|ptrs:na|ktp:N0|mc:223875|mtp:S|qry_typ:P|lang:en|wc:4|flavl:0|cs:8356|v=4,False,,Panipat,"48B, Ground Floor, Azad Nagar, Panipat - 132103, Dist.Panipat, Haryana",7942955871,
"Velvet Blue Plush Cartoon Toy Bed, 8, 1",https://www.indiamart.com/proddetail/plush-cartoon-toy-bed-22035347612.html?pos=9&kwd=soft toy baby bed&tags=BB||||8624.964|Price|product|||NA|rsf:gd-|-qr_nm:gd|res:RC4|com-cf:nl|ptrs:na|ktp:N0|mc:223875|mtp:S|qry_typ:P|lang:en|wc:4|flavl:0|cs:8356|v=4,Shakti Fashion,https://www.indiamart.com/shakti-fashion-barnala/?pos=9&kwd=soft toy baby bed&tags=BB||||8624.964|Price|product|||NA|rsf:gd-|-qr_nm:gd|res:RC4|com-cf:nl|ptrs:na|ktp:N0|mc:223875|mtp:S|qry_typ:P|lang:en|wc:4|flavl:0|cs:8356|v=4,False,Barnala,Barnala,"Prabhat Cinema Road,Opp Gandhi Arya Sen. Sec. School, Barnala, Barnala - 148101, Dist.Barnala, Punjab",8048371939,643
"Cotton Nursery Pattern Baby Bedding, 0 -2 Year",https://www.indiamart.com/proddetail/baby-bedding-23512142148.html?pos=10&kwd=soft toy baby bed&tags=BB||||8457.459|Price|product|||NA|rsf:gd-|-qr_nm:gd|res:RC4|com-cf:nl|ptrs:na|ktp:N0|mc:223875|mtp:S|qry_typ:P|lang:en|wc:4|flavl:0|cs:8356|v=4,Knead Your Dream,https://www.indiamart.com/knead-your-dream/?pos=10&kwd=soft toy baby bed&tags=BB||||8457.459|Price|product|||NA|rsf:gd-|-qr_nm:gd|res:RC4|com-cf:nl|ptrs:na|ktp:N0|mc:223875|mtp:S|qry_typ:P|lang:en|wc:4|flavl:0|cs:8356|v=4,False,Kakkur,Kozhikode,"586 Kakkur Kakkuparambath Chelannur, Kakkur, Kozhikode - 673613, Dist.Kozhikode, Kerala",8043885486,
Baby Bed With Net,,Ajanta Emporium,https://www.indiamart.com/ajanta-emporium-aurangabad/?pos=11&kwd=soft toy baby bed&tags=BA||||8476.868|Price|product|||NA|rsf:gd-|-qr_nm:gd|res:RC4|com-cf:nl|ptrs:na|ktp:N0|mc:223875|mtp:S|qry_typ:P|lang:en|wc:4|flavl:0|cs:8356|v=4,False,Opp Jain Mandir,Aurangabad,"Sarafa Road, Opp Jain Mandir, Aurangabad - 431001, Maharashtra",8047658026,
Soft Toy Baby Bed,,Sweet Angels,https://www.indiamart.com/sweet-angels/?pos=12&kwd=soft toy baby bed&tags=BB||||8038.093||product|||NA|rsf:gd-|-qr_nm:gd|res:RC4|com-cf:nl|ptrs:na|ktp:N0|mc:223875|mtp:S|qry_typ:P|lang:en|wc:4|flavl:0|cs:8356|v=4,False,Kotecha Main Road,Rajkot,"Sunny Plaza, Kotecha Main Road, Rajkot - 360001, Dist.Rajkot, Gujarat",8047522019,
B2 Baby Zipper,,Balaji Bag,https://www.indiamart.com/balaji-bag-selam/?pos=13&kwd=soft toy baby bed&tags=BA||||8717.056||product|||NA|rsf:gd-|-qr_nm:gd|res:RC4|com-cf:nl|ptrs:na|ktp:N0|mc:223875|mtp:S|qry_typ:P|lang:en|wc:4|flavl:0|cs:8356|v=4,False,I Agraharam,Salem,"No.-70/45,paul Street, I Agraharam, Salem - 636001, Dist.Salem, Tamil Nadu",8048371964,840
Baby Bedding,,Bhama Sales Corporation,https://www.indiamart.com/bhama-sales-corporation/?pos=14&kwd=soft toy baby bed&tags=BB||||8601.347|Price|product|||NA|rsf:gd-|-qr_nm:gd|res:RC4|com-cf:nl|ptrs:na|ktp:N0|mc:223875|mtp:S|qry_typ:P|lang:en|wc:4|flavl:0|cs:8356|v=4,False,,Jaipur,"PROFESSOR COLONY,PROFESSOR COLONY,,NEAR V.P. GIRLS COLLEGE 20/182, Kaveri Path, Mansarovar,302020,Jaipur, Jaipur - 302020, Dist.Jaipur, Rajasthan",8048371873,874
beby toys sofa,https://www.indiamart.com/proddetail/beby-toys-sofa-2851520178548.html?pos=15&kwd=soft toy baby bed&tags=CC||||8747.203|Price|product|||TS|rsf:gd-|-qr_nm:gd|res:RC4|com-cf:nl|ptrs:na|ktp:N0|mc:223875|mtp:S|qry_typ:P|lang:en|wc:4|cs:7593|v=4,Tulsi Handicraft,https://www.indiamart.com/tulsihandicraftpanipat/?pos=15&kwd=soft toy baby bed&tags=CC||||8747.203|Price|product|||TS|rsf:gd-|-qr_nm:gd|res:RC4|com-cf:nl|ptrs:na|ktp:N0|mc:223875|mtp:S|qry_typ:P|lang:en|wc:4|cs:7593|v=4,False,Netaji Colony,Panipat,"10, Gangapuri Road, Netaji Colony, Panipat - 132103, Dist.Panipat, Haryana",7942837797,
"sana toys Kids Sofa Cum Bed, Packaging Type: zipper pack, 1-2 Years",https://www.indiamart.com/proddetail/kids-sofa-cum-bed-26951033133.html?pos=16&kwd=soft toy baby bed&tags=CC||||8752.144|Price|product|||MDC|rsf:gd-|-qr_nm:gd|res:RC4|com-cf:nl|ptrs:na|ktp:N0|mc:223875|mtp:S|qry_typ:P|lang:en|wc:4|cs:7593|v=4,Sana Toys India Private Limited,https://www.indiamart.com/sanatoys-india/?pos=16&kwd=soft toy baby bed&tags=CC||||8752.144|Price|product|||MDC|rsf:gd-|-qr_nm:gd|res:RC4|com-cf:nl|ptrs:na|ktp:N0|mc:223875|mtp:S|qry_typ:P|lang:en|wc:4|cs:7593|v=4,False,Saraswati Vihar,New Delhi,"1,3, 163A, Saraswati Vihar, Pitampura, Saraswati Vihar, New Delhi - 110034, Dist.Delhi, Delhi",7949086093,
Hanging Toy Baby Bed,https://www.indiamart.com/proddetail/hanging-toy-baby-bed-22827112897.html?pos=17&kwd=soft toy baby bed&tags=CC||||8211.142|Price|product|||TS|rsf:gd-|-qr_nm:gd|res:RC4|com-cf:nl|ptrs:na|ktp:N0|mc:223875|mtp:S|qry_typ:P|lang:en|wc:4|cs:7593|v=4,Child King Creation,https://www.indiamart.com/childkingcreation-mumbai/?pos=17&kwd=soft toy baby bed&tags=CC||||8211.142|Price|product|||TS|rsf:gd-|-qr_nm:gd|res:RC4|com-cf:nl|ptrs:na|ktp:N0|mc:223875|mtp:S|qry_typ:P|lang:en|wc:4|cs:7593|v=4,False,Malad West,Mumbai,"B 705, Seven Floor, Jagmagia Centre, Mamlatdar Wadi EXTN Road Nahar Nagar, Malad West, Suburban, Malad West, Mumbai - 400064, Dist.Mumbai, Maharashtra",8043805922,
U Bed Zone Pink Soft Baby Bed,https://www.indiamart.com/proddetail/bed-zone-pink-soft-baby-bed-2852942565148.html?pos=18&kwd=soft toy baby bed&tags=CC||||8497.66|Price|product|||MDC|rsf:gd-|-qr_nm:gd|res:RC4|com-cf:nl|ptrs:na|ktp:N0|mc:223875|mtp:S|qry_typ:P|lang:en|wc:4|cs:7593|v=4,Bed-Zone Industries,https://www.indiamart.com/bedzone-industries/?pos=18&kwd=soft toy baby bed&tags=CC||||8497.66|Price|product|||MDC|rsf:gd-|-qr_nm:gd|res:RC4|com-cf:nl|ptrs:na|ktp:N0|mc:223875|mtp:S|qry_typ:P|lang:en|wc:4|cs:7593|v=4,False,Madavana,Kodungallur,"6/344, Madavana, Eriyad, Madavana, Kodungallur - 680666, Dist.Thrissur, Kerala",8044563423,
Roto Plastic Wonderful Indoor Toy Stand and Bottle Hanger for kids,https://www.indiamart.com/proddetail/wonderful-indoor-toy-stand-and-bottle-hanger-for-kids-15169641830.html?pos=19&kwd=soft toy baby bed&tags=CC||||8223.226|Price|product|||TS|rsf:gd-|-qr_nm:gd|res:RC4|com-cf:nl|ptrs:na|ktp:N0|mc:223875|mtp:S|qry_typ:P|lang:en|wc:4|cs:7593|v=4,Royal Play Equipments,https://www.indiamart.com/omenterprisesmaharashtra/?pos=19&kwd=soft toy baby bed&tags=CC||||8223.226|Price|product|||TS|rsf:gd-|-qr_nm:gd|res:RC4|com-cf:nl|ptrs:na|ktp:N0|mc:223875|mtp:S|qry_typ:P|lang:en|wc:4|cs:7593|v=4,False,Vasai,Thane,"Gala No. 17, Dewan & Shah Industrial Estate No. 6, Navghar, Vasai East, Vasai, Thane - 401210, Dist.Thane, Maharashtra",8048618808,
"Interactive English and Hindi Learning Yellow Pillow Book for Kids, Child Age Group: 0-3 Yrs",https://www.indiamart.com/proddetail/interactive-english-and-hindi-learning-yellow-pillow-book-for-kids-2853196205148.html?pos=20&kwd=soft toy baby bed&tags=CC||||8230.883|Price|product|||MDC|rsf:gd-|-qr_nm:gd|res:RC4|com-cf:nl|ptrs:na|ktp:N0|mc:223875|mtp:S|qry_typ:P|lang:en|wc:4|cs:7593|v=4,Shri Shri Fashion,https://www.indiamart.com/shri-shri-fashion/?pos=20&kwd=soft toy baby bed&tags=CC||||8230.883|Price|product|||MDC|rsf:gd-|-qr_nm:gd|res:RC4|com-cf:nl|ptrs:na|ktp:N0|mc:223875|mtp:S|qry_typ:P|lang:en|wc:4|cs:7593|v=4,False,Varachha,Surat,"A-231, Narayan Nagar, Near Nalanda School, Punagam,, Varachha, Surat - 395010, Dist.Surat, Gujarat",7942712235,
Baby Tiger Shape Soft Toys for Kids 30 Cm Plushie Toys and Assorted Colors,https://www.indiamart.com/proddetail/baby-tiger-shape-soft-toys-for-kids-30-cm-plushie-toys-and-assorted-colors-2854150811333.html?pos=21&kwd=soft toy baby bed&tags=CC||||8785.791|Price|product|||TS|rsf:gd-|-qr_nm:gd|res:RC4|com-cf:nl|ptrs:na|ktp:N0|mc:223875|mtp:S|qry_typ:P|lang:en|wc:4|cs:7593|v=4,Rident Kitchen,https://www.ridentkitchen.in/?pos=21&kwd=soft toy baby bed&tags=CC||||8785.791|Price|product|||TS|rsf:gd-|-qr_nm:gd|res:RC4|com-cf:nl|ptrs:na|ktp:N0|mc:223875|mtp:S|qry_typ:P|lang:en|wc:4|cs:7593|v=4,False,Mohan Nagar,Ghaziabad,"Plot No. 30, Second floor Rajender Nagar Industrial Area, Street No. 4, Mohan Nagar, Ghaziabad - 201007, Dist.Ghaziabad, Uttar Pradesh",8048262052,
Multicolor Rectangular baby bed / bedding set reversiable cotton,https://www.indiamart.com/proddetail/rectangular-baby-bed-2853711146748.html?pos=22&kwd=soft toy baby bed&tags=CC||||8559.269|Price|product|||MDC|rsf:gd-|-qr_nm:gd|res:RC4|com-cf:nl|ptrs:na|ktp:N0|mc:223875|mtp:S|qry_typ:P|lang:en|wc:4|cs:7593|v=4,Sheza Enterprises,https://www.indiamart.com/shezaenterprises/?pos=22&kwd=soft toy baby bed&tags=CC||||8559.269|Price|product|||MDC|rsf:gd-|-qr_nm:gd|res:RC4|com-cf:nl|ptrs:na|ktp:N0|mc:223875|mtp:S|qry_typ:P|lang:en|wc:4|cs:7593|v=4,False,,Indore,"Alif House, 5, Khajrana Main Road, Opposite HP Petrol Pump,, Indore - 452001, Dist.Indore, Madhya Pradesh",7948547068,
Baby Play mat Activity Play Gym for Baby with Soft Hanging Baby Bedding Toys (Multicolor),https://www.indiamart.com/proddetail/baby-play-mat-activity-play-gym-for-baby-with-soft-hanging-baby-bedding-toys-multicolor-2854098665633.html?pos=23&kwd=soft toy baby bed&tags=||||8230.883|Price|product|||TS|rsf:gd-|-qr_nm:gd|res:RC4|com-cf:nl|ptrs:na|ktp:N0|mc:223875|mtp:S|qry_typ:P|lang:en|wc:4|cs:7593|v=4,Onward Toys,https://www.indiamart.com/onwardtoys/?pos=23&kwd=soft toy baby bed&tags=||||8230.883|Price|product|||TS|rsf:gd-|-qr_nm:gd|res:RC4|com-cf:nl|ptrs:na|ktp:N0|mc:223875|mtp:S|qry_typ:P|lang:en|wc:4|cs:7593|v=4,False,Kamrej,Surat,"Plot No-82, Sidhdhivinayak Ind Estate, Kholvad, Sub Post Office, Kamrej,, Kamrej, Surat - 394180, Dist.Surat, Gujarat",8044561719,
Multicolor Rectangular Baby Learning Pillow,https://www.indiamart.com/proddetail/baby-learning-pillow-2853189363830.html?pos=24&kwd=soft toy baby bed&tags=||||8230.883|Price|product|||TS|rsf:gd-|-qr_nm:gd|res:RC4|com-cf:nl|ptrs:na|ktp:N0|mc:223875|mtp:S|qry_typ:P|lang:en|wc:4|cs:7593|v=4,Rapid Import & Export,https://www.indiamart.com/rapidimportexport/?pos=24&kwd=soft toy baby bed&tags=||||8230.883|Price|product|||TS|rsf:gd-|-qr_nm:gd|res:RC4|com-cf:nl|ptrs:na|ktp:N0|mc:223875|mtp:S|qry_typ:P|lang:en|wc:4|cs:7593|v=4,False,Dabholi,Surat,"Shade No 19, Nilkanth Park, Nr. Silver Stone Villa, Tulsi Chowk Dabholi Gam, Ved Road, Dabholi, Surat - 395004, Dist.Surat, Gujarat",7942960616,
Baby Mosquito Net Bed With Toys,https://www.indiamart.com/proddetail/baby-mosquito-net-bed-with-toys-19620359455.html?pos=25&kwd=soft toy baby bed&tags=||||8752.144|Price|product|||TS|rsf:gd-|-qr_nm:gd|res:RC4|com-cf:nl|ptrs:na|ktp:N0|mc:223875|mtp:S|qry_typ:P|lang:en|wc:4|cs:7593|v=4,Shree Balaji Infant Wear,https://www.indiamart.com/chhotejanab/?pos=25&kwd=soft toy baby bed&tags=||||8752.144|Price|product|||TS|rsf:gd-|-qr_nm:gd|res:RC4|com-cf:nl|ptrs:na|ktp:N0|mc:223875|mtp:S|qry_typ:P|lang:en|wc:4|cs:7593|v=4,False,Pahari Dhiraj,New Delhi,"1583- 84, Hathi Khana, Aziz Ganj, Bahadur Garh Road, Pahari Dhiraj, New Delhi - 110006, Dist.Delhi, Delhi",8047639754,
Kids Learning Pillow,https://www.indiamart.com/proddetail/kids-learning-pillow-2853444372248.html?pos=26&kwd=soft toy baby bed&tags=||||8230.883|Price|product|||TS|rsf:gd-|-qr_nm:gd|res:RC4|com-cf:nl|ptrs:na|ktp:N0|mc:223875|mtp:S|qry_typ:P|lang:en|wc:4|cs:7593|v=4,Maa Kiran Handloom & Jiyana,https://www.indiamart.com/maakiranhandloomjiyana/?pos=26&kwd=soft toy baby bed&tags=||||8230.883|Price|product|||TS|rsf:gd-|-qr_nm:gd|res:RC4|com-cf:nl|ptrs:na|ktp:N0|mc:223875|mtp:S|qry_typ:P|lang:en|wc:4|cs:7593|v=4,False,Udhana,Surat,"Shop No.17, Ground Floor, Astha Business Centre, Canal Road,, Udhana, Surat - 394185, Dist.Surat, Gujarat",7942788374,
"Baby Rockig Deluxe Seat Toy, Child Age Group: 0-3 Yrs",https://www.indiamart.com/proddetail/baby-rockig-deluxe-seat-toy-2852098911533.html?pos=27&kwd=soft toy baby bed&tags=||||8752.144|Price|product|||TS|rsf:gd-|-qr_nm:gd|res:RC4|com-cf:nl|ptrs:na|ktp:N0|mc:223875|mtp:S|qry_typ:P|lang:en|wc:4|cs:7593|v=4,Neeta & Sons,https://www.neetaandsons.com/?pos=27&kwd=soft toy baby bed&tags=||||8752.144|Price|product|||TS|rsf:gd-|-qr_nm:gd|res:RC4|com-cf:nl|ptrs:na|ktp:N0|mc:223875|mtp:S|qry_typ:P|lang:en|wc:4|cs:7593|v=4,False,Shalimar Bagh,New Delhi,"First Floor, 9/55 Kh. No. 902/990, Street No 2, SHALIMAR VILLAGE, Shalimar Bagh, New Delhi - 110088, Dist.Delhi, Delhi",7942790875,
Baby Mosquito Net Bed,https://www.indiamart.com/proddetail/baby-mosquito-net-bed-2850586699791.html?pos=28&kwd=soft toy baby bed&tags=||||8230.883|Price|product|||TS|rsf:gd-|-qr_nm:gd|res:RC4|com-cf:nl|ptrs:na|ktp:N0|mc:223875|mtp:S|qry_typ:P|lang:en|wc:4|cs:7593|v=4,Concept Enterprise,https://www.cartforbaby.com/?pos=28&kwd=soft toy baby bed&tags=||||8230.883|Price|product|||TS|rsf:gd-|-qr_nm:gd|res:RC4|com-cf:nl|ptrs:na|ktp:N0|mc:223875|mtp:S|qry_typ:P|lang:en|wc:4|cs:7593|v=4,False,Dabholi,Surat,"17, Bhumi Park Society, Near Dabholi Road, Katargam, Dabholi, Surat - 395004, Dist.Surat, Gujarat",8047546659,
Baby sofa soft toy,https://www.indiamart.com/proddetail/baby-sofa-soft-toy-2855003323748.html?pos=29&kwd=soft toy baby bed&tags=||||8752.144|Price|product|||TS|rsf:gd-|-qr_nm:gd|res:RC4|com-cf:nl|ptrs:na|ktp:N0|mc:223875|mtp:S|qry_typ:P|lang:en|wc:4|cs:7593|v=4,Prince International Soft Toys,https://www.princeinternationals.com/?pos=29&kwd=soft toy baby bed&tags=||||8752.144|Price|product|||TS|rsf:gd-|-qr_nm:gd|res:RC4|com-cf:nl|ptrs:na|ktp:N0|mc:223875|mtp:S|qry_typ:P|lang:en|wc:4|cs:7593|v=4,False,Mukundpur,New Delhi,"Plot No. 8 , Gali No. 3, Mukundpur Village, Near Shiv Mandir, Mukundpur, New Delhi - 110042, Dist.Delhi, Delhi",8048976675,
"Baby Mattress With Mosquito Net, Bedding Set With Thick Base, Soft Pillow And Zip Closure",https://www.indiamart.com/proddetail/baby-mattress-with-mosquito-net-bedding-set-with-thick-base-soft-pillow-and-zip-closure-24622567912.html?pos=30&kwd=soft toy baby bed&tags=||||9842.824|Price|product|||TS|rsf:gd-|-qr_nm:gd|res:RC4|com-cf:nl|ptrs:na|ktp:N0|mc:223875|mtp:S|qry_typ:P|lang:en|wc:4|cs:7593|v=4,Indilittle Global Export,https://www.indiamart.com/indilittleglobalexport/?pos=30&kwd=soft toy baby bed&tags=||||9842.824|Price|product|||TS|rsf:gd-|-qr_nm:gd|res:RC4|com-cf:nl|ptrs:na|ktp:N0|mc:223875|mtp:S|qry_typ:P|lang:en|wc:4|cs:7593|v=4,False,Haripal,Hooghly,"BRAHMANPARA, NALIKUL PASCHIM, HARIPAL, Haripal, Hooghly - 712405, Dist.Hooghly, West Bengal",8048977919,
"Eco friendly soft fabric Applique Embroidered Kids Bedding Set, For Home or Gifting, Multi",https://www.indiamart.com/proddetail/kids-bedding-set-13265304891.html?pos=31&kwd=soft toy baby bed&tags=||||8778.123|Price|product|||TS|rsf:gd-|-qr_nm:gd|res:RC4|com-cf:nl|ptrs:na|ktp:N0|mc:223875|mtp:S|qry_typ:P|lang:en|wc:4|cs:7593|v=4,Oscar Overseas,https://www.oscar-india.com/?pos=31&kwd=soft toy baby bed&tags=||||8778.123|Price|product|||TS|rsf:gd-|-qr_nm:gd|res:RC4|com-cf:nl|ptrs:na|ktp:N0|mc:223875|mtp:S|qry_typ:P|lang:en|wc:4|cs:7593|v=4,False,,Noida,"A-99 Sector 5, Noida - 201301, Dist.Gautam Budh Nagar, Uttar Pradesh",8046058290,
"Grey Dr. Mattrezz Memory Foam Mattress, Thickness: 6 Inch",https://www.indiamart.com/proddetail/dr-mattrezz-memory-foam-mattress-20231892291.html?pos=32&kwd=soft toy baby bed&tags=||||8211.142|Price|product|||TS|rsf:gd-|-qr_nm:gd|res:RC4|com-cf:nl|ptrs:na|ktp:N0|mc:223875|mtp:S|qry_typ:P|lang:en|wc:4|cs:7593|v=4,Kozee Sleep Products,https://www.gilsonmattress.com/?pos=32&kwd=soft toy baby bed&tags=||||8211.142|Price|product|||TS|rsf:gd-|-qr_nm:gd|res:RC4|com-cf:nl|ptrs:na|ktp:N0|mc:223875|mtp:S|qry_typ:P|lang:en|wc:4|cs:7593|v=4,True,Mazgaon,Mumbai,"No. 210, Atlas Mill Compound, Reay Road, Mazgaon, Mumbai - 400010, Dist.Mumbai, Maharashtra",8048984483,
Blue Plain Baby Mosquito Net Bed.,https://www.indiamart.com/proddetail/blue-plain-baby-mosquito-net-bed-2853519369830.html?pos=33&kwd=soft toy baby bed&tags=||||9839.57|Price|product|||MDC|rsf:gd-|-qr_nm:gd|res:RC4|com-cf:nl|ptrs:na|ktp:N0|mc:223875|mtp:S|qry_typ:P|lang:en|wc:4|cs:7593|v=4,Suman Mosquito Net,https://www.indiamart.com/suman-mosquito-net/?pos=33&kwd=soft toy baby bed&tags=||||9839.57|Price|product|||MDC|rsf:gd-|-qr_nm:gd|res:RC4|com-cf:nl|ptrs:na|ktp:N0|mc:223875|mtp:S|qry_typ:P|lang:en|wc:4|cs:7593|v=4,False,Hadia,Kolkata,"58/2/409, East Bidyadharpur, Shyamnagar North Twenty Four Parganas, Hadia, Kolkata - 743127, Dist.Kolkata, West Bengal",8047621063,
"Velvet Embossed super soft fabric Safe n Cute Comfortable New Born Baby Bedding quilt Set, For Home, Brown",https://www.indiamart.com/proddetail/safe-n-cute-comfortable-new-born-baby-bedding-quilt-set-2852528197730.html?pos=34&kwd=soft toy baby bed&tags=||||8580.032|Price|product|||TS|rsf:gd-|-qr_nm:gd|res:RC4|com-cf:nl|ptrs:na|ktp:N0|mc:223875|mtp:S|qry_typ:P|lang:en|wc:4|cs:7593|v=4,Ritu Infants Care,https://www.indiamart.com/ritu-infants-care/?pos=34&kwd=soft toy baby bed&tags=||||8580.032|Price|product|||TS|rsf:gd-|-qr_nm:gd|res:RC4|com-cf:nl|ptrs:na|ktp:N0|mc:223875|mtp:S|qry_typ:P|lang:en|wc:4|cs:7593|v=4,False,Sunder Nagar,Amritsar,"232, Tilak Nagar, Shivala Colony, Sunder Nagar, Amritsar - 143001, Dist.Amritsar, Punjab",7942712512,
"Cotton Multicolor Baby Bedset With Pillow, For Home",https://www.indiamart.com/proddetail/baby-bedset-with-pillow-24284354762.html?pos=35&kwd=soft toy baby bed&tags=||||8228.275||product|||TS|rsf:gd-|-qr_nm:gd|res:RC4|com-cf:nl|ptrs:na|ktp:N0|mc:223875|mtp:S|qry_typ:P|lang:en|wc:4|cs:7593|v=4,Panchratna Handicraft,https://www.indiamart.com/panchratnahadicraft/?pos=35&kwd=soft toy baby bed&tags=||||8228.275||product|||TS|rsf:gd-|-qr_nm:gd|res:RC4|com-cf:nl|ptrs:na|ktp:N0|mc:223875|mtp:S|qry_typ:P|lang:en|wc:4|cs:7593|v=4,False,Nikol,Ahmedabad,"33, Ishwarkrupa Society, Opposite Jivanwadi, Nikol Gam Road, Nikol, Nikol, Ahmedabad - 382350, Dist.Ahmedabad, Gujarat",8048980894,
Multicolor Rectangular Inflatable Baby Slapped Pad Toy Floor Cushion,https://www.indiamart.com/proddetail/inflatable-baby-slapped-pad-toy-floor-cushion-2851124401912.html?pos=36&kwd=soft toy baby bed&tags=||||8230.883|Price|product|||TS|rsf:gd-|-qr_nm:gd|res:RC4|com-cf:nl|ptrs:na|ktp:N0|mc:223875|mtp:S|qry_typ:P|lang:en|wc:4|cs:7593|v=4,Rozzby,https://www.cheaperzonetoys.com/?pos=36&kwd=soft toy baby bed&tags=||||8230.883|Price|product|||TS|rsf:gd-|-qr_nm:gd|res:RC4|com-cf:nl|ptrs:na|ktp:N0|mc:223875|mtp:S|qry_typ:P|lang:en|wc:4|cs:7593|v=4,False,Kosam,Surat,"1st Floor D-2,103 Vip Circle Shlok Recidency Utran, Kosam, Surat - 394105, Dist.Surat, Gujarat",8047622002,
Ultra soft suede Plain CraftX Baby Sofa Bedding,https://www.indiamart.com/proddetail/craftx-baby-sofa-bedding-21789225891.html?pos=37&kwd=soft toy baby bed&tags=||||8752.144|Price|product|||TS|rsf:gd-|-qr_nm:gd|res:RC4|com-cf:nl|ptrs:na|ktp:N0|mc:223875|mtp:S|qry_typ:P|lang:en|wc:4|cs:7593|v=4,Craftx Inc,https://www.indiamart.com/missru-trading-company/?pos=37&kwd=soft toy baby bed&tags=||||8752.144|Price|product|||TS|rsf:gd-|-qr_nm:gd|res:RC4|com-cf:nl|ptrs:na|ktp:N0|mc:223875|mtp:S|qry_typ:P|lang:en|wc:4|cs:7593|v=4,False,Bawana,New Delhi,"N-191, Sec-02, Bawana Industrial Area, Bawana, New Delhi - 110084, Dist.Delhi, Delhi",8048952385,
Multicolor Cotton Newborn Baby Mattress,https://www.indiamart.com/proddetail/newborn-baby-mattress-2854900388648.html?pos=38&kwd=soft toy baby bed&tags=||||8230.883||product|||TS|rsf:gd-|-qr_nm:gd|res:RC4|com-cf:nl|ptrs:na|ktp:N0|mc:223875|mtp:S|qry_typ:P|lang:en|wc:4|cs:7593|v=4,Jani Collection,https://www.indiamart.com/janicollection/?pos=38&kwd=soft toy baby bed&tags=||||8230.883||product|||TS|rsf:gd-|-qr_nm:gd|res:RC4|com-cf:nl|ptrs:na|ktp:N0|mc:223875|mtp:S|qry_typ:P|lang:en|wc:4|cs:7593|v=4,False,Katargam,Surat,"H.No. F.F., Plot 30-31, Parsottam Nagar, Idghawad, B/h Manavdharam Ashram, Gotalawadi, Katargam, Surat - 395003, Dist.Surat, Gujarat",8044562060,
"Educational Cushion Multicolor Baby Learning Pillow, Packaging Type: in bag, 3-12 Months",https://www.indiamart.com/proddetail/baby-learning-pillow-26954165373.html?pos=39&kwd=soft toy baby bed&tags=||||8230.883|Price|product|||TS|rsf:gd-|-qr_nm:gd|res:RC4|com-cf:nl|ptrs:na|ktp:N0|mc:223875|mtp:S|qry_typ:P|lang:en|wc:4|cs:7593|v=4,Roswell,https://www.indiamart.com/varni-variety-store/?pos=39&kwd=soft toy baby bed&tags=||||8230.883|Price|product|||TS|rsf:gd-|-qr_nm:gd|res:RC4|com-cf:nl|ptrs:na|ktp:N0|mc:223875|mtp:S|qry_typ:P|lang:en|wc:4|cs:7593|v=4,False,Katargam,Surat,"A-202, Maruti Residancy, Shyamdham Society Near Tarankund Katargam, Surat, Katargam, Surat - 395004, Dist.Surat, Gujarat",8048273281,
"Thickness: 4 Inches Cotton Baby Sleep Mattress, Size: Single",https://www.indiamart.com/proddetail/baby-sleep-mattress-2854723154288.html?pos=40&kwd=soft toy baby bed&tags=||||8230.883|Price|product|||MDC|rsf:gd-|-qr_nm:gd|res:RC4|com-cf:nl|ptrs:na|ktp:N0|mc:223875|mtp:S|qry_typ:P|lang:en|wc:4|cs:7593|v=4,Whopssy International,https://www.indiamart.com/whopssy-international/?pos=40&kwd=soft toy baby bed&tags=||||8230.883|Price|product|||MDC|rsf:gd-|-qr_nm:gd|res:RC4|com-cf:nl|ptrs:na|ktp:N0|mc:223875|mtp:S|qry_typ:P|lang:en|wc:4|cs:7593|v=4,False,,Surat,"First Floor, Plot No. 377, Ram Vatika V-2, Near Rangoli Chowkdi, Sayan Road, Velenja Gam, Sayan, Surat - 394150, Dist.Surat, Gujarat",7949340041,
"Fabric Winnie Foam Yellow Baby Soft Sofa For Sitting, 1-3 Years",https://www.indiamart.com/proddetail/foam-yellow-baby-soft-sofa-for-sitting-23915021097.html?pos=41&kwd=soft toy baby bed&tags=||||8786.56|Price|product|||TS|rsf:gd-|-qr_nm:gd|res:RC4|com-cf:nl|ptrs:na|ktp:N0|mc:223875|mtp:S|qry_typ:P|lang:en|wc:4|cs:7593|v=4,Klip 2 Deal,https://www.indiamart.com/klip2deal/?pos=41&kwd=soft toy baby bed&tags=||||8786.56|Price|product|||TS|rsf:gd-|-qr_nm:gd|res:RC4|com-cf:nl|ptrs:na|ktp:N0|mc:223875|mtp:S|qry_typ:P|lang:en|wc:4|cs:7593|v=4,False,Saidabad,Hyderabad,"16 1 487 4, Opp S V Photo Studio, Saidabad, Saidabad, Hyderabad - 500059, Dist.Hyderabad, Telangana",8046035336,
Baby Sofa Seat,https://www.indiamart.com/proddetail/baby-sofa-seat-2853520084130.html?pos=42&kwd=soft toy baby bed&tags=||||8752.144|Price|product|||TS|rsf:gd-|-qr_nm:gd|res:RC4|com-cf:nl|ptrs:na|ktp:N0|mc:223875|mtp:S|qry_typ:P|lang:en|wc:4|cs:7593|v=4,Toy World's,https://www.indiamart.com/toy-worlds/?pos=42&kwd=soft toy baby bed&tags=||||8752.144|Price|product|||TS|rsf:gd-|-qr_nm:gd|res:RC4|com-cf:nl|ptrs:na|ktp:N0|mc:223875|mtp:S|qry_typ:P|lang:en|wc:4|cs:7593|v=4,False,Mangolpuri,New Delhi,"Front Side Portion, Ist Floor, House No 121-C, Khasra No 16/21,BLK RZ Village Mangol Pur Kalan West Delhi, Mangolpuri, New Delhi - 110085, Dist.Delhi, Delhi",8047687923,
Baby Sofa Seat,https://www.indiamart.com/proddetail/baby-sofa-seat-2853520084130.html?pos=43&kwd=soft toy baby bed&tags=||||8752.144|Price|product|||TS|rsf:gd-|-qr_nm:gd|res:RC4|com-cf:nl|ptrs:na|ktp:N0|mc:223875|mtp:S|qry_typ:P|lang:en|wc:4|cs:7593|v=4,Toy World's,https://www.indiamart.com/toy-worlds/?pos=43&kwd=soft toy baby bed&tags=||||8752.144|Price|product|||TS|rsf:gd-|-qr_nm:gd|res:RC4|com-cf:nl|ptrs:na|ktp:N0|mc:223875|mtp:S|qry_typ:P|lang:en|wc:4|cs:7593|v=4,False,Mangolpuri,New Delhi,"Front Side Portion, Ist Floor, House No 121-C, Khasra No 16/21,BLK RZ Village Mangol Pur Kalan West Delhi, Mangolpuri, New Delhi - 110085, Dist.Delhi, Delhi",8047687923,
"Soft Fabric White Baby Pillow, For gift, Size/Dimension: 35*30 CM",https://www.indiamart.com/proddetail/kity-baby-pillow-23575855391.html?pos=44&kwd=soft toy baby bed&tags=||||9045.955|Price|product|||TS|rsf:gd-|-qr_nm:gd|res:RC4|com-cf:nl|ptrs:na|ktp:N0|mc:223875|mtp:S|qry_typ:P|lang:en|wc:4|cs:7593|v=4,Divya Soft Toys,https://www.divyasofttoys.com/?pos=44&kwd=soft toy baby bed&tags=||||9045.955|Price|product|||TS|rsf:gd-|-qr_nm:gd|res:RC4|com-cf:nl|ptrs:na|ktp:N0|mc:223875|mtp:S|qry_typ:P|lang:en|wc:4|cs:7593|v=4,False,Sanigawan,Kanpur,"Global Hospital, Plot No. 52, Araji No. 266, Sanigawan Road, Swarn Jayanti Vistar Part-1, Sanigawan, Kanpur - 208021, Uttar Pradesh",8046078101,
"FUR Blue Large Size Imported Character Sofa Soft Toy, For Play",https://www.indiamart.com/proddetail/large-size-imported-character-sofa-2854912222797.html?pos=45&kwd=soft toy baby bed&tags=||||8752.144|Price|product|||MDC|rsf:gd-|-qr_nm:gd|res:RC4|com-cf:nl|ptrs:na|ktp:N0|mc:223875|mtp:S|qry_typ:P|lang:en|wc:4|cs:7593|v=4,Seventeen Century,https://www.indiamart.com/seventeencentury/?pos=45&kwd=soft toy baby bed&tags=||||8752.144|Price|product|||MDC|rsf:gd-|-qr_nm:gd|res:RC4|com-cf:nl|ptrs:na|ktp:N0|mc:223875|mtp:S|qry_typ:P|lang:en|wc:4|cs:7593|v=4,False,Rohini,New Delhi,"First Floor, House No 75, Khasara No. 20/16,25, 21/20, 22, Block-A, Rajani Vihar Extn, Village Begumpur, North West Delhi, Rohini, New Delhi - 110086, Dist.Delhi, Delhi",8044014279,
"PP Cotton Magical Unicorn LED Light Plush and Soft Toy Pillow, For Home, Size/Dimension: 34 X 38 X 24 Centimeters",https://www.indiamart.com/proddetail/magical-unicorn-led-light-plush-and-soft-toy-pillow-24329003755.html?pos=46&kwd=soft toy baby bed&tags=||||8769.508|Price|product|||TS|rsf:gd-|-qr_nm:gd|res:RC4|com-cf:nl|ptrs:na|ktp:N0|mc:223875|mtp:S|qry_typ:P|lang:en|wc:4|cs:7593|v=4,Nyrwana,https://www.nyrwana.in/?pos=46&kwd=soft toy baby bed&tags=||||8769.508|Price|product|||TS|rsf:gd-|-qr_nm:gd|res:RC4|com-cf:nl|ptrs:na|ktp:N0|mc:223875|mtp:S|qry_typ:P|lang:en|wc:4|cs:7593|v=4,False,Ballabgarh,Faridabad,"Both No 87 New Anaz Mandi Opp Bharat Petrol Pump G.T.Road, Ballabgarh, Ballabgarh, Faridabad - 121004, Dist.Faridabad, Haryana",8047635696,
Multicolor Rectangular Kids Soft learning cushion,https://www.indiamart.com/proddetail/kids-soft-learning-cushion-25940788091.html?pos=47&kwd=soft toy baby bed&tags=||||8230.883|Price|product|||TS|rsf:gd-|-qr_nm:gd|res:RC4|com-cf:nl|ptrs:na|ktp:N0|mc:223875|mtp:S|qry_typ:P|lang:en|wc:4|cs:7593|v=4,Shreeji Retails,https://www.thesajanihouse.com/?pos=47&kwd=soft toy baby bed&tags=||||8230.883|Price|product|||TS|rsf:gd-|-qr_nm:gd|res:RC4|com-cf:nl|ptrs:na|ktp:N0|mc:223875|mtp:S|qry_typ:P|lang:en|wc:4|cs:7593|v=4,False,Alankar Society,Surat,"PLOT NO- 17, OM SATYAM NAGAR SOC., DABHOLI CHAR RASTA, VED ROAD, Alankar Society, Surat - 395004, Dist.Surat, Gujarat",8047654270,
Multicolor Rectangular Kids Soft Learning Cushion,https://www.indiamart.com/proddetail/kids-soft-learning-cushion-26030893188.html?pos=48&kwd=soft toy baby bed&tags=||||8230.883|Price|product|||TS|rsf:gd-|-qr_nm:gd|res:RC4|com-cf:nl|ptrs:na|ktp:N0|mc:223875|mtp:S|qry_typ:P|lang:en|wc:4|cs:7593|v=4,Quality Zone,https://www.qualityzoneindia.com/?pos=48&kwd=soft toy baby bed&tags=||||8230.883|Price|product|||TS|rsf:gd-|-qr_nm:gd|res:RC4|com-cf:nl|ptrs:na|ktp:N0|mc:223875|mtp:S|qry_typ:P|lang:en|wc:4|cs:7593|v=4,False,Dabholi,Surat,"Plot No-17, Sy No-93/94, 1st Floor, Om Satyam Nagar Society, Ved Road, Dabholi Char Rasta, Dabholi, Surat - 395004, Dist.Surat, Gujarat",8048971766,
"Cotton Cartoon Printed Baby Mosquito Net Bed, Size: Small",https://www.indiamart.com/proddetail/cartoon-printed-baby-mosquito-net-bed-2853223846333.html?pos=49&kwd=soft toy baby bed&tags=||||8211.142||product|||MDC|rsf:gd-|-qr_nm:gd|res:RC4|com-cf:nl|ptrs:na|ktp:N0|mc:223875|mtp:S|qry_typ:P|lang:en|wc:4|cs:7593|v=4,Baby Boutique,https://www.indiamart.com/baby-boutiquemumbai/?pos=49&kwd=soft toy baby bed&tags=||||8211.142||product|||MDC|rsf:gd-|-qr_nm:gd|res:RC4|com-cf:nl|ptrs:na|ktp:N0|mc:223875|mtp:S|qry_typ:P|lang:en|wc:4|cs:7593|v=4,False,Masjid Bandar,Mumbai,"7th, 95/99 Flat No. 701, Noori Tower, Sherriff Devi Street, Mandvi, Masjid Bandar, West Mumbai, Masjid Bandar, Mumbai - 400003, Dist.Mumbai, Maharashtra",7942960570,
"Stripe Recron Blue Zipper Baby Bedding Set, For Home",https://www.indiamart.com/proddetail/blue-zipper-baby-bedding-set-24888050462.html?pos=50&kwd=soft toy baby bed&tags=||||8954.051|Price|product|||MDC|rsf:gd-|-qr_nm:gd|res:RC4|com-cf:nl|ptrs:na|ktp:N0|mc:223875|mtp:S|qry_typ:P|lang:en|wc:4|cs:7593|v=4,Adhoniyah,https://www.indiamart.com/adhoniyah/?pos=50&kwd=soft toy baby bed&tags=||||8954.051|Price|product|||MDC|rsf:gd-|-qr_nm:gd|res:RC4|com-cf:nl|ptrs:na|ktp:N0|mc:223875|mtp:S|qry_typ:P|lang:en|wc:4|cs:7593|v=4,False,Jamalia,Chennai,"Ground Floor,5/4,Strahans Road I St Street,Otteri, Jamalia, Chennai - 600012, Dist.Chennai, Tamil Nadu",8048274134,
Baby Learning Cushion Soft Toys,https://www.indiamart.com/proddetail/baby-learning-cushion-soft-toys-2853572993391.html?pos=51&kwd=soft toy baby bed&tags=||||8230.883|Price|product|||MDC|rsf:gd-|-qr_nm:gd|res:RC4|com-cf:nl|ptrs:na|ktp:N0|mc:223875|mtp:S|qry_typ:P|lang:en|wc:4|cs:7593|v=4,Uma Enterprise,https://www.indiamart.com/umaenterprisesurat/?pos=51&kwd=soft toy baby bed&tags=||||8230.883|Price|product|||MDC|rsf:gd-|-qr_nm:gd|res:RC4|com-cf:nl|ptrs:na|ktp:N0|mc:223875|mtp:S|qry_typ:P|lang:en|wc:4|cs:7593|v=4,False,Majura Gate,Surat,"72, Hari Ichchha Industrial Co Op Society, A K Road, Majura Gate, Surat - 395008, Dist.Surat, Gujarat",7942713138,
"Velvet Kids Sofa Toy, 1-3 Years",https://www.indiamart.com/proddetail/kids-sofa-toy-25567408030.html?pos=52&kwd=soft toy baby bed&tags=||||8747.203|Price|product|||TS|rsf:gd-|-qr_nm:gd|res:RC4|com-cf:nl|ptrs:na|ktp:N0|mc:223875|mtp:S|qry_typ:P|lang:en|wc:4|cs:7593|v=4,Mansimrat Textiles,https://www.indiamart.com/mansimrat-textiles/?pos=52&kwd=soft toy baby bed&tags=||||8747.203|Price|product|||TS|rsf:gd-|-qr_nm:gd|res:RC4|com-cf:nl|ptrs:na|ktp:N0|mc:223875|mtp:S|qry_typ:P|lang:en|wc:4|cs:7593|v=4,False,Chawla Colony,Panipat,"Khasra No 295/2, Mansimrat Textiles, Ward-11 Near Matta Chowk, Chawla Colony, Panipat - 132103, Dist.Panipat, Haryana",8046040249,
"Velvet Printed Quirky Cushion , Kids Cushion , Soft Toys",https://www.indiamart.com/proddetail/quirky-cushion-kids-cushion-soft-toys-17804558155.html?pos=53&kwd=soft toy baby bed&tags=||||8752.144|Price|product|||TS|rsf:gd-|-qr_nm:gd|res:RC4|com-cf:nl|ptrs:na|ktp:N0|mc:223875|mtp:S|qry_typ:P|lang:en|wc:4|cs:7593|v=4,Stybuzz,https://www.indiamart.com/stybuzz/?pos=53&kwd=soft toy baby bed&tags=||||8752.144|Price|product|||TS|rsf:gd-|-qr_nm:gd|res:RC4|com-cf:nl|ptrs:na|ktp:N0|mc:223875|mtp:S|qry_typ:P|lang:en|wc:4|cs:7593|v=4,False,Patparganj Industrial Area,New Delhi,"Plot No. 400, First Floor, Patparganj Industrial Area, New Delhi - 110092, Dist.Delhi, Delhi",8048961845,
"Multicolor Plush Giraffe Shaped Baby Bed Pillow 35 cm, Newly Born",https://www.indiamart.com/proddetail/giraffe-shaped-baby-bed-pillow-35-cm-2852829141488.html?pos=54&kwd=soft toy baby bed&tags=||||8788.382|Price|product|||TS|rsf:gd-|-qr_nm:gd|res:RC4|com-cf:nl|ptrs:na|ktp:N0|mc:223875|mtp:S|qry_typ:P|lang:en|wc:4|cs:7593|v=4,Puran Enterprises,https://www.indiamart.com/puranenterprises-uttarpradesh/?pos=54&kwd=soft toy baby bed&tags=||||8788.382|Price|product|||TS|rsf:gd-|-qr_nm:gd|res:RC4|com-cf:nl|ptrs:na|ktp:N0|mc:223875|mtp:S|qry_typ:P|lang:en|wc:4|cs:7593|v=4,False,Bisrakh Jalalpur Village,Greater Noida,"KHS-508, Haldauni, Toy City, Ecotech 3,, Bisrakh Jalalpur Village, Greater Noida - 201306, Dist.Gautam Budh Nagar, Uttar Pradesh",7942719521,
Kids Soft Sofa,https://www.indiamart.com/proddetail/kids-soft-sofa-2854468038091.html?pos=55&kwd=soft toy baby bed&tags=||||8752.144|Price|product|||MDC|rsf:gd-|-qr_nm:gd|res:RC4|com-cf:nl|ptrs:na|ktp:N0|mc:223875|mtp:S|qry_typ:P|lang:en|wc:4|cs:7593|v=4,R K Enterprises,https://www.indiamart.com/r-kenterprisesnorthnewdelhi/?pos=55&kwd=soft toy baby bed&tags=||||8752.144|Price|product|||MDC|rsf:gd-|-qr_nm:gd|res:RC4|com-cf:nl|ptrs:na|ktp:N0|mc:223875|mtp:S|qry_typ:P|lang:en|wc:4|cs:7593|v=4,False,North Delhi,New Delhi,"House No-235, Yadav Nagar, Block-E, Samaypur, North Delhi, New Delhi - 110042, Dist.Delhi, Delhi",7949337344,
"Polyester Small Elephant Baby Soft Sofa, 1-3 Years",https://www.indiamart.com/proddetail/small-elephant-baby-soft-sofa-2850821511688.html?pos=56&kwd=soft toy baby bed&tags=||||8752.144|Price|product|||TS|rsf:gd-|-qr_nm:gd|res:RC4|com-cf:nl|ptrs:na|ktp:N0|mc:223875|mtp:S|qry_typ:P|lang:en|wc:4|cs:7593|v=4,Bankey Bihari Enterprises,https://www.indiamart.com/bankey-bihari-enterprisesnewdelhi/?pos=56&kwd=soft toy baby bed&tags=||||8752.144|Price|product|||TS|rsf:gd-|-qr_nm:gd|res:RC4|com-cf:nl|ptrs:na|ktp:N0|mc:223875|mtp:S|qry_typ:P|lang:en|wc:4|cs:7593|v=4,False,Jahangirpuri,New Delhi,"Plot No 51 First Floor Street No 11 Harijan Colony Village Bhalsva, Jahangirpuri, New Delhi - 110033, Dist.Delhi, Delhi",7942825166,
Baby Bed Play Gym,https://www.indiamart.com/proddetail/baby-bed-play-gym-2849778024597.html?pos=57&kwd=soft toy baby bed&tags=||||8747.203|Price|product|||TS|rsf:gd-|-qr_nm:gd|res:RC4|com-cf:nl|ptrs:na|ktp:N0|mc:223875|mtp:S|qry_typ:P|lang:en|wc:4|cs:7593|v=4,Shiv Textiles,https://www.indiamart.com/shivtextilespanipat/?pos=57&kwd=soft toy baby bed&tags=||||8747.203|Price|product|||TS|rsf:gd-|-qr_nm:gd|res:RC4|com-cf:nl|ptrs:na|ktp:N0|mc:223875|mtp:S|qry_typ:P|lang:en|wc:4|cs:7593|v=4,False,Jagjivan Ram Colony,Panipat,"Shop No.19-C, Aggarwal Gali Number 1, Gohana Road, Jagjivan Ram Colony, Panipat - 132103, Dist.Panipat, Haryana",7942665530,
"Foam Pillow Rectangular Lilac Baby Bedding Set, Cotton",https://www.indiamart.com/proddetail/lilac-baby-bedding-set-2854492866812.html?pos=58&kwd=soft toy baby bed&tags=||||8747.203|Price|product|||MDC|rsf:gd-|-qr_nm:gd|res:RC4|com-cf:nl|ptrs:na|ktp:N0|mc:223875|mtp:S|qry_typ:P|lang:en|wc:4|cs:7593|v=4,Gandhi Wooltex,https://www.indiamart.com/gandhiwooltex/?pos=58&kwd=soft toy baby bed&tags=||||8747.203|Price|product|||MDC|rsf:gd-|-qr_nm:gd|res:RC4|com-cf:nl|ptrs:na|ktp:N0|mc:223875|mtp:S|qry_typ:P|lang:en|wc:4|cs:7593|v=4,False,,Panipat,"H No. 538, Sector 12, Huda, Panipat - 132103, Dist.Panipat, Haryana",7949338841,
Baby Soft Mattress,https://www.indiamart.com/proddetail/baby-soft-mattress-2852769427788.html?pos=59&kwd=soft toy baby bed&tags=||||8307.81||product|||MDC|rsf:gd-|-qr_nm:gd|res:RC4|com-cf:nl|ptrs:na|ktp:N0|mc:223875|mtp:S|qry_typ:P|lang:en|wc:4|cs:7593|v=4,Shakti Mattresses,https://www.indiamart.com/shakti-mattresses/?pos=59&kwd=soft toy baby bed&tags=||||8307.81||product|||MDC|rsf:gd-|-qr_nm:gd|res:RC4|com-cf:nl|ptrs:na|ktp:N0|mc:223875|mtp:S|qry_typ:P|lang:en|wc:4|cs:7593|v=4,False,Undri,Pune,"Hissa No 2B/E, Inamdar Nagar, Survey No 63, Hadapsar, Undri, Pune - 411028, Dist.Pune, Maharashtra",7942708150,
"Cotton Printed Baby Soft Mat, Newly Born",https://www.indiamart.com/proddetail/printed-baby-soft-mattress-2854921949388.html?pos=60&kwd=soft toy baby bed&tags=||||8876.815|Price|product|||MDC|rsf:gd-|-qr_nm:gd|res:RC4|com-cf:nl|ptrs:na|ktp:N0|mc:223875|mtp:S|qry_typ:P|lang:en|wc:4|cs:7593|v=4,Good Luck Trading,https://www.indiamart.com/goodlucktrading-nagpur/?pos=60&kwd=soft toy baby bed&tags=||||8876.815|Price|product|||MDC|rsf:gd-|-qr_nm:gd|res:RC4|com-cf:nl|ptrs:na|ktp:N0|mc:223875|mtp:S|qry_typ:P|lang:en|wc:4|cs:7593|v=4,False,,Nagpur,"Plot No. 807, Dharamchaya Fawara Chowk Builing, Nikalas Mandir Road, Itwari, Nagpur - 440002, Dist.Nagpur, Maharashtra",8041014474,
"Fcae Colour And Blue 15inch Cotton Soft Baby Blanket Set, Size: Singe",https://www.indiamart.com/proddetail/15inch-cotton-soft-baby-blanket-set-2853473342430.html?pos=61&kwd=soft toy baby bed&tags=||||8230.883|Price|product|||MDC|rsf:gd-|-qr_nm:gd|res:RC4|com-cf:nl|ptrs:na|ktp:N0|mc:223875|mtp:S|qry_typ:P|lang:en|wc:4|cs:7593|v=4,Riyo Enterprise,https://www.indiamart.com/riyo-enterprise-surat/?pos=61&kwd=soft toy baby bed&tags=||||8230.883|Price|product|||MDC|rsf:gd-|-qr_nm:gd|res:RC4|com-cf:nl|ptrs:na|ktp:N0|mc:223875|mtp:S|qry_typ:P|lang:en|wc:4|cs:7593|v=4,False,Punagam,Surat,"Ground Floor, A-228, Narayannagar Society, Punagam Road, Nalanda Vidhyalay, Punagam, Punagam, Surat - 395010, Dist.Surat, Gujarat",8045910533,
Thickness: 4 Inches Size: Single Hello Kitty Printed Baby Mattress,https://www.indiamart.com/proddetail/hello-kitty-printed-baby-mattress-2851012562955.html?pos=62&kwd=soft toy baby bed&tags=||||9571.5205|Price|product|||MDC|rsf:gd-|-qr_nm:gd|res:RC4|com-cf:nl|ptrs:na|ktp:N0|mc:223875|mtp:S|qry_typ:P|lang:en|wc:4|cs:7593|v=4,Aroma Industries,https://www.indiamart.com/aromaindustriespuri/?pos=62&kwd=soft toy baby bed&tags=||||9571.5205|Price|product|||MDC|rsf:gd-|-qr_nm:gd|res:RC4|com-cf:nl|ptrs:na|ktp:N0|mc:223875|mtp:S|qry_typ:P|lang:en|wc:4|cs:7593|v=4,False,Siula,Puri,"Dandamakundapur, Pipili, Siula, Puri - 752104, Dist.Puri, Odisha",7942828760,
Baby Bedding Set,https://www.indiamart.com/proddetail/baby-bedding-set-2854023970712.html?pos=63&kwd=soft toy baby bed&tags=||||8228.275|Price|product|||MDC|rsf:gd-|-qr_nm:gd|res:RC4|com-cf:nl|ptrs:na|ktp:N0|mc:223875|mtp:S|qry_typ:P|lang:en|wc:4|cs:7593|v=4,Mahalaxmi Babycare Products LLP,https://www.indiamart.com/mahalaxmibabycareproducts/?pos=63&kwd=soft toy baby bed&tags=||||8228.275|Price|product|||MDC|rsf:gd-|-qr_nm:gd|res:RC4|com-cf:nl|ptrs:na|ktp:N0|mc:223875|mtp:S|qry_typ:P|lang:en|wc:4|cs:7593|v=4,False,Bapunagar,Ahmedabad,"Survey No. 00697/4585, B No 697/4585 Gujarat Hou Board, Bapunagar, Bapunagar, Ahmedabad - 382424, Dist.Ahmedabad, Gujarat",8047787256,
Cotton MUITICOLOR Newborn Baby Play Mat Toys Cute Soft Hanging Toys for 0 to 12 Months,https://www.indiamart.com/proddetail/newborn-baby-play-mat-toys-cute-soft-hanging-toys-for-0-to-12-months-25700141891.html?pos=64&kwd=soft toy baby bed&tags=||||8752.144|Price|product|||TS|rsf:gd-|-qr_nm:gd|res:RC4|com-cf:nl|ptrs:na|ktp:N0|mc:223875|mtp:S|qry_typ:P|lang:en|wc:4|cs:7593|v=4,Ashish Trading Co.,https://www.indiamart.com/ashish-trading/?pos=64&kwd=soft toy baby bed&tags=||||8752.144|Price|product|||TS|rsf:gd-|-qr_nm:gd|res:RC4|com-cf:nl|ptrs:na|ktp:N0|mc:223875|mtp:S|qry_typ:P|lang:en|wc:4|cs:7593|v=4,False,Shalimar Bagh,New Delhi,"BC- 67 A, East Shalimar Bagh, Kela Godown Road Shalimar, Shalimar Bagh, New Delhi - 110088, Dist.Delhi, Delhi",8048979347,
U Red Kids Soft Neck Pillow,https://www.indiamart.com/proddetail/red-kids-soft-neck-pillow-2854128618791.html?pos=65&kwd=soft toy baby bed&tags=||||8752.144|Price|product|||MDC|rsf:gd-|-qr_nm:gd|res:RC4|com-cf:nl|ptrs:na|ktp:N0|mc:223875|mtp:S|qry_typ:P|lang:en|wc:4|cs:7593|v=4,Komal Embroidery,https://www.indiamart.com/komal-embroidery-newdelhi/?pos=65&kwd=soft toy baby bed&tags=||||8752.144|Price|product|||MDC|rsf:gd-|-qr_nm:gd|res:RC4|com-cf:nl|ptrs:na|ktp:N0|mc:223875|mtp:S|qry_typ:P|lang:en|wc:4|cs:7593|v=4,False,Rithala,New Delhi,"Ground Floor, Shop No. PVT-3, KH No. 1203, Lal Doora Village Rithala Near Surya Hotel, Rithala, New Delhi - 110085, Dist.Delhi, Delhi",8045730251,
Soft Haze Baby Bed,https://www.indiamart.com/proddetail/soft-haze-baby-bed-2854490469033.html?pos=66&kwd=soft toy baby bed&tags=||||8954.051|Price|product|||MDC|rsf:gd-|-qr_nm:gd|res:RC4|com-cf:nl|ptrs:na|ktp:N0|mc:223875|mtp:S|qry_typ:P|lang:en|wc:4|cs:7593|v=4,Earthwise Collective Private Limited,https://www.indiamart.com/earthwise-collective/?pos=66&kwd=soft toy baby bed&tags=||||8954.051|Price|product|||MDC|rsf:gd-|-qr_nm:gd|res:RC4|com-cf:nl|ptrs:na|ktp:N0|mc:223875|mtp:S|qry_typ:P|lang:en|wc:4|cs:7593|v=4,False,,Chennai,"9/2, 35/2, Bagirathiammal Street, T Nagar,, Chennai - 600017, Dist.Chennai, Tamil Nadu",7942801118,
White(Base) Rectangular Baby Chunky Soft Cotton Baby Bed Crib Sheet,https://www.indiamart.com/proddetail/baby-chunky-soft-cotton-baby-bed-crib-sheet-2854507557355.html?pos=67&kwd=soft toy baby bed&tags=||||8663.873|Price|product|||MDC|rsf:gd-|-qr_nm:gd|res:RC4|com-cf:nl|ptrs:na|ktp:N0|mc:223875|mtp:S|qry_typ:P|lang:en|wc:4|cs:7593|v=4,AQ Corporation,https://www.indiamart.com/aqcorporation/?pos=67&kwd=soft toy baby bed&tags=||||8663.873|Price|product|||MDC|rsf:gd-|-qr_nm:gd|res:RC4|com-cf:nl|ptrs:na|ktp:N0|mc:223875|mtp:S|qry_typ:P|lang:en|wc:4|cs:7593|v=4,False,,Bengaluru,"Ground And First Floor, No 88, 2nd Cross, 4th Main, NGEF Layout, Nagashetty Halli, Sanjaynagar Bengaluru Urban, Bengaluru - 560094, Dist.Bengaluru, Karnataka",7949325043,
"Cotton Pink Soft Baby Bedding, For Home",https://www.indiamart.com/proddetail/soft-baby-bedding-13112795188.html?pos=68&kwd=soft toy baby bed&tags=||||8954.051|Price|product|||TS|rsf:gd-|-qr_nm:gd|res:RC4|com-cf:nl|ptrs:na|ktp:N0|mc:223875|mtp:S|qry_typ:P|lang:en|wc:4|cs:7593|v=4,Hindustan Industries,https://www.indiamart.com/hindustanindustries-chennai/?pos=68&kwd=soft toy baby bed&tags=||||8954.051|Price|product|||TS|rsf:gd-|-qr_nm:gd|res:RC4|com-cf:nl|ptrs:na|ktp:N0|mc:223875|mtp:S|qry_typ:P|lang:en|wc:4|cs:7593|v=4,False,Seven Wells,Chennai,"No. 10/40, Mangammal Street Seven Wells, Seven Wells, Chennai - 600001, Dist.Chennai, Tamil Nadu",8046071147,
"Soft Baby Wool Bedding Set - cream, For Home, Solid",https://www.indiamart.com/proddetail/soft-baby-wool-bedding-set-cream-2852506098430.html?pos=69&kwd=soft toy baby bed&tags=||||8752.144|Price|product|||TS|rsf:gd-|-qr_nm:gd|res:RC4|com-cf:nl|ptrs:na|ktp:N0|mc:223875|mtp:S|qry_typ:P|lang:en|wc:4|cs:7593|v=4,Ekta Overseas,https://www.indiamart.com/ektaoverseas-newdelhi/?pos=69&kwd=soft toy baby bed&tags=||||8752.144|Price|product|||TS|rsf:gd-|-qr_nm:gd|res:RC4|com-cf:nl|ptrs:na|ktp:N0|mc:223875|mtp:S|qry_typ:P|lang:en|wc:4|cs:7593|v=4,False,Shahdara,New Delhi,"1/95, Gali No.3, Near Navjeevan Phisical Center, Vishwas Nagar, Shahdara,, Shahdara, New Delhi - 110032, Dist.Delhi, Delhi",7942628926,
"Super Soft Blue Furry Baby Sets, For Home",https://www.indiamart.com/proddetail/furry-baby-sets-14304059491.html?pos=70&kwd=soft toy baby bed&tags=||||8747.203|Price|product|||TS|rsf:gd-|-qr_nm:gd|res:RC4|com-cf:nl|ptrs:na|ktp:N0|mc:223875|mtp:S|qry_typ:P|lang:en|wc:4|cs:7593|v=4,Shiv Shakti Handloom Industries,https://www.shivshaktihandloomindustries.com/?pos=70&kwd=soft toy baby bed&tags=||||8747.203|Price|product|||TS|rsf:gd-|-qr_nm:gd|res:RC4|com-cf:nl|ptrs:na|ktp:N0|mc:223875|mtp:S|qry_typ:P|lang:en|wc:4|cs:7593|v=4,False,Panipat City,Panipat,"Shop 12, Krishna Market, Pachranga Bazar, Panipat City, Panipat - 132103, Dist.Panipat, Haryana",8048970618,
Little Innocents Various Baby Bed Set,https://www.indiamart.com/proddetail/baby-bed-set-18999351833.html?pos=71&kwd=soft toy baby bed&tags=||||8211.142|Price|product|||TS|rsf:gd-|-qr_nm:gd|res:RC4|com-cf:nl|ptrs:na|ktp:N0|mc:223875|mtp:S|qry_typ:P|lang:en|wc:4|cs:7593|v=4,Welcome Enterprise,https://www.welcomeenterprise.in/?pos=71&kwd=soft toy baby bed&tags=||||8211.142|Price|product|||TS|rsf:gd-|-qr_nm:gd|res:RC4|com-cf:nl|ptrs:na|ktp:N0|mc:223875|mtp:S|qry_typ:P|lang:en|wc:4|cs:7593|v=4,False,Santacruz West,Mumbai,"1,Gulam Rasul Chawl No. 149,Khot Wadi, Besant Road,Santacruz West, Santacruz West, Mumbai - 400054, Dist.Mumbai, Maharashtra",8048601972,
"Multicolor Polyester Baby Bed Cum Sleeping Bag, Packaging Type: Box, 12 Months",https://www.indiamart.com/proddetail/baby-bed-cum-sleeping-bag-2850321348030.html?pos=72&kwd=soft toy baby bed&tags=||||8752.144|Price|product|||TS|rsf:gd-|-qr_nm:gd|res:RC4|com-cf:nl|ptrs:na|ktp:N0|mc:223875|mtp:S|qry_typ:P|lang:en|wc:4|cs:7593|v=4,House Of Luxury,https://www.theholworld.net/?pos=72&kwd=soft toy baby bed&tags=||||8752.144|Price|product|||TS|rsf:gd-|-qr_nm:gd|res:RC4|com-cf:nl|ptrs:na|ktp:N0|mc:223875|mtp:S|qry_typ:P|lang:en|wc:4|cs:7593|v=4,False,Budh Vihar,New Delhi,"Plot No - 5, Kh. No. - 89/10/2, 1, Block No. - I-1, Budh Vihar Phase 1, Delhi, North West Delhi, Del, Budh Vihar, New Delhi - 110086, Dist.Delhi, Delhi",7942819716,
"Lorem Pink Kids Learning Pillow In English & Hindi Abcd, Birds, Fruits, Vegetable, Animal Bb103",https://www.indiamart.com/proddetail/lorem-pink-kids-learning-pillow-in-english-hindi-abcd-birds-fruits-vegetable-animal-bb103-2852803846148.html?pos=73&kwd=soft toy baby bed&tags=||||8230.883|Price|product|||TS|rsf:gd-|-qr_nm:gd|res:RC4|com-cf:nl|ptrs:na|ktp:N0|mc:223875|mtp:S|qry_typ:P|lang:en|wc:4|cs:7593|v=4,S J Fashion,https://www.indiamart.com/sjfashion/?pos=73&kwd=soft toy baby bed&tags=||||8230.883|Price|product|||TS|rsf:gd-|-qr_nm:gd|res:RC4|com-cf:nl|ptrs:na|ktp:N0|mc:223875|mtp:S|qry_typ:P|lang:en|wc:4|cs:7593|v=4,False,Punagam,Surat,"B4, Basement, Polaris Mall Punagam BRTS canal Road,, Punagam, Surat - 395010, Dist.Surat, Gujarat",8048958543,
"Plain Cotton Baby Dry Sheet Waterproof Medium Size, Blue",https://www.indiamart.com/proddetail/cotton-baby-dry-sheet-waterproof-medium-size-2850468131755.html?pos=74&kwd=soft toy baby bed&tags=||||8752.144|Price|product|||TS|rsf:gd-|-qr_nm:gd|res:RC4|com-cf:nl|ptrs:na|ktp:N0|mc:223875|mtp:S|qry_typ:P|lang:en|wc:4|cs:7593|v=4,R B Enterprises,https://www.indiamart.com/rbenterpriseskondalinewdelhi/?pos=74&kwd=soft toy baby bed&tags=||||8752.144|Price|product|||TS|rsf:gd-|-qr_nm:gd|res:RC4|com-cf:nl|ptrs:na|ktp:N0|mc:223875|mtp:S|qry_typ:P|lang:en|wc:4|cs:7593|v=4,False,Gharoli,New Delhi,"Ground, 58 F/F/R/S Brahman Basti, Kondli Main Road, Kondli Gharoli,, Gharoli, New Delhi - 110094, Dist.Delhi, Delhi",7942535965,
"Soft Fabric White Baby Pillow, For gift, Size/Dimension: 35*30 CM",https://www.indiamart.com/proddetail/kity-baby-pillow-23575855391.html?pos=75&kwd=soft toy baby bed&tags=||||9045.955|Price|product|||TS|rsf:gd-|-qr_nm:gd|res:RC4|com-cf:nl|ptrs:na|ktp:N0|mc:223875|mtp:S|qry_typ:P|lang:en|wc:4|cs:7593|v=4,Divya Soft Toys,https://www.divyasofttoys.com/?pos=75&kwd=soft toy baby bed&tags=||||9045.955|Price|product|||TS|rsf:gd-|-qr_nm:gd|res:RC4|com-cf:nl|ptrs:na|ktp:N0|mc:223875|mtp:S|qry_typ:P|lang:en|wc:4|cs:7593|v=4,False,Sanigawan,Kanpur,"Global Hospital, Plot No. 52, Araji No. 266, Sanigawan Road, Swarn Jayanti Vistar Part-1, Sanigawan, Kanpur - 208021, Uttar Pradesh",8046078101,
Brown Cotton Baby Waterproof Mattresses,https://www.indiamart.com/proddetail/baby-waterproof-mattresses-2854552278033.html?pos=76&kwd=soft toy baby bed&tags=||||8747.203|Price|product|||TS|rsf:gd-|-qr_nm:gd|res:RC4|com-cf:nl|ptrs:na|ktp:N0|mc:223875|mtp:S|qry_typ:P|lang:en|wc:4|cs:7593|v=4,Vinayak Enterprises,https://www.vinayakenterprisesind.com/?pos=76&kwd=soft toy baby bed&tags=||||8747.203|Price|product|||TS|rsf:gd-|-qr_nm:gd|res:RC4|com-cf:nl|ptrs:na|ktp:N0|mc:223875|mtp:S|qry_typ:P|lang:en|wc:4|cs:7593|v=4,False,,Panipat,"611/24 Opp. Goyal Petrol Pump Kishan Pura, Panipat - 132103, Dist.Panipat, Haryana",8045907780,
Baby Godadi Set,https://www.indiamart.com/proddetail/baby-godadi-set-2854677779088.html?pos=77&kwd=soft toy baby bed&tags=||||8230.883|Price|product|||MDC|rsf:gd-|-qr_nm:gd|res:RC4|com-cf:nl|ptrs:na|ktp:N0|mc:223875|mtp:S|qry_typ:P|lang:en|wc:4|cs:7593|v=4,Grow More Enterprise,https://www.indiamart.com/growmoreenterprise-surat/?pos=77&kwd=soft toy baby bed&tags=||||8230.883|Price|product|||MDC|rsf:gd-|-qr_nm:gd|res:RC4|com-cf:nl|ptrs:na|ktp:N0|mc:223875|mtp:S|qry_typ:P|lang:en|wc:4|cs:7593|v=4,False,Punagam,Surat,"C 38, Matrushakti Society, Punagam, Punagam, Surat - 395010, Dist.Surat, Gujarat",7942722776,
Blue Rectangular INFLATABLE BABY SLAPPED PAD TOY FLOOR CUSHION,https://www.indiamart.com/proddetail/inflatable-baby-slapped-pad-toy-floor-cushion-2854888861533.html?pos=78&kwd=soft toy baby bed&tags=||||8230.883|Price|product|||MDC|rsf:gd-|-qr_nm:gd|res:RC4|com-cf:nl|ptrs:na|ktp:N0|mc:223875|mtp:S|qry_typ:P|lang:en|wc:4|cs:7593|v=4,Balar Corporation,https://www.indiamart.com/balar-corporation/?pos=78&kwd=soft toy baby bed&tags=||||8230.883|Price|product|||MDC|rsf:gd-|-qr_nm:gd|res:RC4|com-cf:nl|ptrs:na|ktp:N0|mc:223875|mtp:S|qry_typ:P|lang:en|wc:4|cs:7593|v=4,False,,Surat,"C-504, Rameshvaram Regency, Utran, Surat - 394105, Dist.Surat, Gujarat",8045734410,
mix Rectangular Baby Bedding Set With Mosquito Net playzym,https://www.indiamart.com/proddetail/baby-bedding-set-with-mosquito-net-playzym-2853606689491.html?pos=79&kwd=soft toy baby bed&tags=||||8737.904|Price|product|||MDC|rsf:gd-|-qr_nm:gd|res:RC4|com-cf:nl|ptrs:na|ktp:N0|mc:223875|mtp:S|qry_typ:P|lang:en|wc:4|cs:7593|v=4,PB Enterprises,https://www.indiamart.com/pb-enterprises-asankhurd/?pos=79&kwd=soft toy baby bed&tags=||||8737.904|Price|product|||MDC|rsf:gd-|-qr_nm:gd|res:RC4|com-cf:nl|ptrs:na|ktp:N0|mc:223875|mtp:S|qry_typ:P|lang:en|wc:4|cs:7593|v=4,False,Panipat Thermal Project,Asankhurd,"Na 736/3 Oppt. Pandit Ji Sweet , Sondhapur Colony Hari Om, Panipat Thermal Project, Asankhurd - 132105, Haryana",7949092975,
"Polyester Small Elephant Baby Soft Sofa, 1-3 Years",https://www.indiamart.com/proddetail/small-elephant-baby-soft-sofa-2850821511688.html?pos=80&kwd=soft toy baby bed&tags=||||8752.144|Price|product|||TS|rsf:gd-|-qr_nm:gd|res:RC4|com-cf:nl|ptrs:na|ktp:N0|mc:223875|mtp:S|qry_typ:P|lang:en|wc:4|cs:7593|v=4,Bankey Bihari Enterprises,https://www.indiamart.com/bankey-bihari-enterprisesnewdelhi/?pos=80&kwd=soft toy baby bed&tags=||||8752.144|Price|product|||TS|rsf:gd-|-qr_nm:gd|res:RC4|com-cf:nl|ptrs:na|ktp:N0|mc:223875|mtp:S|qry_typ:P|lang:en|wc:4|cs:7593|v=4,False,Jahangirpuri,New Delhi,"Plot No 51 First Floor Street No 11 Harijan Colony Village Bhalsva, Jahangirpuri, New Delhi - 110033, Dist.Delhi, Delhi",7942825166,
Bamboo Kids Mudha Chair And Sofa Set,https://www.indiamart.com/proddetail/bamboo-kids-mudha-chair-and-sofa-set-2854980383512.html?pos=81&kwd=soft toy baby bed&tags=||||8752.144|Price|product|||TS|rsf:gd-|-qr_nm:gd|res:RC4|com-cf:nl|ptrs:na|ktp:N0|mc:223875|mtp:S|qry_typ:P|lang:en|wc:4|cs:7593|v=4,Craferia Export Llp,https://www.craferiaexport.com/?pos=81&kwd=soft toy baby bed&tags=||||8752.144|Price|product|||TS|rsf:gd-|-qr_nm:gd|res:RC4|com-cf:nl|ptrs:na|ktp:N0|mc:223875|mtp:S|qry_typ:P|lang:en|wc:4|cs:7593|v=4,True,N.S.I.T. Dwarka,New Delhi,"H.No 319, 3rd Floor, Pocket 1, Sector 12, Dwarka,Near Metro Station,, N.S.I.T. Dwarka, New Delhi - 110078, Dist.Delhi, Delhi",8047671940,
Multicolor puls Baby Soft Plush Cushion Cotton Sofa Seat,https://www.indiamart.com/proddetail/baby-soft-plush-cushion-cotton-sofa-seat-2852561797512.html?pos=82&kwd=soft toy baby bed&tags=||||8752.144|Price|product|||TS|rsf:gd-|-qr_nm:gd|res:RC4|com-cf:nl|ptrs:na|ktp:N0|mc:223875|mtp:S|qry_typ:P|lang:en|wc:4|cs:7593|v=4,M.S. Toys,https://www.indiamart.com/mstoys/?pos=82&kwd=soft toy baby bed&tags=||||8752.144|Price|product|||TS|rsf:gd-|-qr_nm:gd|res:RC4|com-cf:nl|ptrs:na|ktp:N0|mc:223875|mtp:S|qry_typ:P|lang:en|wc:4|cs:7593|v=4,False,shakurpur village,New Delhi,"GROUND FLOOR,,Balbir Singh Sidhu Marg,New Delhi, shakurpur village, New Delhi - 110034, Dist.Delhi, Delhi",7942866491,
Thickness: 4 Inches Size: Single Hello Kitty Printed Baby Mattress,https://www.indiamart.com/proddetail/hello-kitty-printed-baby-mattress-2851012562955.html?pos=83&kwd=soft toy baby bed&tags=||||9571.5205|Price|product|||MDC|rsf:gd-|-qr_nm:gd|res:RC4|com-cf:nl|ptrs:na|ktp:N0|mc:223875|mtp:S|qry_typ:P|lang:en|wc:4|cs:7593|v=4,Aroma Industries,https://www.indiamart.com/aromaindustriespuri/?pos=83&kwd=soft toy baby bed&tags=||||9571.5205|Price|product|||MDC|rsf:gd-|-qr_nm:gd|res:RC4|com-cf:nl|ptrs:na|ktp:N0|mc:223875|mtp:S|qry_typ:P|lang:en|wc:4|cs:7593|v=4,False,Siula,Puri,"Dandamakundapur, Pipili, Siula, Puri - 752104, Dist.Puri, Odisha",7942828760,
Multicolor Rectangular INFLATABLE BABY SLAPPED PAD TOY FLOOR CUSHION,https://www.indiamart.com/proddetail/inflatable-baby-slapped-pad-toy-floor-cushion-2851732273012.html?pos=84&kwd=soft toy baby bed&tags=||||8230.883|Price|product|||TS|rsf:gd-|-qr_nm:gd|res:RC4|com-cf:nl|ptrs:na|ktp:N0|mc:223875|mtp:S|qry_typ:P|lang:en|wc:4|cs:7593|v=4,RJ Enterprise,https://www.indiamart.com/rj-enterprise-surat/?pos=84&kwd=soft toy baby bed&tags=||||8230.883|Price|product|||TS|rsf:gd-|-qr_nm:gd|res:RC4|com-cf:nl|ptrs:na|ktp:N0|mc:223875|mtp:S|qry_typ:P|lang:en|wc:4|cs:7593|v=4,False,Katargam,Surat,"134, Sahjanand Society, N/R Arogyakendra, Katargam, Katargam, Surat - 395004, Dist.Surat, Gujarat",7942555306,
Soft Toys Kids,https://www.indiamart.com/proddetail/soft-toys-kids-4950320491.html?pos=85&kwd=soft toy baby bed&tags=||||8752.144|Price|product|||MDC|rsf:gd-|-qr_nm:gd|res:RC4|com-cf:nl|ptrs:na|ktp:N0|mc:223875|mtp:S|qry_typ:P|lang:en|wc:4|cs:7593|v=4,Strawberry Stop,https://www.indiamart.com/strawberystop/?pos=85&kwd=soft toy baby bed&tags=||||8752.144|Price|product|||MDC|rsf:gd-|-qr_nm:gd|res:RC4|com-cf:nl|ptrs:na|ktp:N0|mc:223875|mtp:S|qry_typ:P|lang:en|wc:4|cs:7593|v=4,False,ROHINI,New Delhi,"A-3/23,BLOCK A,SECTOR 5,ROHINI, ROHINI, New Delhi - 110085, Dist.Delhi, Delhi",8048601210,
"Cotton Teddy Bear Baby Soft Sitting Sofa, 2 Years",https://www.indiamart.com/proddetail/baby-soft-sitting-sofa-4122142212.html?pos=86&kwd=soft toy baby bed&tags=||||8584.299|Price|product|||MDC|rsf:gd-|-qr_nm:gd|res:RC4|com-cf:nl|ptrs:na|ktp:N0|mc:223875|mtp:S|qry_typ:P|lang:en|wc:4|cs:7593|v=4,Coimbatore Vandana Beds,https://www.indiamart.com/coimbatore-vandana-beds/?pos=86&kwd=soft toy baby bed&tags=||||8584.299|Price|product|||MDC|rsf:gd-|-qr_nm:gd|res:RC4|com-cf:nl|ptrs:na|ktp:N0|mc:223875|mtp:S|qry_typ:P|lang:en|wc:4|cs:7593|v=4,False,Town Hall,Coimbatore,"394, Oppanakara Street, Town Hall, Coimbatore - 641001, Dist.Coimbatore, Tamil Nadu",8047697480,
Soft Plush Cushion Baby Sofa Seat Or Rocking Chair for Kids,https://www.indiamart.com/proddetail/soft-plush-cushion-baby-sofa-seat-or-rocking-chair-for-kids-2854576717491.html?pos=87&kwd=soft toy baby bed&tags=||||8230.883|Price|product|||MDC|rsf:gd-|-qr_nm:gd|res:RC4|com-cf:nl|ptrs:na|ktp:N0|mc:223875|mtp:S|qry_typ:P|lang:en|wc:4|cs:7593|v=4,Shiv Marketing,https://www.indiamart.com/shivmarketing/?pos=87&kwd=soft toy baby bed&tags=||||8230.883|Price|product|||MDC|rsf:gd-|-qr_nm:gd|res:RC4|com-cf:nl|ptrs:na|ktp:N0|mc:223875|mtp:S|qry_typ:P|lang:en|wc:4|cs:7593|v=4,False,Katargam,Surat,"2nd Floor Blog-F, Flat 201, Shivam Avenue, Singanpore Dabholi Road, Katargam,, Katargam, Surat - 395004, Dist.Surat, Gujarat",7949093095,
"SLEEPING BAG WHITE Baby Bedding Set, Cotton",https://www.indiamart.com/proddetail/baby-bedding-set-2854041242048.html?pos=88&kwd=soft toy baby bed&tags=||||8717.363|Price|product|||TS|rsf:gd-|-qr_nm:gd|res:RC4|com-cf:nl|ptrs:na|ktp:N0|mc:223875|mtp:S|qry_typ:P|lang:en|wc:4|cs:7593|v=4,Hublot Impex,https://www.hublotimpex.in/?pos=88&kwd=soft toy baby bed&tags=||||8717.363|Price|product|||TS|rsf:gd-|-qr_nm:gd|res:RC4|com-cf:nl|ptrs:na|ktp:N0|mc:223875|mtp:S|qry_typ:P|lang:en|wc:4|cs:7593|v=4,False,Swamy Nagar,Namakkal,"Second Floor 3/227e5/2d West Street, Nalipalayam Bypass Road K J Complex Nallipalayam, Swamy Nagar, Namakkal - 637003, Dist.Namakkal, Tamil Nadu",8048600000,
"Single Bed Canvas Baby Soft Mattress, Packaging Type: Roll",https://www.indiamart.com/proddetail/baby-soft-mattress-11937616248.html?pos=89&kwd=soft toy baby bed&tags=||||8752.144||product|||TS|rsf:gd-|-qr_nm:gd|res:RC4|com-cf:nl|ptrs:na|ktp:N0|mc:223875|mtp:S|qry_typ:P|lang:en|wc:4|cs:7593|v=4,SMC Mattresses Pvt. Ltd.,https://www.indiamart.com/smcmattresses-delhi/?pos=89&kwd=soft toy baby bed&tags=||||8752.144||product|||TS|rsf:gd-|-qr_nm:gd|res:RC4|com-cf:nl|ptrs:na|ktp:N0|mc:223875|mtp:S|qry_typ:P|lang:en|wc:4|cs:7593|v=4,False,Bali Nagar,New Delhi,"C-49 Bali Nagar, Bali Nagar, New Delhi - 110015, Dist.Delhi, Delhi",8046071631,
"White,Blue Cotton,Net Printed Baby Sleeping Bed, Newly Born",https://www.indiamart.com/proddetail/printed-baby-sleeping-bed-23235099655.html?pos=90&kwd=soft toy baby bed&tags=||||8281.036|Price|product|||TS|rsf:gd-|-qr_nm:gd|res:RC4|com-cf:nl|ptrs:na|ktp:N0|mc:223875|mtp:S|qry_typ:P|lang:en|wc:4|cs:7593|v=4,New Era,https://www.indiamart.com/new-era-vadodara/?pos=90&kwd=soft toy baby bed&tags=||||8281.036|Price|product|||TS|rsf:gd-|-qr_nm:gd|res:RC4|com-cf:nl|ptrs:na|ktp:N0|mc:223875|mtp:S|qry_typ:P|lang:en|wc:4|cs:7593|v=4,False,Bapunagar,Vadodara,"G-59 Warasia Ring Road Chaturbhai Park Society Warshiya Main Road, Bapunagar, Vadodara - 390006, Dist.Vadodara, Gujarat",8047768024,
Size: Single Baby Bed Mattress,https://www.indiamart.com/proddetail/baby-bed-mattress-2852334037855.html?pos=91&kwd=soft toy baby bed&tags=||||8601.347||product|||TS|rsf:gd-|-qr_nm:gd|res:RC4|com-cf:nl|ptrs:na|ktp:N0|mc:223875|mtp:S|qry_typ:P|lang:en|wc:4|cs:7593|v=4,Shagun Decor,https://www.shagundecorindia.com/?pos=91&kwd=soft toy baby bed&tags=||||8601.347||product|||TS|rsf:gd-|-qr_nm:gd|res:RC4|com-cf:nl|ptrs:na|ktp:N0|mc:223875|mtp:S|qry_typ:P|lang:en|wc:4|cs:7593|v=4,False,Mansarovar,Jaipur,"No. 33/32, Shiprapath, Mansarovar, Mansarovar, Jaipur - 302020, Dist.Jaipur, Rajasthan",8046044420,
Mix Rectangular Soft Baby Pillows,https://www.indiamart.com/proddetail/soft-baby-pillows-26161335797.html?pos=92&kwd=soft toy baby bed&tags=||||8752.144|Price|product|||TS|rsf:gd-|-qr_nm:gd|res:RC4|com-cf:nl|ptrs:na|ktp:N0|mc:223875|mtp:S|qry_typ:P|lang:en|wc:4|cs:7593|v=4,Ira Impex,https://www.iraimpex.com/?pos=92&kwd=soft toy baby bed&tags=||||8752.144|Price|product|||TS|rsf:gd-|-qr_nm:gd|res:RC4|com-cf:nl|ptrs:na|ktp:N0|mc:223875|mtp:S|qry_typ:P|lang:en|wc:4|cs:7593|v=4,False,,New Delhi,"IIIrd Floor, Khasra No-1110 & 132 V P O, Rithala, New Delhi - 110085, Dist.Delhi, Delhi",8048961100,
Baby-soft-neck-support-pillow-for-head-shaping-shape-supporter-original-imag26znbcfqegxg,https://www.indiamart.com/proddetail/baby-soft-neck-support-pillow-for-head-shaping-shape-supporter-original-imag26znbcfqegxg-24191229973.html?pos=93&kwd=soft toy baby bed&tags=||||8752.144|Price|product|||TS|rsf:gd-|-qr_nm:gd|res:RC4|com-cf:nl|ptrs:na|ktp:N0|mc:223875|mtp:S|qry_typ:P|lang:en|wc:4|cs:7593|v=4,Chinmay Kids,https://www.indiamart.com/chinmaykids/?pos=93&kwd=soft toy baby bed&tags=||||8752.144|Price|product|||TS|rsf:gd-|-qr_nm:gd|res:RC4|com-cf:nl|ptrs:na|ktp:N0|mc:223875|mtp:S|qry_typ:P|lang:en|wc:4|cs:7593|v=4,False,Nayagaon,New Delhi,"C-99, Street No. 4, First Pusta, Nayagaon, New Delhi - 110053, Dist.Delhi, Delhi",8046054858,
Blue 100% Cotton Baby Bed Sheet,https://www.indiamart.com/proddetail/baby-bed-sheet-16964243433.html?pos=94&kwd=soft toy baby bed&tags=||||8752.144|Price|product|||TS|rsf:gd-|-qr_nm:gd|res:RC4|com-cf:nl|ptrs:na|ktp:N0|mc:223875|mtp:S|qry_typ:P|lang:en|wc:4|cs:7593|v=4,Man Singh & Sons Private Limited,https://www.babyproductsmanufacturer.com/?pos=94&kwd=soft toy baby bed&tags=||||8752.144|Price|product|||TS|rsf:gd-|-qr_nm:gd|res:RC4|com-cf:nl|ptrs:na|ktp:N0|mc:223875|mtp:S|qry_typ:P|lang:en|wc:4|cs:7593|v=4,False,Karol Bagh,New Delhi,"No. 13/24, 1st Floor, W. E. A., Karol Bagh, Karol Bagh, New Delhi - 110005, Dist.Delhi, Delhi",8048978579,
Comfort Female Baby Bed Mattress,https://www.indiamart.com/proddetail/baby-bed-mattress-21353228488.html?pos=95&kwd=soft toy baby bed&tags=||||8211.142|Price|product|||TS|rsf:gd-|-qr_nm:gd|res:RC4|com-cf:nl|ptrs:na|ktp:N0|mc:223875|mtp:S|qry_typ:P|lang:en|wc:4|cs:7593|v=4,Comfort Mattresses Mfg.Co.,https://www.comfortfoam.co.in/?pos=95&kwd=soft toy baby bed&tags=||||8211.142|Price|product|||TS|rsf:gd-|-qr_nm:gd|res:RC4|com-cf:nl|ptrs:na|ktp:N0|mc:223875|mtp:S|qry_typ:P|lang:en|wc:4|cs:7593|v=4,False,Masjid Bandar,Mumbai,"63/65,COMMERCIAL CHAMBERS, Commercial Chamber, Ground Floor, Masjid Bandar, Mumbai - 400003, Dist.Mumbai, Maharashtra",8046044530,
"Baby Sleeping Bed Mattress with Anti-Flat Head, Single",https://www.indiamart.com/proddetail/baby-sleeping-bed-mattress-with-anti-flat-head-2852832370288.html?pos=96&kwd=soft toy baby bed&tags=||||8211.142|Price|product|||TS|rsf:gd-|-qr_nm:gd|res:RC4|com-cf:nl|ptrs:na|ktp:N0|mc:223875|mtp:S|qry_typ:P|lang:en|wc:4|cs:7593|v=4,Homenity,https://www.homenity.in/?pos=96&kwd=soft toy baby bed&tags=||||8211.142|Price|product|||TS|rsf:gd-|-qr_nm:gd|res:RC4|com-cf:nl|ptrs:na|ktp:N0|mc:223875|mtp:S|qry_typ:P|lang:en|wc:4|cs:7593|v=4,False,Masjid Bandar,Mumbai,"203, 2nd Floor, Plot-13a Mehajabeen Arcade, Chakala Cross Lane, Mumbai, Mumbai, Maharashtra, Masjid Bandar, Mumbai - 400003, Dist.Mumbai, Maharashtra",8047673711,
Multicolor Rectangular Kids Soft Learning Cushion,https://www.indiamart.com/proddetail/kids-soft-learning-cushion-2854368044073.html?pos=97&kwd=soft toy baby bed&tags=||||8230.883|Price|product|||TS|rsf:gd-|-qr_nm:gd|res:RC4|com-cf:nl|ptrs:na|ktp:N0|mc:223875|mtp:S|qry_typ:P|lang:en|wc:4|cs:7593|v=4,Iscon Mart,https://www.indiamart.com/iscon-mart-gujarat/?pos=97&kwd=soft toy baby bed&tags=||||8230.883|Price|product|||TS|rsf:gd-|-qr_nm:gd|res:RC4|com-cf:nl|ptrs:na|ktp:N0|mc:223875|mtp:S|qry_typ:P|lang:en|wc:4|cs:7593|v=4,False,,Surat,"518 the gallery business hub 2 near mahavir chikuvadi nana varachha surat -395006, Surat - 395010, Dist.Surat, Gujarat",8045736488,
"Blue Rectangular Baby Sleeping Bed Set, Cotton",https://www.indiamart.com/proddetail/baby-sleeping-bed-set-19259131230.html?pos=98&kwd=soft toy baby bed&tags=||||8752.144|Price|product|||TS|rsf:gd-|-qr_nm:gd|res:RC4|com-cf:nl|ptrs:na|ktp:N0|mc:223875|mtp:S|qry_typ:P|lang:en|wc:4|cs:7593|v=4,Gyasi Ram & Sons,https://www.indiamart.com/gyasi-ram-sons/?pos=98&kwd=soft toy baby bed&tags=||||8752.144|Price|product|||TS|rsf:gd-|-qr_nm:gd|res:RC4|com-cf:nl|ptrs:na|ktp:N0|mc:223875|mtp:S|qry_typ:P|lang:en|wc:4|cs:7593|v=4,False,Sadar Bazaar,New Delhi,"No. 459, Main Road, Sadar Bazar, Sadar Bazaar, New Delhi - 110006, Dist.Delhi, Delhi",8043865798,
Baby Mattress,https://www.indiamart.com/proddetail/baby-mattress-2852104196148.html?pos=99&kwd=soft toy baby bed&tags=||||8601.347|Price|product|||TS|rsf:gd-|-qr_nm:gd|res:RC4|com-cf:nl|ptrs:na|ktp:N0|mc:223875|mtp:S|qry_typ:P|lang:en|wc:4|cs:7593|v=4,Priya Enterprises,https://www.indiamart.com/priyaenterprisesjaipur/?pos=99&kwd=soft toy baby bed&tags=||||8601.347|Price|product|||TS|rsf:gd-|-qr_nm:gd|res:RC4|com-cf:nl|ptrs:na|ktp:N0|mc:223875|mtp:S|qry_typ:P|lang:en|wc:4|cs:7593|v=4,False,Nehru Nagar,Jaipur,"G-210, Sitapura Industrial Area, Nehru Nagar, Jaipur - 302021, Dist.Jaipur, Rajasthan",8043859301,
"Baby Soft Mattress, 1-2 Years",https://www.indiamart.com/proddetail/baby-soft-mattress-2851939420573.html?pos=100&kwd=soft toy baby bed&tags=||||8211.142|Price|product|||TS|rsf:gd-|-qr_nm:gd|res:RC4|com-cf:nl|ptrs:na|ktp:N0|mc:223875|mtp:S|qry_typ:P|lang:en|wc:4|cs:7593|v=4,White House Toys,https://www.indiamart.com/whitehousetoys/?pos=100&kwd=soft toy baby bed&tags=||||8211.142|Price|product|||TS|rsf:gd-|-qr_nm:gd|res:RC4|com-cf:nl|ptrs:na|ktp:N0|mc:223875|mtp:S|qry_typ:P|lang:en|wc:4|cs:7593|v=4,False,Town Hall,Mumbai,"95 bhaji Pala lane shop No.3 Ground Floor Opp.cosmo MKT.ABDU REHMANS STREET,CROSS LANE, MUMBAI Modern Toy Mumbai, Town Hall, Mumbai - 400001, Dist.Mumbai, Maharashtra",7942869160,
Cuddle Cloud Baby Foam Mattress With Mattress Protector,https://www.indiamart.com/proddetail/cuddle-cloud-baby-foam-mattress-with-mattress-protector-2853597674948.html?pos=101&kwd=soft toy baby bed&tags=||||8752.144|Price|product|||TS|rsf:gd-|-qr_nm:gd|res:RC4|com-cf:nl|ptrs:na|ktp:N0|mc:223875|mtp:S|qry_typ:P|lang:en|wc:4|cs:7593|v=4,Coir Comfort Industries (India) Pvt Ltd,https://www.indiamart.com/coir-comfort-industriesindia/?pos=101&kwd=soft toy baby bed&tags=||||8752.144|Price|product|||TS|rsf:gd-|-qr_nm:gd|res:RC4|com-cf:nl|ptrs:na|ktp:N0|mc:223875|mtp:S|qry_typ:P|lang:en|wc:4|cs:7593|v=4,False,Najafgarh,New Delhi,"Prop No-196, Khasra No-196/2, Ground Floor, Najafgarh Road, Najafgarh, New Delhi - 110043, Dist.Delhi, Delhi",8043819437,
"Thickness: 5 Inches Size: Double Newborn Baby Mattress, Packaging Type: Packet",https://www.indiamart.com/proddetail/newborn-baby-mattress-24930586630.html?pos=102&kwd=soft toy baby bed&tags=||||8778.123|Price|product|||TS|rsf:gd-|-qr_nm:gd|res:RC4|com-cf:nl|ptrs:na|ktp:N0|mc:223875|mtp:S|qry_typ:P|lang:en|wc:4|cs:7593|v=4,AR Industries,https://www.indiamart.com/ar-industriesnoida/?pos=102&kwd=soft toy baby bed&tags=||||8778.123|Price|product|||TS|rsf:gd-|-qr_nm:gd|res:RC4|com-cf:nl|ptrs:na|ktp:N0|mc:223875|mtp:S|qry_typ:P|lang:en|wc:4|cs:7593|v=4,False,Sector 5,Noida,"Ground Floor, A-37, Sec-5, Sector 5, Noida - 201301, Dist.Gautam Budh Nagar, Uttar Pradesh",8046056449,
"Babyzone Soft And Comfortable New Born Baby Bedding Set With Protective Mosquito Net, Light Pink",https://www.indiamart.com/proddetail/babyzone-soft-and-comfortable-new-born-baby-bedding-set-with-protective-mosquito-net-light-pink-2851500066055.html?pos=103&kwd=soft toy baby bed&tags=||||8661.854|Price|product|||TS|rsf:gd-|-qr_nm:gd|res:RC4|com-cf:nl|ptrs:na|ktp:N0|mc:223875|mtp:S|qry_typ:P|lang:en|wc:4|cs:7593|v=4,Aggarwal Creations,https://www.aggarwalcreations.com/?pos=103&kwd=soft toy baby bed&tags=||||8661.854|Price|product|||TS|rsf:gd-|-qr_nm:gd|res:RC4|com-cf:nl|ptrs:na|ktp:N0|mc:223875|mtp:S|qry_typ:P|lang:en|wc:4|cs:7593|v=4,False,Ramesh Nagar,Ludhiana,"Geeta Nagar, Street No. 7, Tajpur Road, Ramesh Nagar, Ludhiana - 141008, Dist.Ludhiana, Punjab",8048962321,
"Cotton/Valvet Baby Sleeping Bag, Newly Born",https://www.indiamart.com/proddetail/baby-sleeping-bag-20773316630.html?pos=104&kwd=soft toy baby bed&tags=||||8752.144|Price|product|||TS|rsf:gd-|-qr_nm:gd|res:RC4|com-cf:nl|ptrs:na|ktp:N0|mc:223875|mtp:S|qry_typ:P|lang:en|wc:4|cs:7593|v=4,Shaifali Traders,https://www.shopphiez.com/?pos=104&kwd=soft toy baby bed&tags=||||8752.144|Price|product|||TS|rsf:gd-|-qr_nm:gd|res:RC4|com-cf:nl|ptrs:na|ktp:N0|mc:223875|mtp:S|qry_typ:P|lang:en|wc:4|cs:7593|v=4,False,PATPARGANJ,New Delhi,"Plot No 10, main road patparganj ganj, PATPARGANJ, New Delhi - 110091, Dist.Delhi, Delhi",8046033629,
Multicolor Rectangular Baby Bedding Set Manufacturer,https://www.indiamart.com/proddetail/baby-bedding-set-manufacturer-2853931582673.html?pos=105&kwd=soft toy baby bed&tags=||||8752.144|Price|product|||TS|rsf:gd-|-qr_nm:gd|res:RC4|com-cf:nl|ptrs:na|ktp:N0|mc:223875|mtp:S|qry_typ:P|lang:en|wc:4|cs:7593|v=4,Mom & Son,https://www.theindianchoice.com/?pos=105&kwd=soft toy baby bed&tags=||||8752.144|Price|product|||TS|rsf:gd-|-qr_nm:gd|res:RC4|com-cf:nl|ptrs:na|ktp:N0|mc:223875|mtp:S|qry_typ:P|lang:en|wc:4|cs:7593|v=4,False,Karawal Nagar,New Delhi,"B-57 Gali Number-1 Mukund Vihar, Near Pnb Bank, Karawal Nagar, New Delhi - 110094, Dist.Delhi, Delhi",7942565509,
Baby Nursing Arm Breastfeeding Pillow Soft Cotton Bottle Feeding Pillows,https://www.indiamart.com/proddetail/baby-nursing-arm-breastfeeding-pillow-soft-cotton-bottle-feeding-pillows-2854949219733.html?pos=106&kwd=soft toy baby bed&tags=||||8230.883|Price|product|||TS|rsf:gd-|-qr_nm:gd|res:RC4|com-cf:nl|ptrs:na|ktp:N0|mc:223875|mtp:S|qry_typ:P|lang:en|wc:4|cs:7593|v=4,Ravirandal,https://www.indiamart.com/ravirandal/?pos=106&kwd=soft toy baby bed&tags=||||8230.883|Price|product|||TS|rsf:gd-|-qr_nm:gd|res:RC4|com-cf:nl|ptrs:na|ktp:N0|mc:223875|mtp:S|qry_typ:P|lang:en|wc:4|cs:7593|v=4,False,Mota Varachha,Surat,"2nd, BLD-A,Shop No.212, Sicilia Commercial Complex, Mota Varachha, Mota Varachha, Surat - 394101, Dist.Surat, Gujarat",8045729479,
Yellow Polyester Fibre Naughty Baby Pillow,https://www.indiamart.com/proddetail/naughty-baby-pillow-20710504255.html?pos=107&kwd=soft toy baby bed&tags=||||8752.144|Price|product|||TS|rsf:gd-|-qr_nm:gd|res:RC4|com-cf:nl|ptrs:na|ktp:N0|mc:223875|mtp:S|qry_typ:P|lang:en|wc:4|cs:7593|v=4,National Overseas,https://www.indiamart.com/nationaltraders-vishwashnagar/?pos=107&kwd=soft toy baby bed&tags=||||8752.144|Price|product|||TS|rsf:gd-|-qr_nm:gd|res:RC4|com-cf:nl|ptrs:na|ktp:N0|mc:223875|mtp:S|qry_typ:P|lang:en|wc:4|cs:7593|v=4,False,Shahdara,New Delhi,"1/99, Gali No. 3, Vishwas Nagar, Shahdara, New Delhi - 110032, Dist.Delhi, Delhi",8046047673,
Size: Single Cotton Baby Goddi,https://www.indiamart.com/proddetail/baby-goddi-2854231929188.html?pos=108&kwd=soft toy baby bed&tags=||||8230.883|Price|product|||TS|rsf:gd-|-qr_nm:gd|res:RC4|com-cf:nl|ptrs:na|ktp:N0|mc:223875|mtp:S|qry_typ:P|lang:en|wc:4|cs:7593|v=4,BABYHOLIC,https://www.babyholic.in/?pos=108&kwd=soft toy baby bed&tags=||||8230.883|Price|product|||TS|rsf:gd-|-qr_nm:gd|res:RC4|com-cf:nl|ptrs:na|ktp:N0|mc:223875|mtp:S|qry_typ:P|lang:en|wc:4|cs:7593|v=4,False,,Surat,"Ground Floor, Plot No. F/56/, And F/57, Laxmi Narayan Industrial Estate, Udhana, Kailash Fashion, Surat - 394210, Dist.Surat, Gujarat",8045732096,
Size: Single Baby Saftey Foam - 2Meter,https://www.indiamart.com/proddetail/baby-saftey-foam-2meter-2853633275648.html?pos=109&kwd=soft toy baby bed&tags=||||7964.7354|Price|product|||TS|rsf:gd-|-qr_nm:gd|res:RC4|com-cf:nl|ptrs:na|ktp:N0|mc:223875|mtp:S|qry_typ:P|lang:en|wc:4|cs:7593|v=4,Nineup Exim Private Limited,https://www.nineupexim.com/?pos=109&kwd=soft toy baby bed&tags=||||7964.7354|Price|product|||TS|rsf:gd-|-qr_nm:gd|res:RC4|com-cf:nl|ptrs:na|ktp:N0|mc:223875|mtp:S|qry_typ:P|lang:en|wc:4|cs:7593|v=4,False,Patel Colony,Jamnagar,"5 Patel Colony Matru Chhaya Near Rangmati Apartment Road No 2/3 Jamnagar, Patel Colony, Jamnagar - 361008, Dist.Jamnagar, Gujarat",8047517606,
Baby Mosquito Net Bed,https://www.indiamart.com/proddetail/baby-mosquito-net-bed-20076973155.html?pos=110&kwd=soft toy baby bed&tags=||||8211.142|Price|product|||MDC|rsf:gd-|-qr_nm:gd|res:RC4|com-cf:nl|ptrs:na|ktp:N0|mc:223875|mtp:S|qry_typ:P|lang:en|wc:4|cs:7593|v=4,Padam Kids,https://www.indiamart.com/padam-kids/?pos=110&kwd=soft toy baby bed&tags=||||8211.142|Price|product|||MDC|rsf:gd-|-qr_nm:gd|res:RC4|com-cf:nl|ptrs:na|ktp:N0|mc:223875|mtp:S|qry_typ:P|lang:en|wc:4|cs:7593|v=4,False,,Mumbai,"CKP Colony, Near Dargah, Behind Dr. Manish Bhatt Eksar Road, Borivali West, Mumbai - 400092, Dist.Mumbai, Maharashtra",8046057613,
"Cotton Baby Mosquito Net Bed, For Home, Size: Small",https://www.indiamart.com/proddetail/baby-mosquito-net-bed-2853905853148.html?pos=111&kwd=soft toy baby bed&tags=||||8226.563|Price|product|||MDC|rsf:gd-|-qr_nm:gd|res:RC4|com-cf:nl|ptrs:na|ktp:N0|mc:223875|mtp:S|qry_typ:P|lang:en|wc:4|cs:7593|v=4,Vanbon Clothing Co.,https://www.indiamart.com/vanbon-clothing-co/?pos=111&kwd=soft toy baby bed&tags=||||8226.563|Price|product|||MDC|rsf:gd-|-qr_nm:gd|res:RC4|com-cf:nl|ptrs:na|ktp:N0|mc:223875|mtp:S|qry_typ:P|lang:en|wc:4|cs:7593|v=4,False,Vashi (Thane),Navi Mumbai,"1st Floor Ofice No.16, Plot No.73, D Wing Vallabh Bhai Patel Marg, Vashi (Thane), Navi Mumbai - 400703, Dist.Thane, Maharashtra",8044012603,
"Size: Single Cotton Pink Printed Baby Mattress, Thickness: 4 inch",https://www.indiamart.com/proddetail/pink-printed-baby-mattress-2854133509262.html?pos=112&kwd=soft toy baby bed&tags=||||8584.299|Price|product|||MDC|rsf:gd-|-qr_nm:gd|res:RC4|com-cf:nl|ptrs:na|ktp:N0|mc:223875|mtp:S|qry_typ:P|lang:en|wc:4|cs:7593|v=4,Ramesh Marketing,https://www.indiamart.com/ramesh-marketing-coimbatore/?pos=112&kwd=soft toy baby bed&tags=||||8584.299|Price|product|||MDC|rsf:gd-|-qr_nm:gd|res:RC4|com-cf:nl|ptrs:na|ktp:N0|mc:223875|mtp:S|qry_typ:P|lang:en|wc:4|cs:7593|v=4,False,East Oppanakara Street Area,Coimbatore,"110, Nawab Hakeem Road, East Oppanakara Street Area, East Oppanakara Street Area, Coimbatore - 641001, Dist.Coimbatore, Tamil Nadu",8045731416,
Thickness: 4 Inches Size: Single Baby Cotton Mattress,https://www.indiamart.com/proddetail/baby-cotton-mattress-27457896512.html?pos=113&kwd=soft toy baby bed&tags=||||8706.587|Price|product|||MDC|rsf:gd-|-qr_nm:gd|res:RC4|com-cf:nl|ptrs:na|ktp:N0|mc:223875|mtp:S|qry_typ:P|lang:en|wc:4|cs:7593|v=4,Sri Sai Silks & Readymades,https://www.indiamart.com/srisai-silks-readymades/?pos=113&kwd=soft toy baby bed&tags=||||8706.587|Price|product|||MDC|rsf:gd-|-qr_nm:gd|res:RC4|com-cf:nl|ptrs:na|ktp:N0|mc:223875|mtp:S|qry_typ:P|lang:en|wc:4|cs:7593|v=4,False,Narimedu,Madurai,"24/1, Jampuropuram 2nd Street, d, Narimedu, Madurai - 625002, Dist.Madurai, Tamil Nadu",7942675876,
Baby Elephant Mattress,https://www.indiamart.com/proddetail/baby-elephant-mattress-2853510308448.html?pos=114&kwd=soft toy baby bed&tags=||||8230.883|Price|product|||MDC|rsf:gd-|-qr_nm:gd|res:RC4|com-cf:nl|ptrs:na|ktp:N0|mc:223875|mtp:S|qry_typ:P|lang:en|wc:4|cs:7593|v=4,Coolma Therapy,https://www.indiamart.com/coolmatherapy/?pos=114&kwd=soft toy baby bed&tags=||||8230.883|Price|product|||MDC|rsf:gd-|-qr_nm:gd|res:RC4|com-cf:nl|ptrs:na|ktp:N0|mc:223875|mtp:S|qry_typ:P|lang:en|wc:4|cs:7593|v=4,False,Ashok Colony,Surat,"4, 1st Floor, Bhavani Society, L.H.Road Sai Nath Traders, Varachha, Ashok Colony, Surat - 395006, Dist.Surat, Gujarat",8047852005,
Kids Soft Sofa,https://www.indiamart.com/proddetail/kids-soft-sofa-2854468038091.html?pos=115&kwd=soft toy baby bed&tags=||||8752.144|Price|product|||MDC|rsf:gd-|-qr_nm:gd|res:RC4|com-cf:nl|ptrs:na|ktp:N0|mc:223875|mtp:S|qry_typ:P|lang:en|wc:4|cs:7593|v=4,R K Enterprises,https://www.indiamart.com/r-kenterprisesnorthnewdelhi/?pos=115&kwd=soft toy baby bed&tags=||||8752.144|Price|product|||MDC|rsf:gd-|-qr_nm:gd|res:RC4|com-cf:nl|ptrs:na|ktp:N0|mc:223875|mtp:S|qry_typ:P|lang:en|wc:4|cs:7593|v=4,False,North Delhi,New Delhi,"House No-235, Yadav Nagar, Block-E, Samaypur, North Delhi, New Delhi - 110042, Dist.Delhi, Delhi",7949337344,
Cotton Kolar India Baby Comfort Mattress With Mosquito Net,https://www.indiamart.com/proddetail/baby-comfort-mattress-with-mosquito-net-20960044355.html?pos=116&kwd=soft toy baby bed&tags=||||9839.57|Price|product|||MDC|rsf:gd-|-qr_nm:gd|res:RC4|com-cf:nl|ptrs:na|ktp:N0|mc:223875|mtp:S|qry_typ:P|lang:en|wc:4|cs:7593|v=4,Kolar India,https://www.indiamart.com/kolarindia/?pos=116&kwd=soft toy baby bed&tags=||||9839.57|Price|product|||MDC|rsf:gd-|-qr_nm:gd|res:RC4|com-cf:nl|ptrs:na|ktp:N0|mc:223875|mtp:S|qry_typ:P|lang:en|wc:4|cs:7593|v=4,False,Strand Road,Kolkata,"56, Jamunalal Bajaj Street, 1st Floor, Strand Road, Kolkata - 700007, Dist.Kolkata, West Bengal",8048261979,
BABY SOFT COTTON CUSHIONED PILLOWS. BABY HEAD SHAPER PILLOWS,,B N Hosiery,https://www.indiamart.com/bnhosiery/?pos=117&kwd=soft toy baby bed&tags=||||8752.144|Price|product|||MDC|rsf:gd-|-qr_nm:gd|res:RC4|com-cf:nl|ptrs:na|ktp:N0|mc:223875|mtp:S|qry_typ:P|lang:en|wc:4|cs:7593|v=4,False,Ashok Vihar,New Delhi,"House No 130l, Block-E, Phase-1,Ashok, Vihar, Ashok Vihar, New Delhi - 110052, Dist.Delhi, Delhi",7942706809,
Knitted Baby Mattress,https://www.indiamart.com/proddetail/knitted-baby-mattress-2853931458530.html?pos=118&kwd=soft toy baby bed&tags=||||8228.275|Price|product|||MDC|rsf:gd-|-qr_nm:gd|res:RC4|com-cf:nl|ptrs:na|ktp:N0|mc:223875|mtp:S|qry_typ:P|lang:en|wc:4|cs:7593|v=4,Srinath Knitting,https://www.indiamart.com/srinath-knitting/?pos=118&kwd=soft toy baby bed&tags=||||8228.275|Price|product|||MDC|rsf:gd-|-qr_nm:gd|res:RC4|com-cf:nl|ptrs:na|ktp:N0|mc:223875|mtp:S|qry_typ:P|lang:en|wc:4|cs:7593|v=4,False,Kuber Nagar,Ahmedabad,"Shop No 69, Saijpur Bhoga, New Bunglow Area, A- Ward, Kuber Nagar, Ahmedabad - 382340, Dist.Ahmedabad, Gujarat",8044561219,
"Baby Mattress With Mosquito Net, For Home, Size: Medium",https://www.indiamart.com/proddetail/baby-mattress-with-mosquito-net-2851564424391.html?pos=119&kwd=soft toy baby bed&tags=||||10180.86|Price|product|||MDC|rsf:gd-|-qr_nm:gd|res:RC4|com-cf:nl|ptrs:na|ktp:N0|mc:223875|mtp:S|qry_typ:P|lang:en|wc:4|cs:7593|v=4,Jyoti Enterprise,https://www.indiamart.com/jyoti-enterprise-assam/?pos=119&kwd=soft toy baby bed&tags=||||10180.86|Price|product|||MDC|rsf:gd-|-qr_nm:gd|res:RC4|com-cf:nl|ptrs:na|ktp:N0|mc:223875|mtp:S|qry_typ:P|lang:en|wc:4|cs:7593|v=4,False,Bharalumukh,Guwahati,"House No. 15, K.R.C Road, Kumarpara, Rupnagar, Kamrup, Metropolitan, Bharalumukh, Guwahati - 781009, Dist.Kamrup, Assam",8043852875,
Adjustable Size New-Born Baby Sleep Positioning Pillow Ultra Soft Body Support Anti-Roll Breathable,https://www.indiamart.com/proddetail/adjustable-size-new-born-baby-sleep-positioning-pillow-ultra-soft-body-support-anti-roll-breathable-2854903919555.html?pos=120&kwd=soft toy baby bed&tags=||||8230.883|Price|product|||MDC|rsf:gd-|-qr_nm:gd|res:RC4|com-cf:nl|ptrs:na|ktp:N0|mc:223875|mtp:S|qry_typ:P|lang:en|wc:4|cs:7593|v=4,P G Impex,https://www.indiamart.com/pg-impex-surat/?pos=120&kwd=soft toy baby bed&tags=||||8230.883|Price|product|||MDC|rsf:gd-|-qr_nm:gd|res:RC4|com-cf:nl|ptrs:na|ktp:N0|mc:223875|mtp:S|qry_typ:P|lang:en|wc:4|cs:7593|v=4,False,,Surat,"3rd Floor, 304, Sarjan Residency Wing-A, Sunganpor Road, Katargam, Surat - 395004, Dist.Surat, Gujarat",7949322822,
Cotton Rectangle New Born Baby Bed Mattress,https://www.indiamart.com/proddetail/new-born-baby-bed-mattress-24322003873.html?pos=121&kwd=soft toy baby bed&tags=||||8228.275|Price|product|||MDC|rsf:gd-|-qr_nm:gd|res:RC4|com-cf:nl|ptrs:na|ktp:N0|mc:223875|mtp:S|qry_typ:P|lang:en|wc:4|cs:7593|v=4,Sanskriti Inc,https://www.indiamart.com/sanskriti-inc/?pos=121&kwd=soft toy baby bed&tags=||||8228.275|Price|product|||MDC|rsf:gd-|-qr_nm:gd|res:RC4|com-cf:nl|ptrs:na|ktp:N0|mc:223875|mtp:S|qry_typ:P|lang:en|wc:4|cs:7593|v=4,False,Nikol,Ahmedabad,"Shop No-26, Surjit Co Op H Soc Ltd, Nr. India Colony, Nikol Road, Nikol, Ahmedabad - 382350, Dist.Ahmedabad, Gujarat",8046047726,
"Pan Godadi Baby Mattress, Size: Single",https://www.indiamart.com/proddetail/pan-godadi-baby-mattress-2853987290562.html?pos=122&kwd=soft toy baby bed&tags=||||8228.275|Price|product|||MDC|rsf:gd-|-qr_nm:gd|res:RC4|com-cf:nl|ptrs:na|ktp:N0|mc:223875|mtp:S|qry_typ:P|lang:en|wc:4|cs:7593|v=4,Fashionmart India,https://www.indiamart.com/fashionmart-india/?pos=122&kwd=soft toy baby bed&tags=||||8228.275|Price|product|||MDC|rsf:gd-|-qr_nm:gd|res:RC4|com-cf:nl|ptrs:na|ktp:N0|mc:223875|mtp:S|qry_typ:P|lang:en|wc:4|cs:7593|v=4,False,Parshwanath Township,Ahmedabad,"BH-Rajiv Park, On Canal, Krishna Nagar, 10, Narnarayan Park, Nala Road, Amul Milk, Naroda, Parshwanath Township, Ahmedabad - 382345, Dist.Ahmedabad, Gujarat",8044564853,
Solid Orange Soft Plain Velvet Baby Bedding Set For Home,https://www.indiamart.com/proddetail/orange-soft-plain-velvet-baby-bedding-set-23674848212.html?pos=123&kwd=soft toy baby bed&tags=||||8752.144|Price|product|||TS|rsf:gd-|-qr_nm:gd|res:RC4|com-cf:nl|ptrs:na|ktp:N0|mc:223875|mtp:S|qry_typ:P|lang:en|wc:4|cs:7593|v=4,ASW Retail Corporation,https://www.indiamart.com/aswretailcorporation/?pos=123&kwd=soft toy baby bed&tags=||||8752.144|Price|product|||TS|rsf:gd-|-qr_nm:gd|res:RC4|com-cf:nl|ptrs:na|ktp:N0|mc:223875|mtp:S|qry_typ:P|lang:en|wc:4|cs:7593|v=4,False,Naraina,New Delhi,"B-62/6 3rd Floor Phase II, Naraina Industrial Area, Naraina, New Delhi - 110032, Dist.Delhi, Delhi",8046060075,
"Soft Baby Wool Bedding Set - cream, For Home, Solid",https://www.indiamart.com/proddetail/soft-baby-wool-bedding-set-cream-2852506098430.html?pos=124&kwd=soft toy baby bed&tags=||||8752.144|Price|product|||TS|rsf:gd-|-qr_nm:gd|res:RC4|com-cf:nl|ptrs:na|ktp:N0|mc:223875|mtp:S|qry_typ:P|lang:en|wc:4|cs:7593|v=4,Ekta Overseas,https://www.indiamart.com/ektaoverseas-newdelhi/?pos=124&kwd=soft toy baby bed&tags=||||8752.144|Price|product|||TS|rsf:gd-|-qr_nm:gd|res:RC4|com-cf:nl|ptrs:na|ktp:N0|mc:223875|mtp:S|qry_typ:P|lang:en|wc:4|cs:7593|v=4,False,Shahdara,New Delhi,"1/95, Gali No.3, Near Navjeevan Phisical Center, Vishwas Nagar, Shahdara,, Shahdara, New Delhi - 110032, Dist.Delhi, Delhi",7942628926,
Standard Cotton Rai Pillow,https://www.indiamart.com/proddetail/baby-cotton-soft-pillow-11861825388.html?pos=125&kwd=soft toy baby bed&tags=||||8211.142|Price|product|||TS|rsf:gd-|-qr_nm:gd|res:RC4|com-cf:nl|ptrs:na|ktp:N0|mc:223875|mtp:S|qry_typ:P|lang:en|wc:4|cs:7593|v=4,Dhrupti Creation,https://www.indiamart.com/littlecare/?pos=125&kwd=soft toy baby bed&tags=||||8211.142|Price|product|||TS|rsf:gd-|-qr_nm:gd|res:RC4|com-cf:nl|ptrs:na|ktp:N0|mc:223875|mtp:S|qry_typ:P|lang:en|wc:4|cs:7593|v=4,False,Malad East,Mumbai,"Gala No. 3, Jignesh Diamond House, Near Vaishnavdevi Mandir, Subhash Lane, Malad East, Malad East, Mumbai - 400097, Dist.Mumbai, Maharashtra",8048970316,
Children Bed Mattress,https://www.indiamart.com/proddetail/children-bed-mattress-20828036191.html?pos=126&kwd=soft toy baby bed&tags=||||8663.873|Price|product|||TS|rsf:gd-|-qr_nm:gd|res:RC4|com-cf:nl|ptrs:na|ktp:N0|mc:223875|mtp:S|qry_typ:P|lang:en|wc:4|cs:7593|v=4,Karnataka Mattress And Furnishing,https://www.indiamart.com/karnatakafurnishings/?pos=126&kwd=soft toy baby bed&tags=||||8663.873|Price|product|||TS|rsf:gd-|-qr_nm:gd|res:RC4|com-cf:nl|ptrs:na|ktp:N0|mc:223875|mtp:S|qry_typ:P|lang:en|wc:4|cs:7593|v=4,False,Adugodi,Bengaluru,"No. 66/3-2, Laskar Hosur Main Road, Adugodi, Bengaluru - 560030, Dist.Bengaluru, Karnataka",8046048553,
Size: Single Baby Bed Mattress,https://www.indiamart.com/proddetail/baby-bed-mattress-2852735255891.html?pos=127&kwd=soft toy baby bed&tags=||||8752.144|Price|product|||MDC|rsf:gd-|-qr_nm:gd|res:RC4|com-cf:nl|ptrs:na|ktp:N0|mc:223875|mtp:S|qry_typ:P|lang:en|wc:4|cs:7593|v=4,Rajlaxmi Foam Enterprises,https://www.indiamart.com/rajlaxmifoamenterprises/?pos=127&kwd=soft toy baby bed&tags=||||8752.144|Price|product|||MDC|rsf:gd-|-qr_nm:gd|res:RC4|com-cf:nl|ptrs:na|ktp:N0|mc:223875|mtp:S|qry_typ:P|lang:en|wc:4|cs:7593|v=4,False,Karawal Nagar,New Delhi,"121, Maha Laxmi Vihar Main Road Karawal Nagar, Karawal Nagar, New Delhi - 110094, Dist.Delhi, Delhi",8048954221,
Foam Pillow Pink Soft Baby Pillows,https://www.indiamart.com/proddetail/soft-baby-pillows-2854187999073.html?pos=128&kwd=soft toy baby bed&tags=||||8752.144||product|||MDC|rsf:gd-|-qr_nm:gd|res:RC4|com-cf:nl|ptrs:na|ktp:N0|mc:223875|mtp:S|qry_typ:P|lang:en|wc:4|cs:7593|v=4,Shopindia,https://www.indiamart.com/shopindia-delhi/?pos=128&kwd=soft toy baby bed&tags=||||8752.144||product|||MDC|rsf:gd-|-qr_nm:gd|res:RC4|com-cf:nl|ptrs:na|ktp:N0|mc:223875|mtp:S|qry_typ:P|lang:en|wc:4|cs:7593|v=4,False,Khyala,New Delhi,"F/F, RZ-129 Old No.RZ-57, West Block, Vishnu Garden, Khyala, New Delhi - 110018, Dist.Delhi, Delhi",8047832403,
"Cotton Bed Newborn Baby Mosquito Net, Size: Medium",https://www.indiamart.com/proddetail/bed-newborn-baby-mosquito-net-2854722842391.html?pos=129&kwd=soft toy baby bed&tags=||||8211.142|Price|product|||MDC|rsf:gd-|-qr_nm:gd|res:RC4|com-cf:nl|ptrs:na|ktp:N0|mc:223875|mtp:S|qry_typ:P|lang:en|wc:4|cs:7593|v=4,Apple Kids,https://www.indiamart.com/applekids-mumbai/?pos=129&kwd=soft toy baby bed&tags=||||8211.142|Price|product|||MDC|rsf:gd-|-qr_nm:gd|res:RC4|com-cf:nl|ptrs:na|ktp:N0|mc:223875|mtp:S|qry_typ:P|lang:en|wc:4|cs:7593|v=4,False,,Mumbai,"Room No 1,211/4, Janu Seth Chawl, Puspa Park, Daftary Road, Malad East Suburban, Mumbai - 400097, Dist.Mumbai, Maharashtra",7949326883,
"Thickness: 4 Inches Fiber White Baby Bed Mattress Pillow Set, For Home, 700gm",https://www.indiamart.com/proddetail/white-baby-bed-mattress-pillow-set-21524288712.html?pos=130&kwd=soft toy baby bed&tags=||||8622.665|Price|product|||MDC|rsf:gd-|-qr_nm:gd|res:RC4|com-cf:nl|ptrs:na|ktp:N0|mc:223875|mtp:S|qry_typ:P|lang:en|wc:4|cs:7593|v=4,Kapok India,https://www.indiamart.com/kapokindia/?pos=130&kwd=soft toy baby bed&tags=||||8622.665|Price|product|||MDC|rsf:gd-|-qr_nm:gd|res:RC4|com-cf:nl|ptrs:na|ktp:N0|mc:223875|mtp:S|qry_typ:P|lang:en|wc:4|cs:7593|v=4,False,Ammankulam,Bodinayakanur,"161, Paramasivan Koil Street Theni, Ammankulam, Bodinayakanur - 625513, Tamil Nadu",8047680998,
Solid Orange Soft Plain Velvet Baby Bedding Set For Home,https://www.indiamart.com/proddetail/orange-soft-plain-velvet-baby-bedding-set-23674848212.html?pos=131&kwd=soft toy baby bed&tags=||||8752.144|Price|product|||TS|rsf:gd-|-qr_nm:gd|res:RC4|com-cf:nl|ptrs:na|ktp:N0|mc:223875|mtp:S|qry_typ:P|lang:en|wc:4|cs:7593|v=4,ASW Retail Corporation,https://www.indiamart.com/aswretailcorporation/?pos=131&kwd=soft toy baby bed&tags=||||8752.144|Price|product|||TS|rsf:gd-|-qr_nm:gd|res:RC4|com-cf:nl|ptrs:na|ktp:N0|mc:223875|mtp:S|qry_typ:P|lang:en|wc:4|cs:7593|v=4,False,Naraina,New Delhi,"B-62/6 3rd Floor Phase II, Naraina Industrial Area, Naraina, New Delhi - 110032, Dist.Delhi, Delhi",8046060075,
"Soft Baby Wool Bedding Set - cream, For Home, Solid",https://www.indiamart.com/proddetail/soft-baby-wool-bedding-set-cream-2852506098430.html?pos=132&kwd=soft toy baby bed&tags=||||8752.144|Price|product|||TS|rsf:gd-|-qr_nm:gd|res:RC4|com-cf:nl|ptrs:na|ktp:N0|mc:223875|mtp:S|qry_typ:P|lang:en|wc:4|cs:7593|v=4,Ekta Overseas,https://www.indiamart.com/ektaoverseas-newdelhi/?pos=132&kwd=soft toy baby bed&tags=||||8752.144|Price|product|||TS|rsf:gd-|-qr_nm:gd|res:RC4|com-cf:nl|ptrs:na|ktp:N0|mc:223875|mtp:S|qry_typ:P|lang:en|wc:4|cs:7593|v=4,False,Shahdara,New Delhi,"1/95, Gali No.3, Near Navjeevan Phisical Center, Vishwas Nagar, Shahdara,, Shahdara, New Delhi - 110032, Dist.Delhi, Delhi",7942628926,
Standard Cotton Rai Pillow,https://www.indiamart.com/proddetail/baby-cotton-soft-pillow-11861825388.html?pos=133&kwd=soft toy baby bed&tags=||||8211.142|Price|product|||TS|rsf:gd-|-qr_nm:gd|res:RC4|com-cf:nl|ptrs:na|ktp:N0|mc:223875|mtp:S|qry_typ:P|lang:en|wc:4|cs:7593|v=4,Dhrupti Creation,https://www.indiamart.com/littlecare/?pos=133&kwd=soft toy baby bed&tags=||||8211.142|Price|product|||TS|rsf:gd-|-qr_nm:gd|res:RC4|com-cf:nl|ptrs:na|ktp:N0|mc:223875|mtp:S|qry_typ:P|lang:en|wc:4|cs:7593|v=4,False,Malad East,Mumbai,"Gala No. 3, Jignesh Diamond House, Near Vaishnavdevi Mandir, Subhash Lane, Malad East, Malad East, Mumbai - 400097, Dist.Mumbai, Maharashtra",8048970316,
Children Bed Mattress,https://www.indiamart.com/proddetail/children-bed-mattress-20828036191.html?pos=134&kwd=soft toy baby bed&tags=||||8663.873|Price|product|||TS|rsf:gd-|-qr_nm:gd|res:RC4|com-cf:nl|ptrs:na|ktp:N0|mc:223875|mtp:S|qry_typ:P|lang:en|wc:4|cs:7593|v=4,Karnataka Mattress And Furnishing,https://www.indiamart.com/karnatakafurnishings/?pos=134&kwd=soft toy baby bed&tags=||||8663.873|Price|product|||TS|rsf:gd-|-qr_nm:gd|res:RC4|com-cf:nl|ptrs:na|ktp:N0|mc:223875|mtp:S|qry_typ:P|lang:en|wc:4|cs:7593|v=4,False,Adugodi,Bengaluru,"No. 66/3-2, Laskar Hosur Main Road, Adugodi, Bengaluru - 560030, Dist.Bengaluru, Karnataka",8046048553,
Thickness: 4 inch Size/Dimension: 4x6 feet Classic Printed Mattress,https://www.indiamart.com/proddetail/classic-printed-mattress-24128946397.html?pos=135&kwd=soft toy baby bed&tags=||||8210.732|Price|product|||TS|rsf:gd-|-qr_nm:gd|res:RC4|com-cf:nl|ptrs:na|ktp:N0|mc:223875|mtp:S|qry_typ:P|lang:en|wc:4|cs:7593|v=4,Mayur Steel,https://www.mayursteel.in/?pos=135&kwd=soft toy baby bed&tags=||||8210.732|Price|product|||TS|rsf:gd-|-qr_nm:gd|res:RC4|com-cf:nl|ptrs:na|ktp:N0|mc:223875|mtp:S|qry_typ:P|lang:en|wc:4|cs:7593|v=4,False,Nalasopara East,Vasai,"Narayan Building, Dhamelpada Vasai East, Nalasopara East, Vasai - 401208, Dist.Thane, Maharashtra",8048968950,
Baby Sleeping Pouch baby bedding set,https://www.indiamart.com/proddetail/baby-sleeping-pouch-baby-bedding-set-2852045551373.html?pos=136&kwd=soft toy baby bed&tags=||||8559.269|Price|product|||TS|rsf:gd-|-qr_nm:gd|res:RC4|com-cf:nl|ptrs:na|ktp:N0|mc:223875|mtp:S|qry_typ:P|lang:en|wc:4|cs:7593|v=4,Preeti Textiles,https://www.indiamart.com/preetitextiles/?pos=136&kwd=soft toy baby bed&tags=||||8559.269|Price|product|||TS|rsf:gd-|-qr_nm:gd|res:RC4|com-cf:nl|ptrs:na|ktp:N0|mc:223875|mtp:S|qry_typ:P|lang:en|wc:4|cs:7593|v=4,False,Vyankatesh Nagar,Indore,"133-134, 2nd Floor, Muchhal Chamber, MT Cloth Market, Vyankatesh Nagar, Indore - 452009, Dist.Indore, Madhya Pradesh",8048600421,
Size: Single 4 Inches Peps Mattress,https://www.indiamart.com/proddetail/4-inches-peps-mattress-2850613968848.html?pos=137&kwd=soft toy baby bed&tags=||||8211.142||product|||TS|rsf:gd-|-qr_nm:gd|res:RC4|com-cf:nl|ptrs:na|ktp:N0|mc:223875|mtp:S|qry_typ:P|lang:en|wc:4|cs:7593|v=4,Zen Mattresses Private Limited,https://www.backrestmattresses.in/?pos=137&kwd=soft toy baby bed&tags=||||8211.142||product|||TS|rsf:gd-|-qr_nm:gd|res:RC4|com-cf:nl|ptrs:na|ktp:N0|mc:223875|mtp:S|qry_typ:P|lang:en|wc:4|cs:7593|v=4,False,Borivali West,Mumbai,"301, Pooja Residency, Near Kora Kendra Ground Derasar Lane Borivali West, Borivali West, Mumbai - 400092, Dist.Mumbai, Maharashtra",8047546184,
Foam ALM Baby Mattress,https://www.indiamart.com/proddetail/alm-baby-mattress-21129146048.html?pos=138&kwd=soft toy baby bed&tags=||||8226.563|Price|product|||TS|rsf:gd-|-qr_nm:gd|res:RC4|com-cf:nl|ptrs:na|ktp:N0|mc:223875|mtp:S|qry_typ:P|lang:en|wc:4|cs:7593|v=4,Aurk Vision,https://www.indiamart.com/aurkvision/?pos=138&kwd=soft toy baby bed&tags=||||8226.563|Price|product|||TS|rsf:gd-|-qr_nm:gd|res:RC4|com-cf:nl|ptrs:na|ktp:N0|mc:223875|mtp:S|qry_typ:P|lang:en|wc:4|cs:7593|v=4,False,Pawne,Navi Mumbai,"1st Floor, A-501, Mahape MIDC, TTC Industrial Area, Pawne, Navi Mumbai - 400710, Dist.Thane, Maharashtra",8048956847,
"Vama Coir and Foam Baby Soft Mattress, For Home, Thickness: 2-3 Inch",https://www.indiamart.com/proddetail/baby-soft-mattress-21177624897.html?pos=139&kwd=soft toy baby bed&tags=||||8307.81|Price|product|||TS|rsf:gd-|-qr_nm:gd|res:RC4|com-cf:nl|ptrs:na|ktp:N0|mc:223875|mtp:S|qry_typ:P|lang:en|wc:4|cs:7593|v=4,Vama Home Furnishings,https://www.vamahomefurnishings.com/?pos=139&kwd=soft toy baby bed&tags=||||8307.81|Price|product|||TS|rsf:gd-|-qr_nm:gd|res:RC4|com-cf:nl|ptrs:na|ktp:N0|mc:223875|mtp:S|qry_typ:P|lang:en|wc:4|cs:7593|v=4,False,Baner,Pune,"Shop No. 3 & 5, Aditi Samruddhi, S. No. 173/4, Baner, Pune - 411045, Dist.Pune, Maharashtra",8046032089,
"Polyester Small Elephant Baby Soft Sofa, 1-3 Years",https://www.indiamart.com/proddetail/small-elephant-baby-soft-sofa-2850821511688.html?pos=140&kwd=soft toy baby bed&tags=||||8752.144|Price|product|||TS|rsf:gd-|-qr_nm:gd|res:RC4|com-cf:nl|ptrs:na|ktp:N0|mc:223875|mtp:S|qry_typ:P|lang:en|wc:4|cs:7593|v=4,Bankey Bihari Enterprises,https://www.indiamart.com/bankey-bihari-enterprisesnewdelhi/?pos=140&kwd=soft toy baby bed&tags=||||8752.144|Price|product|||TS|rsf:gd-|-qr_nm:gd|res:RC4|com-cf:nl|ptrs:na|ktp:N0|mc:223875|mtp:S|qry_typ:P|lang:en|wc:4|cs:7593|v=4,False,Jahangirpuri,New Delhi,"Plot No 51 First Floor Street No 11 Harijan Colony Village Bhalsva, Jahangirpuri, New Delhi - 110033, Dist.Delhi, Delhi",7942825166,
"Vama Coir and Foam Baby Soft Mattress, For Home, Thickness: 2-3 Inch",https://www.indiamart.com/proddetail/baby-soft-mattress-21177624897.html?pos=141&kwd=soft toy baby bed&tags=||||8307.81|Price|product|||TS|rsf:gd-|-qr_nm:gd|res:RC4|com-cf:nl|ptrs:na|ktp:N0|mc:223875|mtp:S|qry_typ:P|lang:en|wc:4|cs:7593|v=4,Vama Home Furnishings,https://www.vamahomefurnishings.com/?pos=141&kwd=soft toy baby bed&tags=||||8307.81|Price|product|||TS|rsf:gd-|-qr_nm:gd|res:RC4|com-cf:nl|ptrs:na|ktp:N0|mc:223875|mtp:S|qry_typ:P|lang:en|wc:4|cs:7593|v=4,False,Baner,Pune,"Shop No. 3 & 5, Aditi Samruddhi, S. No. 173/4, Baner, Pune - 411045, Dist.Pune, Maharashtra",8046032089,
"Polyester Small Elephant Baby Soft Sofa, 1-3 Years",https://www.indiamart.com/proddetail/small-elephant-baby-soft-sofa-2850821511688.html?pos=142&kwd=soft toy baby bed&tags=||||8752.144|Price|product|||TS|rsf:gd-|-qr_nm:gd|res:RC4|com-cf:nl|ptrs:na|ktp:N0|mc:223875|mtp:S|qry_typ:P|lang:en|wc:4|cs:7593|v=4,Bankey Bihari Enterprises,https://www.indiamart.com/bankey-bihari-enterprisesnewdelhi/?pos=142&kwd=soft toy baby bed&tags=||||8752.144|Price|product|||TS|rsf:gd-|-qr_nm:gd|res:RC4|com-cf:nl|ptrs:na|ktp:N0|mc:223875|mtp:S|qry_typ:P|lang:en|wc:4|cs:7593|v=4,False,Jahangirpuri,New Delhi,"Plot No 51 First Floor Street No 11 Harijan Colony Village Bhalsva, Jahangirpuri, New Delhi - 110033, Dist.Delhi, Delhi",7942825166,
"Velvet Embossed super soft fabric Safe n Cute Comfortable New Born Baby Bedding quilt Set, For Home, Brown",https://www.indiamart.com/proddetail/safe-n-cute-comfortable-new-born-baby-bedding-quilt-set-2852528197730.html?pos=143&kwd=soft toy baby bed&tags=||||8580.032|Price|product|||TS|rsf:gd-|-qr_nm:gd|res:RC4|com-cf:nl|ptrs:na|ktp:N0|mc:223875|mtp:S|qry_typ:P|lang:en|wc:4|cs:7593|v=4,Ritu Infants Care,https://www.indiamart.com/ritu-infants-care/?pos=143&kwd=soft toy baby bed&tags=||||8580.032|Price|product|||TS|rsf:gd-|-qr_nm:gd|res:RC4|com-cf:nl|ptrs:na|ktp:N0|mc:223875|mtp:S|qry_typ:P|lang:en|wc:4|cs:7593|v=4,False,Sunder Nagar,Amritsar,"232, Tilak Nagar, Shivala Colony, Sunder Nagar, Amritsar - 143001, Dist.Amritsar, Punjab",7942712512,
Blue 100% Cotton Baby Bed Sheet,https://www.indiamart.com/proddetail/baby-bed-sheet-16964243433.html?pos=144&kwd=soft toy baby bed&tags=||||8752.144|Price|product|||TS|rsf:gd-|-qr_nm:gd|res:RC4|com-cf:nl|ptrs:na|ktp:N0|mc:223875|mtp:S|qry_typ:P|lang:en|wc:4|cs:7593|v=4,Man Singh & Sons Private Limited,https://www.babyproductsmanufacturer.com/?pos=144&kwd=soft toy baby bed&tags=||||8752.144|Price|product|||TS|rsf:gd-|-qr_nm:gd|res:RC4|com-cf:nl|ptrs:na|ktp:N0|mc:223875|mtp:S|qry_typ:P|lang:en|wc:4|cs:7593|v=4,False,Karol Bagh,New Delhi,"No. 13/24, 1st Floor, W. E. A., Karol Bagh, Karol Bagh, New Delhi - 110005, Dist.Delhi, Delhi",8048978579,
"Beddy Nest Mattress, Thickness: 4 Inch, Model Number: BN001",https://www.indiamart.com/proddetail/beddy-nest-mattress-20879840473.html?pos=145&kwd=soft toy baby bed&tags=||||8788.159|Price|product|||TS|rsf:gd-|-qr_nm:gd|res:RC4|com-cf:nl|ptrs:na|ktp:N0|mc:223875|mtp:S|qry_typ:P|lang:en|wc:4|cs:7593|v=4,Poonam Enterprriz,https://www.poonamenterprriz.com/?pos=145&kwd=soft toy baby bed&tags=||||8788.159|Price|product|||TS|rsf:gd-|-qr_nm:gd|res:RC4|com-cf:nl|ptrs:na|ktp:N0|mc:223875|mtp:S|qry_typ:P|lang:en|wc:4|cs:7593|v=4,False,East Marredpally,Secunderabad,"Shop No. G/6, Ground Floor, Laxmi Plaza, East Marredpally, Secunderabad - 500015, Dist.Hyderabad, Telangana",8048954363,
Rectangular Printed Kids Pillow,https://www.indiamart.com/proddetail/printed-kids-pillow-25894133830.html?pos=146&kwd=soft toy baby bed&tags=||||8230.883||product|||TS|rsf:gd-|-qr_nm:gd|res:RC4|com-cf:nl|ptrs:na|ktp:N0|mc:223875|mtp:S|qry_typ:P|lang:en|wc:4|cs:7593|v=4,Wellgreen Pillow Xpress,https://www.indiamart.com/wellgreen-pillow-xpress/?pos=146&kwd=soft toy baby bed&tags=||||8230.883||product|||TS|rsf:gd-|-qr_nm:gd|res:RC4|com-cf:nl|ptrs:na|ktp:N0|mc:223875|mtp:S|qry_typ:P|lang:en|wc:4|cs:7593|v=4,False,Bhestan,Surat,"Plot No 1/2, Ashirwad Ind. Soc, Bhestan C/o Wellgreen Pillow Xpress, Bhestan, Surat - 395023, Dist.Surat, Gujarat",8047301526,
hemico Baby Digital Printed Cotton Fabric Educational Alphabet Learning Soft Pillow Cushion Book.,https://www.indiamart.com/proddetail/hemico-baby-digital-printed-cotton-fabric-educational-alphabet-learning-soft-pillow-cushion-book-2853739432197.html?pos=147&kwd=soft toy baby bed&tags=||||8230.883|Price|product|||TS|rsf:gd-|-qr_nm:gd|res:RC4|com-cf:nl|ptrs:na|ktp:N0|mc:223875|mtp:S|qry_typ:P|lang:en|wc:4|cs:7593|v=4,Hemico,https://www.hemico.in/?pos=147&kwd=soft toy baby bed&tags=||||8230.883|Price|product|||TS|rsf:gd-|-qr_nm:gd|res:RC4|com-cf:nl|ptrs:na|ktp:N0|mc:223875|mtp:S|qry_typ:P|lang:en|wc:4|cs:7593|v=4,False,Katargam,Surat,"Basement Shop No.-1, Sunday Hub Shopping Center, Ambatalavdi Road KATARGAM, Katargam, Surat - 395004, Dist.Surat, Gujarat",7942544294,
Yellow Polyester Fibre Naughty Baby Pillow,https://www.indiamart.com/proddetail/naughty-baby-pillow-20710504255.html?pos=148&kwd=soft toy baby bed&tags=||||8752.144|Price|product|||TS|rsf:gd-|-qr_nm:gd|res:RC4|com-cf:nl|ptrs:na|ktp:N0|mc:223875|mtp:S|qry_typ:P|lang:en|wc:4|cs:7593|v=4,National Overseas,https://www.indiamart.com/nationaltraders-vishwashnagar/?pos=148&kwd=soft toy baby bed&tags=||||8752.144|Price|product|||TS|rsf:gd-|-qr_nm:gd|res:RC4|com-cf:nl|ptrs:na|ktp:N0|mc:223875|mtp:S|qry_typ:P|lang:en|wc:4|cs:7593|v=4,False,Shahdara,New Delhi,"1/99, Gali No. 3, Vishwas Nagar, Shahdara, New Delhi - 110032, Dist.Delhi, Delhi",8046047673,
"HR Foam and Memory Foam Libra Kids Mattress Mattress, Size/Dimension: 72x36 Inch, Thickness: 5 Inch",https://www.indiamart.com/proddetail/libra-kids-mattress-mattress-23445383630.html?pos=149&kwd=soft toy baby bed&tags=||||8752.144|Price|product|||TS|rsf:gd-|-qr_nm:gd|res:RC4|com-cf:nl|ptrs:na|ktp:N0|mc:223875|mtp:S|qry_typ:P|lang:en|wc:4|cs:7593|v=4,Ved Foam House,https://www.indiamart.com/ved-foam-house/?pos=149&kwd=soft toy baby bed&tags=||||8752.144|Price|product|||TS|rsf:gd-|-qr_nm:gd|res:RC4|com-cf:nl|ptrs:na|ktp:N0|mc:223875|mtp:S|qry_typ:P|lang:en|wc:4|cs:7593|v=4,False,Karol Bagh,New Delhi,"5812/4B, Ved Foam House, Pyare Lal Road, Karol Bagh, New Delhi - 110005, Dist.Delhi, Delhi",8048609515,
"SKY PILLOWS White Baby Cotton Pillow, For Home & Hotels, Shape: Rectangular",https://www.indiamart.com/proddetail/baby-cotton-pillow-2852780041991.html?pos=150&kwd=soft toy baby bed&tags=||||8706.263|Price|product|||MDC|rsf:gd-|-qr_nm:gd|res:RC4|com-cf:nl|ptrs:na|ktp:N0|mc:223875|mtp:S|qry_typ:P|lang:en|wc:4|cs:7593|v=4,Sri Sivasakthi Pillows,https://www.indiamart.com/sri-sivasakthi-pillows/?pos=150&kwd=soft toy baby bed&tags=||||8706.263|Price|product|||MDC|rsf:gd-|-qr_nm:gd|res:RC4|com-cf:nl|ptrs:na|ktp:N0|mc:223875|mtp:S|qry_typ:P|lang:en|wc:4|cs:7593|v=4,False,Ramanujam Nagar,Karur,"2228A, Ramanujam Nagar South, Aathiapartment Opposite, Ramanujam Nagar, Karur - 639002, Dist.Karur, Tamil Nadu",8047809674,
Rectangular Yellow Cartoon Print Soft Kids Pillow,https://www.indiamart.com/proddetail/yellow-cartoon-print-soft-kids-pillow-2853484184391.html?pos=151&kwd=soft toy baby bed&tags=||||8230.883|Price|product|||MDC|rsf:gd-|-qr_nm:gd|res:RC4|com-cf:nl|ptrs:na|ktp:N0|mc:223875|mtp:S|qry_typ:P|lang:en|wc:4|cs:7593|v=4,Khodiyar Kids,https://www.indiamart.com/khodiyar-kids/?pos=151&kwd=soft toy baby bed&tags=||||8230.883|Price|product|||MDC|rsf:gd-|-qr_nm:gd|res:RC4|com-cf:nl|ptrs:na|ktp:N0|mc:223875|mtp:S|qry_typ:P|lang:en|wc:4|cs:7593|v=4,False,Velanja,Surat,"Gf Shop ,Plot No 382 , Ram Vatika VI-2,Sayan Road, Near Rangoli Chowkdi, Velanja, Velanja, Surat - 394150, Dist.Surat, Gujarat",8047629218,
Baby Soft Mattress,https://www.indiamart.com/proddetail/baby-soft-mattress-2852769427788.html?pos=152&kwd=soft toy baby bed&tags=||||8307.81||product|||MDC|rsf:gd-|-qr_nm:gd|res:RC4|com-cf:nl|ptrs:na|ktp:N0|mc:223875|mtp:S|qry_typ:P|lang:en|wc:4|cs:7593|v=4,Shakti Mattresses,https://www.indiamart.com/shakti-mattresses/?pos=152&kwd=soft toy baby bed&tags=||||8307.81||product|||MDC|rsf:gd-|-qr_nm:gd|res:RC4|com-cf:nl|ptrs:na|ktp:N0|mc:223875|mtp:S|qry_typ:P|lang:en|wc:4|cs:7593|v=4,False,Undri,Pune,"Hissa No 2B/E, Inamdar Nagar, Survey No 63, Hadapsar, Undri, Pune - 411028, Dist.Pune, Maharashtra",7942708150,
"Plain Newborn Baby Plastic Bed Sheet, For Home, Size: 4x2(LxW)feet",https://www.indiamart.com/proddetail/newborn-baby-plastic-bed-sheet-2853993448148.html?pos=153&kwd=soft toy baby bed&tags=||||8752.144|Price|product|||MDC|rsf:gd-|-qr_nm:gd|res:RC4|com-cf:nl|ptrs:na|ktp:N0|mc:223875|mtp:S|qry_typ:P|lang:en|wc:4|cs:7593|v=4,A.D. Enterprises,https://www.indiamart.com/adenterprises-burari-newdelhi/?pos=153&kwd=soft toy baby bed&tags=||||8752.144|Price|product|||MDC|rsf:gd-|-qr_nm:gd|res:RC4|com-cf:nl|ptrs:na|ktp:N0|mc:223875|mtp:S|qry_typ:P|lang:en|wc:4|cs:7593|v=4,False,North,New Delhi,"K.No-12/1, Main 25 FT. Road, Near Shyam Sweets, Uttranchal Enclave ,Kamal Pur, Burari, North, New Delhi - 110084, Dist.Delhi, Delhi",8044565004,
Baby Cotton Soft Pillow,https://www.indiamart.com/proddetail/baby-cotton-soft-pillow-23771459388.html?pos=154&kwd=soft toy baby bed&tags=||||8223.226|Price|product|||MDC|rsf:gd-|-qr_nm:gd|res:RC4|com-cf:nl|ptrs:na|ktp:N0|mc:223875|mtp:S|qry_typ:P|lang:en|wc:4|cs:7593|v=4,Wecare Solutions,https://www.indiamart.com/wecare-solutions/?pos=154&kwd=soft toy baby bed&tags=||||8223.226|Price|product|||MDC|rsf:gd-|-qr_nm:gd|res:RC4|com-cf:nl|ptrs:na|ktp:N0|mc:223875|mtp:S|qry_typ:P|lang:en|wc:4|cs:7593|v=4,False,Valiv,Thane,"Gala No. F-19-20, 1st Floor, Rajprabha Anand Industrial Estate Naikpada, Waliv, Valiv, Thane - 401208, Dist.Thane, Maharashtra",8047631791,
"Polar fleece polyester Baby Mattress, Packaging Type: Plastic Bag, Model Name/Number: Asur Dry Sheet",https://www.indiamart.com/proddetail/baby-mattress-24225837048.html?pos=155&kwd=soft toy baby bed&tags=||||8626.744|Price|product|||MDC|rsf:gd-|-qr_nm:gd|res:RC4|com-cf:nl|ptrs:na|ktp:N0|mc:223875|mtp:S|qry_typ:P|lang:en|wc:4|cs:7593|v=4,Fashion Tech Industries,https://www.indiamart.com/fashiontech-industries/?pos=155&kwd=soft toy baby bed&tags=||||8626.744|Price|product|||MDC|rsf:gd-|-qr_nm:gd|res:RC4|com-cf:nl|ptrs:na|ktp:N0|mc:223875|mtp:S|qry_typ:P|lang:en|wc:4|cs:7593|v=4,False,Nallur,Tiruppur,"98, Jai Nagar, 1st East Street, 2nd Cross, Rakkiyapallayam Kankeyam Road, Nallur, Tiruppur - 641606, Dist.Coimbatore, Tamil Nadu",8046033259,
Cortez Baby Cradle Bed Mattress,https://www.indiamart.com/proddetail/cortez-baby-cradle-bed-mattress-26003213330.html?pos=156&kwd=soft toy baby bed&tags=||||8584.299|Price|product|||MDC|rsf:gd-|-qr_nm:gd|res:RC4|com-cf:nl|ptrs:na|ktp:N0|mc:223875|mtp:S|qry_typ:P|lang:en|wc:4|cs:7593|v=4,Britex,https://www.indiamart.com/britex-coimbatore/?pos=156&kwd=soft toy baby bed&tags=||||8584.299|Price|product|||MDC|rsf:gd-|-qr_nm:gd|res:RC4|com-cf:nl|ptrs:na|ktp:N0|mc:223875|mtp:S|qry_typ:P|lang:en|wc:4|cs:7593|v=4,False,Sanath Nagar,Coimbatore,"No.1/155A, Mottukaran Thottam, Pathuvampalli , Annur,, Sanath Nagar, Coimbatore - 641659, Dist.Coimbatore, Tamil Nadu",8043853672,
"Fcae Colour And Blue 15inch Cotton Soft Baby Blanket Set, Size: Singe",https://www.indiamart.com/proddetail/15inch-cotton-soft-baby-blanket-set-2853473342430.html?pos=157&kwd=soft toy baby bed&tags=||||8230.883|Price|product|||MDC|rsf:gd-|-qr_nm:gd|res:RC4|com-cf:nl|ptrs:na|ktp:N0|mc:223875|mtp:S|qry_typ:P|lang:en|wc:4|cs:7593|v=4,Riyo Enterprise,https://www.indiamart.com/riyo-enterprise-surat/?pos=157&kwd=soft toy baby bed&tags=||||8230.883|Price|product|||MDC|rsf:gd-|-qr_nm:gd|res:RC4|com-cf:nl|ptrs:na|ktp:N0|mc:223875|mtp:S|qry_typ:P|lang:en|wc:4|cs:7593|v=4,False,Punagam,Surat,"Ground Floor, A-228, Narayannagar Society, Punagam Road, Nalanda Vidhyalay, Punagam, Punagam, Surat - 395010, Dist.Surat, Gujarat",8045910533,
"Cotton Baby Mosquito Net Bed, For Home, Size: Medium",https://www.indiamart.com/proddetail/baby-mosquito-net-bed-2855061502348.html?pos=158&kwd=soft toy baby bed&tags=||||8752.144|Price|product|||MDC|rsf:gd-|-qr_nm:gd|res:RC4|com-cf:nl|ptrs:na|ktp:N0|mc:223875|mtp:S|qry_typ:P|lang:en|wc:4|cs:7593|v=4,Dealsup,https://www.indiamart.com/dealsup-north-delhi/?pos=158&kwd=soft toy baby bed&tags=||||8752.144|Price|product|||MDC|rsf:gd-|-qr_nm:gd|res:RC4|com-cf:nl|ptrs:na|ktp:N0|mc:223875|mtp:S|qry_typ:P|lang:en|wc:4|cs:7593|v=4,False,,New Delhi,"Kamal Pur Majra, Khasra No. 7/14, Kamal Vihar, Village Burari North Delhi, New Delhi - 110084, Dist.Delhi, Delhi",7942532252,
Thickness: 3 inch Size: Single Centuary Beddy Nest-Baby Mattress,https://www.indiamart.com/proddetail/centuary-beddy-nest-baby-mattress-2849333847430.html?pos=159&kwd=soft toy baby bed&tags=||||8948.301||product|||MDC|rsf:gd-|-qr_nm:gd|res:RC4|com-cf:nl|ptrs:na|ktp:N0|mc:223875|mtp:S|qry_typ:P|lang:en|wc:4|cs:7593|v=4,Emmadi Venkateshwarlu & Sons,https://www.indiamart.com/emmadi-venkateshwarlu-sons/?pos=159&kwd=soft toy baby bed&tags=||||8948.301||product|||MDC|rsf:gd-|-qr_nm:gd|res:RC4|com-cf:nl|ptrs:na|ktp:N0|mc:223875|mtp:S|qry_typ:P|lang:en|wc:4|cs:7593|v=4,False,Mahbu,Mahabubabad,"6-3-53/11, Nehru Statue, Mahbu, Mahabubabad - 506101, Dist.Warangal, Telangana",7942965833,
Pink (Base) Printed Cotton Baby Bedding Set,https://www.indiamart.com/proddetail/printed-cotton-baby-bedding-set-2850650074573.html?pos=160&kwd=soft toy baby bed&tags=||||8752.144|Price|product|||MDC|rsf:gd-|-qr_nm:gd|res:RC4|com-cf:nl|ptrs:na|ktp:N0|mc:223875|mtp:S|qry_typ:P|lang:en|wc:4|cs:7593|v=4,L T Textiles,https://www.indiamart.com/lttextiles/?pos=160&kwd=soft toy baby bed&tags=||||8752.144|Price|product|||MDC|rsf:gd-|-qr_nm:gd|res:RC4|com-cf:nl|ptrs:na|ktp:N0|mc:223875|mtp:S|qry_typ:P|lang:en|wc:4|cs:7593|v=4,False,Pahari Dhiraj,New Delhi,"5189-90 Main Road, Sadar Bazar, Pahari Dhiraj, New Delhi - 110006, Dist.Delhi, Delhi",7942958455,
"Blue,Red And Beige U Baby Soft Pillow Set, 3-12 Months",https://www.indiamart.com/proddetail/baby-soft-pillow-set-2851226389155.html?pos=161&kwd=soft toy baby bed&tags=||||8752.144||product|||MDC|rsf:gd-|-qr_nm:gd|res:RC4|com-cf:nl|ptrs:na|ktp:N0|mc:223875|mtp:S|qry_typ:P|lang:en|wc:4|cs:7593|v=4,Prince And Princess,https://www.indiamart.com/prince-princess-delhi/?pos=161&kwd=soft toy baby bed&tags=||||8752.144||product|||MDC|rsf:gd-|-qr_nm:gd|res:RC4|com-cf:nl|ptrs:na|ktp:N0|mc:223875|mtp:S|qry_typ:P|lang:en|wc:4|cs:7593|v=4,False,Gulabi Bagh,New Delhi,"Ground Floor, Garage No - 74, Gulabi Bagh Road,, Gulabi Bagh, New Delhi - 110007, Dist.Delhi, Delhi",8047629125,
Size: Single 6 Inch Cotton Newborn Baby Mattress,https://www.indiamart.com/proddetail/6-inch-cotton-newborn-baby-mattress-2852547247262.html?pos=162&kwd=soft toy baby bed&tags=||||8774.064|Price|product|||MDC|rsf:gd-|-qr_nm:gd|res:RC4|com-cf:nl|ptrs:na|ktp:N0|mc:223875|mtp:S|qry_typ:P|lang:en|wc:4|cs:7593|v=4,You We Care,https://www.indiamart.com/you-we-care/?pos=162&kwd=soft toy baby bed&tags=||||8774.064|Price|product|||MDC|rsf:gd-|-qr_nm:gd|res:RC4|com-cf:nl|ptrs:na|ktp:N0|mc:223875|mtp:S|qry_typ:P|lang:en|wc:4|cs:7593|v=4,False,Nagamangalam,Tiruchirappalli,"137, Vatc Nagar, Alampatti Road, Nagamangalam, Nagamangalam, Tiruchirappalli - 620012, Dist.Tiruchirappalli, Tamil Nadu",7942649406,
Sky Blue Rectangular Baby Cotton Foam Bed,https://www.indiamart.com/proddetail/baby-cotton-foam-bed-24326908748.html?pos=163&kwd=soft toy baby bed&tags=||||9140.514|Price|product|||MDC|rsf:gd-|-qr_nm:gd|res:RC4|com-cf:nl|ptrs:na|ktp:N0|mc:223875|mtp:S|qry_typ:P|lang:en|wc:4|cs:7593|v=4,Shivay Trading & Manufacturing,https://www.indiamart.com/shivaytradingmanufacturing/?pos=163&kwd=soft toy baby bed&tags=||||9140.514|Price|product|||MDC|rsf:gd-|-qr_nm:gd|res:RC4|com-cf:nl|ptrs:na|ktp:N0|mc:223875|mtp:S|qry_typ:P|lang:en|wc:4|cs:7593|v=4,False,Pandri,Raipur,"Plot No.94, First Floor, Indira Gandhi Vyavsayik Parisar, Cloth Market, Pandri, Pandri, Raipur - 492001, Chhattisgarh",8044012762,
"Baby Cot With Mattress, Powder coated",https://www.indiamart.com/proddetail/baby-cot-with-mattress-2854320187233.html?pos=164&kwd=soft toy baby bed&tags=||||8752.144|Price|product|||MDC|rsf:gd-|-qr_nm:gd|res:RC4|com-cf:nl|ptrs:na|ktp:N0|mc:223875|mtp:S|qry_typ:P|lang:en|wc:4|cs:7593|v=4,Medicom International,https://www.indiamart.com/medicominternational/?pos=164&kwd=soft toy baby bed&tags=||||8752.144|Price|product|||MDC|rsf:gd-|-qr_nm:gd|res:RC4|com-cf:nl|ptrs:na|ktp:N0|mc:223875|mtp:S|qry_typ:P|lang:en|wc:4|cs:7593|v=4,False,,New Delhi,"Third Floor Plot No 121,Vani Vihar, Uttam Nagar,West Delhi, New Delhi - 110059, Dist.Delhi, Delhi",8045729241,
Soft Toy Baby Bed,https://www.indiamart.com/proddetail/soft-toy-baby-bed-13877601362.html?pos=165&kwd=soft toy baby bed&tags=CC||||8668.838||product|||NA|rsf:gd-|-qr_nm:gd|res:RC4|com-cf:nl|ptrs:na|ktp:N0|mc:223875|mtp:S|qry_typ:P|lang:en|wc:4|cs:7593|v=4,Cool Kids,https://www.indiamart.com/coolkidserode/?pos=165&kwd=soft toy baby bed&tags=CC||||8668.838||product|||NA|rsf:gd-|-qr_nm:gd|res:RC4|com-cf:nl|ptrs:na|ktp:N0|mc:223875|mtp:S|qry_typ:P|lang:en|wc:4|cs:7593|v=4,False,KK Nagar,Erode,"No. 46, KK Nagar, KK Nagar, Erode - 638009, Dist.Erode, Tamil Nadu",7942647078,
"Cotton Baby Blue Bedding Set, Printed",https://www.indiamart.com/proddetail/baby-blue-bedding-set-22553510055.html?pos=166&kwd=soft toy baby bed&tags=||||8752.144|Price|product|||MDC|rsf:gd-|-qr_nm:gd|res:RC4|com-cf:nl|ptrs:na|ktp:N0|mc:223875|mtp:S|qry_typ:P|lang:en|wc:4|cs:7593|v=4,Kidz Creation,https://www.indiamart.com/kidzcreation/?pos=166&kwd=soft toy baby bed&tags=||||8752.144|Price|product|||MDC|rsf:gd-|-qr_nm:gd|res:RC4|com-cf:nl|ptrs:na|ktp:N0|mc:223875|mtp:S|qry_typ:P|lang:en|wc:4|cs:7593|v=4,False,,New Delhi,"Shop No. 279/517,Sabharwal Market, Tolia Wali Gali Sadar Bazar, North Delhi,, New Delhi - 110006, Dist.Delhi, Delhi",8047679212,
soft bed,https://www.indiamart.com/proddetail/soft-bed-2851674591491.html?pos=167&kwd=soft toy baby bed&tags=CC||||8752.144|Price|product|||NA|rsf:gd-|-qr_nm:gd|res:RC4|com-cf:nl|ptrs:na|ktp:N0|mc:223875|mtp:S|qry_typ:P|lang:en|wc:4|cs:7593|v=4,Uday Furnishers,https://www.indiamart.com/uday-furnishers/?pos=167&kwd=soft toy baby bed&tags=CC||||8752.144|Price|product|||NA|rsf:gd-|-qr_nm:gd|res:RC4|com-cf:nl|ptrs:na|ktp:N0|mc:223875|mtp:S|qry_typ:P|lang:en|wc:4|cs:7593|v=4,False,,New Delhi,", New Delhi - 110015, Dist.Delhi, Delhi",8047311016,2715
Kids Plush Toy Sofa Seat,,Unlockurban,https://www.indiamart.com/unlockurban/?pos=168&kwd=soft toy baby bed&tags=CC||||8601.347|Price|product|||NA|rsf:gd-|-qr_nm:gd|res:RC4|com-cf:nl|ptrs:na|ktp:N0|mc:223875|mtp:S|qry_typ:P|lang:en|wc:4|cs:7593|v=4,False,Sanganer,Jaipur,"Shiv Colony, Khokhabas, Kokawas, Khokhabas,, Sanganer, Jaipur - 302029, Dist.Jaipur, Rajasthan",8048249683,1433
Yellow & Blue A&G Minion Cartoon Character Pillow Baby Bed,https://www.indiamart.com/proddetail/a-g-minion-cartoon-character-pillow-baby-bed-20682094555.html?pos=169&kwd=soft toy baby bed&tags=CC||||8752.144|Price|product|||NA|rsf:gd-|-qr_nm:gd|res:RC4|com-cf:nl|ptrs:na|ktp:N0|mc:223875|mtp:S|qry_typ:P|lang:en|wc:4|cs:7593|v=4,Cute World,https://www.indiamart.com/cute-world/?pos=169&kwd=soft toy baby bed&tags=CC||||8752.144|Price|product|||NA|rsf:gd-|-qr_nm:gd|res:RC4|com-cf:nl|ptrs:na|ktp:N0|mc:223875|mtp:S|qry_typ:P|lang:en|wc:4|cs:7593|v=4,False,,Delhi,"20 4 Prem Nagar, Delhi - 125120, Dist.Delhi, Delhi",8045849874,330
Baby Tub Bed,https://www.indiamart.com/proddetail/baby-tub-bed-22003445588.html?pos=170&kwd=soft toy baby bed&tags=CC||||8038.093||product|||NA|rsf:gd-|-qr_nm:gd|res:RC4|com-cf:nl|ptrs:na|ktp:N0|mc:223875|mtp:S|qry_typ:P|lang:en|wc:4|cs:7593|v=4,Ambition Of Creativity,https://www.indiamart.com/ambition-of-creativity/?pos=170&kwd=soft toy baby bed&tags=CC||||8038.093||product|||NA|rsf:gd-|-qr_nm:gd|res:RC4|com-cf:nl|ptrs:na|ktp:N0|mc:223875|mtp:S|qry_typ:P|lang:en|wc:4|cs:7593|v=4,False,Gondal,Rajkot,"CHOKSHI NAGAR,RAIYARAJ,UMVADA ROAD, Gondal, Rajkot - 360311, Dist.Rajkot, Gujarat",8048371772,217
Cotton Yellow And White Baby Bed Combo,https://www.indiamart.com/proddetail/yellow-and-white-baby-bed-combo-24742358573.html?pos=171&kwd=soft toy baby bed&tags=CC||||8211.142|Price|product|||NA|rsf:gd-|-qr_nm:gd|res:RC4|com-cf:nl|ptrs:na|ktp:N0|mc:223875|mtp:S|qry_typ:P|lang:en|wc:4|cs:7593|v=4,Baby World,https://www.indiamart.com/babyworld/?pos=171&kwd=soft toy baby bed&tags=CC||||8211.142|Price|product|||NA|rsf:gd-|-qr_nm:gd|res:RC4|com-cf:nl|ptrs:na|ktp:N0|mc:223875|mtp:S|qry_typ:P|lang:en|wc:4|cs:7593|v=4,False,Masjid Bandar,Mumbai,"12, Gorund Floor, Fatimabai Building, Dharamashala Street, Umerkhadi, Chinchbunder, Masjid Bandar, Mumbai - 400009, Dist.Mumbai, Maharashtra",7942539685,
Fur Pink Baby Fancy Soft Toys,https://www.indiamart.com/proddetail/baby-fancy-soft-toys-22239218833.html?pos=172&kwd=soft toy baby bed&tags=CC||||8646.75|Price|product|||NA|rsf:gd-|-qr_nm:gd|res:RC4|com-cf:nl|ptrs:na|ktp:N0|mc:223875|mtp:S|qry_typ:P|lang:en|wc:4|cs:7593|v=4,Chouhan Enterprises,https://www.indiamart.com/chouhan-enterprises-sunam/?pos=172&kwd=soft toy baby bed&tags=CC||||8646.75|Price|product|||NA|rsf:gd-|-qr_nm:gd|res:RC4|com-cf:nl|ptrs:na|ktp:N0|mc:223875|mtp:S|qry_typ:P|lang:en|wc:4|cs:7593|v=4,False,Kohliyan Wala Mohalla,Sunam,"Near Hindu Sbha High School, Kohliyan Wala Mohalla, Sunam - 148028, Dist.Sangrur, Punjab",7942613493,
Pure Natural Cotton 450 Grams Bueno Baby Travelling Bed,https://www.indiamart.com/proddetail/bueno-baby-travelling-bed-22708242355.html?pos=173&kwd=soft toy baby bed&tags=CC||||8505.002||product|||NA|rsf:gd-|-qr_nm:gd|res:RC4|com-cf:nl|ptrs:na|ktp:N0|mc:223875|mtp:S|qry_typ:P|lang:en|wc:4|cs:7593|v=4,K.V.H. Bed Works,https://www.indiamart.com/kvh-bed-work/?pos=173&kwd=soft toy baby bed&tags=CC||||8505.002||product|||NA|rsf:gd-|-qr_nm:gd|res:RC4|com-cf:nl|ptrs:na|ktp:N0|mc:223875|mtp:S|qry_typ:P|lang:en|wc:4|cs:7593|v=4,False,Perinthalmanna,Perinthalmanna,"Vengoor Post, Keezhttur Village, Perinthalmanna, Perinthalmanna - 679325, Dist.Malappuram, Kerala",8047806530,
"Pink Rectangular Baby Bed, 3-12 Months",https://www.indiamart.com/proddetail/rectangular-baby-bed-22949351291.html?pos=174&kwd=soft toy baby bed&tags=CC||||8228.275|Price|product|||NA|rsf:gd-|-qr_nm:gd|res:RC4|com-cf:nl|ptrs:na|ktp:N0|mc:223875|mtp:S|qry_typ:P|lang:en|wc:4|cs:7593|v=4,Low Price,https://www.indiamart.com/low-prices/?pos=174&kwd=soft toy baby bed&tags=CC||||8228.275|Price|product|||NA|rsf:gd-|-qr_nm:gd|res:RC4|com-cf:nl|ptrs:na|ktp:N0|mc:223875|mtp:S|qry_typ:P|lang:en|wc:4|cs:7593|v=4,False,AMBAWADI,Ahmedabad,"SHOP-3, VORA NI CHALI, NR.AVISHKAR SHOPPING CENTRE, AMBAWADI, Ahmedabad - 380006, Dist.Ahmedabad, Gujarat",8048372569,185
"Velvet And Net Plain Baby Bed, 3-12 Months",https://www.indiamart.com/proddetail/plain-baby-bed-20434361788.html?pos=175&kwd=soft toy baby bed&tags=CC||||8641.487|Price|product|||NA|rsf:gd-|-qr_nm:gd|res:RC4|com-cf:nl|ptrs:na|ktp:N0|mc:223875|mtp:S|qry_typ:P|lang:en|wc:4|cs:7593|v=4,Singla Garment & Cloth Marchant,https://www.indiamart.com/singla-garmentcloth-merchant/?pos=175&kwd=soft toy baby bed&tags=CC||||8641.487|Price|product|||NA|rsf:gd-|-qr_nm:gd|res:RC4|com-cf:nl|ptrs:na|ktp:N0|mc:223875|mtp:S|qry_typ:P|lang:en|wc:4|cs:7593|v=4,False,,Jalandhar,"N F 228,TANDA ROAD,,JALANDHAR 539/104 STREET NO. 5,PREET NAGAR, NEW SHIVPURI ROAD,141008,Ludhiana, Jalandhar - 144001, Dist.Jalandhar, Punjab",8048978416,
Designer Baby Bed,https://www.indiamart.com/proddetail/designer-baby-bed-22371798973.html?pos=176&kwd=soft toy baby bed&tags=CC||||8786.56||product|||NA|rsf:gd-|-qr_nm:gd|res:RC4|com-cf:nl|ptrs:na|ktp:N0|mc:223875|mtp:S|qry_typ:P|lang:en|wc:4|cs:7593|v=4,H K Baby Stores,https://www.indiamart.com/hkbabystores/?pos=176&kwd=soft toy baby bed&tags=CC||||8786.56||product|||NA|rsf:gd-|-qr_nm:gd|res:RC4|com-cf:nl|ptrs:na|ktp:N0|mc:223875|mtp:S|qry_typ:P|lang:en|wc:4|cs:7593|v=4,False,,Hyderabad,"1-7-340, Floor-ground, Musheerabad, Hyderabad, Telangana, 500020, Hyderabad - 500020, Dist.Hyderabad, Telangana",8043840092,
Magic Baby Bed,,Sri Sathypriyaa Mill,https://www.indiamart.com/sri-sathypriyaa-mill/?pos=177&kwd=soft toy baby bed&tags=CC||||8668.838||product|||NA|rsf:gd-|-qr_nm:gd|res:RC4|com-cf:nl|ptrs:na|ktp:N0|mc:223875|mtp:S|qry_typ:P|lang:en|wc:4|cs:7593|v=4,False,Chinnamuthu I Street,Erode,"18 CHINNAMUTHU MAIN STREET Edayankattu Valasu, Chinnamuthu I Street, Erode - 638011, Dist.Erode, Tamil Nadu",8048372251,341
Cotton Neck Pillow Furniture baby bed,https://www.indiamart.com/proddetail/furniture-baby-bed-2854957977930.html?pos=178&kwd=soft toy baby bed&tags=CC||||9289.527|Price|product|||NA|rsf:gd-|-qr_nm:gd|res:RC4|com-cf:nl|ptrs:na|ktp:N0|mc:223875|mtp:S|qry_typ:P|lang:en|wc:4|cs:7593|v=4,Garg Cloth Store,https://www.indiamart.com/garg-cloth-store-vishrampur/?pos=178&kwd=soft toy baby bed&tags=CC||||9289.527|Price|product|||NA|rsf:gd-|-qr_nm:gd|res:RC4|com-cf:nl|ptrs:na|ktp:N0|mc:223875|mtp:S|qry_typ:P|lang:en|wc:4|cs:7593|v=4,False,surajpue,Vishrampur,"Ward No 05 Bhaiyathan Road Surajpur, surajpue, Vishrampur - 497229, Dist.Surguja, Chhattisgarh",8069728207,704
"Cotton,Polyester Plain Baby Bedding, 500 Gram, 1 Year",https://www.indiamart.com/proddetail/plain-baby-bedding-22821330788.html?pos=179&kwd=soft toy baby bed&tags=CC||||8488.448|Price|product|||NA|rsf:gd-|-qr_nm:gd|res:RC4|com-cf:nl|ptrs:na|ktp:N0|mc:223875|mtp:S|qry_typ:P|lang:en|wc:4|cs:7593|v=4,Akbartraders,https://www.indiamart.com/akbar-traders-malappuram/?pos=179&kwd=soft toy baby bed&tags=CC||||8488.448|Price|product|||NA|rsf:gd-|-qr_nm:gd|res:RC4|com-cf:nl|ptrs:na|ktp:N0|mc:223875|mtp:S|qry_typ:P|lang:en|wc:4|cs:7593|v=4,False,Thiruvananthapuram,Malappuram,"786, Akbar tradesh Anthiyur, Thiruvananthapuram, Malappuram - 679338, Dist.Malappuram, Kerala",8069033807,832
"Micro Cotton Multicolor Baby Sleeping Bed Set, For Home",https://www.indiamart.com/proddetail/baby-sleeping-bed-set-26266030697.html?pos=180&kwd=soft toy baby bed&tags=||||8752.144|Price|proxy|||TS|rsf:gd-|-qr_nm:gd|res:RC4|com-cf:nl|ptrs:na|ktp:N0|mc:223875|mtp:S|qry_typ:P|lang:en|wc:4|cs:7593|v=4,Verma Enterprises,https://www.styaloindia.com/?pos=180&kwd=soft toy baby bed&tags=||||8752.144|Price|proxy|||TS|rsf:gd-|-qr_nm:gd|res:RC4|com-cf:nl|ptrs:na|ktp:N0|mc:223875|mtp:S|qry_typ:P|lang:en|wc:4|cs:7593|v=4,False,Samaypur,New Delhi,"Plot No.180/1-B, Kh.No. 955/1, 1st, Block-C, Raja Vihar, Siraspur, Badli, North West Delhi, Samaypur, New Delhi - 110042, Dist.Delhi, Delhi",8047654672,
Good Quality Cotton Baby Bedding Set,https://www.indiamart.com/proddetail/baby-bedding-set-22261401388.html?pos=181&kwd=soft toy baby bed&tags=||||9829.308|Price|proxy|||TS|rsf:gd-|-qr_nm:gd|res:RC4|com-cf:nl|ptrs:na|ktp:N0|mc:223875|mtp:S|qry_typ:P|lang:en|wc:4|cs:7593|v=4,Yash Garment,https://www.indiamart.com/yash-garment/?pos=181&kwd=soft toy baby bed&tags=||||9829.308|Price|proxy|||TS|rsf:gd-|-qr_nm:gd|res:RC4|com-cf:nl|ptrs:na|ktp:N0|mc:223875|mtp:S|qry_typ:P|lang:en|wc:4|cs:7593|v=4,False,Ross Road,Howrah,"Gali No.38/25, Ross Road, Howrah - 711101, Dist.Howrah, West Bengal",7942556350,
"Plush Baby Sofa, 1-3 Years",https://www.indiamart.com/proddetail/baby-sofa-2854327329973.html?pos=182&kwd=soft toy baby bed&tags=||||8954.051|Price|proxy|||TS|rsf:gd-|-qr_nm:gd|res:RC4|com-cf:nl|ptrs:na|ktp:N0|mc:223875|mtp:S|qry_typ:P|lang:en|wc:4|cs:7593|v=4,Ramdev Soft Toys,https://www.indiamart.com/ramdevsoft-toys/?pos=182&kwd=soft toy baby bed&tags=||||8954.051|Price|proxy|||TS|rsf:gd-|-qr_nm:gd|res:RC4|com-cf:nl|ptrs:na|ktp:N0|mc:223875|mtp:S|qry_typ:P|lang:en|wc:4|cs:7593|v=4,False,George Town,Chennai,"11 / 21,CITY CENTER COMPLEX,KASI CHETTY STREET,CHENNAI, George Town, Chennai - 600079, Dist.Chennai, Tamil Nadu",8043866722,
Baby sofa soft toy,https://www.indiamart.com/proddetail/baby-sofa-soft-toy-2855003323748.html?pos=183&kwd=soft toy baby bed&tags=||||8752.144|Price|proxy|||TS|rsf:gd-|-qr_nm:gd|res:RC4|com-cf:nl|ptrs:na|ktp:N0|mc:223875|mtp:S|qry_typ:P|lang:en|wc:4|cs:7593|v=4,Prince International Soft Toys,https://www.princeinternationals.com/?pos=183&kwd=soft toy baby bed&tags=||||8752.144|Price|proxy|||TS|rsf:gd-|-qr_nm:gd|res:RC4|com-cf:nl|ptrs:na|ktp:N0|mc:223875|mtp:S|qry_typ:P|lang:en|wc:4|cs:7593|v=4,False,Mukundpur,New Delhi,"Plot No. 8 , Gali No. 3, Mukundpur Village, Near Shiv Mandir, Mukundpur, New Delhi - 110042, Dist.Delhi, Delhi",8048976675,
Baby Neck Pillow,https://www.indiamart.com/proddetail/baby-neck-pillow-2852001622748.html?pos=184&kwd=soft toy baby bed&tags=||||8785.791|Price|proxy|||TS|rsf:gd-|-qr_nm:gd|res:RC4|com-cf:nl|ptrs:na|ktp:N0|mc:223875|mtp:S|qry_typ:P|lang:en|wc:4|cs:7593|v=4,SMR Merchandise LLP,https://www.smrmerchandise.com/?pos=184&kwd=soft toy baby bed&tags=||||8785.791|Price|proxy|||TS|rsf:gd-|-qr_nm:gd|res:RC4|com-cf:nl|ptrs:na|ktp:N0|mc:223875|mtp:S|qry_typ:P|lang:en|wc:4|cs:7593|v=4,False,Vasundhara,Ghaziabad,"R - 312, Vvip Addresses, Raj Nagar Extension, Vasundhara, Ghaziabad - 201017, Dist.Ghaziabad, Uttar Pradesh",8048604571,
Rohit Purse Industries,,Rohit Purse Industries,https://www.indiamart.com/rohit-purse-industries/?pos=185&kwd=soft toy baby bed&tags=||||8752.144||bl|||TS|rsf:gd-|-qr_nm:gd|res:RC4|com-cf:nl|ptrs:na|ktp:N0|mc:223875|mtp:S|qry_typ:P|lang:en|wc:4|cs:7593|v=4,False,Delhi Sadar Bazar,New Delhi,"Ground, 2892/5, Qutab Road, Singhara Chowk, Delhi Sadar Bazar, New Delhi - 110006, Dist.Delhi, Delhi",8046059753,
Baby Head Shaping D Shape Pillow,https://www.indiamart.com/proddetail/baby-head-shaping-d-shape-pillow-2853364438662.html?pos=186&kwd=soft toy baby bed&tags=||||8741.812|Price|proxy|||TS|rsf:gd-|-qr_nm:gd|res:RC4|com-cf:nl|ptrs:na|ktp:N0|mc:223875|mtp:S|qry_typ:P|lang:en|wc:4|cs:7593|v=4,Saimson,https://www.saimson.com/?pos=186&kwd=soft toy baby bed&tags=||||8741.812|Price|proxy|||TS|rsf:gd-|-qr_nm:gd|res:RC4|com-cf:nl|ptrs:na|ktp:N0|mc:223875|mtp:S|qry_typ:P|lang:en|wc:4|cs:7593|v=4,False,Punhana,Gurugram,"Kewat No/ Khata No 477/534 M. N 51, Kila No 8/2 7-3, Punhana, Lohinga Kalan,, Punhana, Gurugram - 122508, Dist.Gurgaon, Haryana",7942964240,
BABY Sofa Soft Toy,,Sai Enterprises,https://www.indiamart.com/sai-entps-india/?pos=187&kwd=soft toy baby bed&tags=||||8752.144||product|||NA|rsf:gd-|-qr_nm:gd|res:RC4|com-cf:nl|ptrs:na|ktp:N0|mc:223875|mtp:S|qry_typ:P|lang:en|wc:4|cs:7593|v=4,False,Mukundpur Part II,New Delhi,"KH. No. 230, 25 Foota Road, Mukundpur Part II, New Delhi - 110042, Dist.Delhi, Delhi",8062245008,891
"Delmi Pink & Brown Toys Baby Soft Plush Sofa Chair, For Home",https://www.indiamart.com/proddetail/toys-baby-soft-plush-sofa-chair-23080155862.html?pos=188&kwd=soft toy baby bed&tags=||||8752.144|Price|product|||NA|rsf:gd-|-qr_nm:gd|res:RC4|com-cf:nl|ptrs:na|ktp:N0|mc:223875|mtp:S|qry_typ:P|lang:en|wc:4|cs:7593|v=4,Delmi India Private Limited,https://www.indiamart.com/evolutionary-supplier/?pos=188&kwd=soft toy baby bed&tags=||||8752.144|Price|product|||NA|rsf:gd-|-qr_nm:gd|res:RC4|com-cf:nl|ptrs:na|ktp:N0|mc:223875|mtp:S|qry_typ:P|lang:en|wc:4|cs:7593|v=4,False,Wazirabad,New Delhi,"Second Floor M-10 New Multan Nagar, Wazirabad, New Delhi - 110056, Dist.Delhi, Delhi",8043802564,
Soft Toy,,Khushbu Toys,https://www.indiamart.com/khushbu-toys-new-delhi/?pos=189&kwd=soft toy baby bed&tags=||||8752.144|Price|product|||NA|rsf:gd-|-qr_nm:gd|res:RC4|com-cf:nl|ptrs:na|ktp:N0|mc:223875|mtp:S|qry_typ:P|lang:en|wc:4|cs:7593|v=4,False,,New Delhi,"B-1119-20, 2nd Floor, Block-B, Jahangirpuri,, New Delhi - 110033, Dist.Delhi, Delhi",8069033809,784
"Kids Soft Toy Sofa, 1-3 Years",https://www.indiamart.com/proddetail/kids-soft-toy-sofa-19962546097.html?pos=190&kwd=soft toy baby bed&tags=||||8747.203|Price|product|||NA|rsf:gd-|-qr_nm:gd|res:RC4|com-cf:nl|ptrs:na|ktp:N0|mc:223875|mtp:S|qry_typ:P|lang:en|wc:4|cs:7593|v=4,J.P Enterprises,https://www.indiamart.com/jp-enterprises-panipat/?pos=190&kwd=soft toy baby bed&tags=||||8747.203|Price|product|||NA|rsf:gd-|-qr_nm:gd|res:RC4|com-cf:nl|ptrs:na|ktp:N0|mc:223875|mtp:S|qry_typ:P|lang:en|wc:4|cs:7593|v=4,False,Amar Bhawan Chowk Area,Panipat,"Amar Bhawan Chowk Area, Amar Bhawan Chowk Area, Panipat - 132103, Dist.Panipat, Haryana",8048372605,308
soft toy sofa,https://www.indiamart.com/proddetail/soft-toy-sofa-23071120430.html?pos=191&kwd=soft toy baby bed&tags=||||7937.187|Price|product|||NA|rsf:gd-|-qr_nm:gd|res:RC4|com-cf:nl|ptrs:na|ktp:N0|mc:223875|mtp:S|qry_typ:P|lang:en|wc:4|cs:7593|v=4,RN Center,https://www.indiamart.com/rn-center/?pos=191&kwd=soft toy baby bed&tags=||||7937.187|Price|product|||NA|rsf:gd-|-qr_nm:gd|res:RC4|com-cf:nl|ptrs:na|ktp:N0|mc:223875|mtp:S|qry_typ:P|lang:en|wc:4|cs:7593|v=4,False,Bhuj,Bhuj,"B. 100, Bhram Samaj Wadi Mundra Relocation Site, Bhuj, Bhuj - 370001, Dist.Kachchh, Gujarat",8048372442,383
"Soft Toys Kids Pikachu Sheet/Sofa, For Home",https://www.indiamart.com/proddetail/pikachu-sheet-sofa-24182380230.html?pos=192&kwd=soft toy baby bed&tags=||||8752.144||product|||NA|rsf:gd-|-qr_nm:gd|res:RC4|com-cf:nl|ptrs:na|ktp:N0|mc:223875|mtp:S|qry_typ:P|lang:en|wc:4|cs:7593|v=4,Pahwa Traders,https://www.indiamart.com/pahwatradersdelhi/?pos=192&kwd=soft toy baby bed&tags=||||8752.144||product|||NA|rsf:gd-|-qr_nm:gd|res:RC4|com-cf:nl|ptrs:na|ktp:N0|mc:223875|mtp:S|qry_typ:P|lang:en|wc:4|cs:7593|v=4,False,Majnu Ka Tilla,New Delhi,"N-22 Majnu Ka Tilla, Civil Lines Block N, Aruna Nagar, Majnu Ka Tilla, New Delhi - 110054, Dist.Delhi, Delhi",8046077145,
Micky Mouse Baby Spotter For Sitting,https://www.indiamart.com/proddetail/micky-mouse-baby-spotter-for-sitting-26075571391.html?pos=193&kwd=soft toy baby bed&tags=||||8747.203|Price|product|||NA|rsf:gd-|-qr_nm:gd|res:RC4|com-cf:nl|ptrs:na|ktp:N0|mc:223875|mtp:S|qry_typ:P|lang:en|wc:4|cs:7593|v=4,Mahaluxmi Enterprises,https://www.indiamart.com/mahaluxmi-enterprisespanipat/?pos=193&kwd=soft toy baby bed&tags=||||8747.203|Price|product|||NA|rsf:gd-|-qr_nm:gd|res:RC4|com-cf:nl|ptrs:na|ktp:N0|mc:223875|mtp:S|qry_typ:P|lang:en|wc:4|cs:7593|v=4,False,,Panipat,"H.No-280/14, Mahalaxmi Enterprises Ganga Puri Road,, Panipat - 132103, Dist.Panipat, Haryana",8043859681,
Soft Toy Back Rester,https://www.indiamart.com/proddetail/soft-toy-back-rester-14014105573.html?pos=194&kwd=soft toy baby bed&tags=||||8788.382|Price|product|||NA|rsf:gd-|-qr_nm:gd|res:RC4|com-cf:nl|ptrs:na|ktp:N0|mc:223875|mtp:S|qry_typ:P|lang:en|wc:4|cs:7593|v=4,Minta Exim,https://www.indiamart.com/minta-exim/?pos=194&kwd=soft toy baby bed&tags=||||8788.382|Price|product|||NA|rsf:gd-|-qr_nm:gd|res:RC4|com-cf:nl|ptrs:na|ktp:N0|mc:223875|mtp:S|qry_typ:P|lang:en|wc:4|cs:7593|v=4,False,Udyog Kendra,Greater Noida,"J 67,SITE -V UPSIDC,,KASNA IND AREA GREATER NOIDA J-67, Kasna, Site 5, Industrial Area,201308,Greater Noida, Udyog Kendra, Greater Noida - 201310, Dist.Gautam Budh Nagar, Uttar Pradesh",8048361370,167
Cotton Cream (Base) Baby Printed Carry Bed Set,https://www.indiamart.com/proddetail/baby-printed-bedding-set-2854977854055.html?pos=195&kwd=soft toy baby bed&tags=||||8786.56|Price|proxy|||MDC|rsf:gd-|-qr_nm:gd|res:RC4|com-cf:nl|ptrs:na|ktp:N0|mc:223875|mtp:S|qry_typ:P|lang:en|wc:4|cs:7593|v=4,Vinod And Company,https://www.indiamart.com/vinodcompany-hyderabad/?pos=195&kwd=soft toy baby bed&tags=||||8786.56|Price|proxy|||MDC|rsf:gd-|-qr_nm:gd|res:RC4|com-cf:nl|ptrs:na|ktp:N0|mc:223875|mtp:S|qry_typ:P|lang:en|wc:4|cs:7593|v=4,False,Feelkhana,Hyderabad,"15/8/514/1/D, Feelkhana, Begum Bazar, Feelkhana, Hyderabad - 500012, Dist.Hyderabad, Telangana",7949086154,
Puppy Soft Toys,https://www.indiamart.com/proddetail/puppy-soft-toys-2853523125373.html?pos=196&kwd=soft toy baby bed&tags=||||8752.144||product|||NA|rsf:gd-|-qr_nm:gd|res:RC4|com-cf:nl|ptrs:na|ktp:N0|mc:223875|mtp:S|qry_typ:P|lang:en|wc:4|cs:7593|v=4,Mohit Enterprises,https://www.indiamart.com/mohitenterprises-22688798/?pos=196&kwd=soft toy baby bed&tags=||||8752.144||product|||NA|rsf:gd-|-qr_nm:gd|res:RC4|com-cf:nl|ptrs:na|ktp:N0|mc:223875|mtp:S|qry_typ:P|lang:en|wc:4|cs:7593|v=4,False,Sadar Bazar,New Delhi,"511/517 NEAR IMLIWALI MASJID,TELIWARA GALI SADAR BAZAR New Delhi, Sadar Bazar, New Delhi - 110006, Dist.Delhi, Delhi",8048372909,675
"Glorious Toys Soft Sun Shaped Baby Pillow, Shape: Round, Size/Dimension: 16 X 16 Inches",https://www.indiamart.com/proddetail/sun-shaped-baby-pillow-22401539748.html?pos=197&kwd=soft toy baby bed&tags=||||9122.228|Price|product|||NA|rsf:gd-|-qr_nm:gd|res:RC4|com-cf:nl|ptrs:na|ktp:N0|mc:223875|mtp:S|qry_typ:P|lang:en|wc:4|cs:7593|v=4,Glorious Toys,https://www.indiamart.com/glorious-toys/?pos=197&kwd=soft toy baby bed&tags=||||9122.228|Price|product|||NA|rsf:gd-|-qr_nm:gd|res:RC4|com-cf:nl|ptrs:na|ktp:N0|mc:223875|mtp:S|qry_typ:P|lang:en|wc:4|cs:7593|v=4,False,Rustumbada,Narsapur,"No. 3 - 1, Toy City, Rustumbada, Narasapur West Godavari District, Rustumbada, Narsapur - 534275, Andhra Pradesh",8046063116,
Kids Educational Learning Baby Pillow Cushion Soft Book Toys For Up To 1 Year Kids Boys Baby Pillows,https://www.indiamart.com/proddetail/kids-educational-learning-baby-pillow-cushion-soft-book-toys-for-up-to-1-year-kids-boys-baby-pillows-2853857019355.html?pos=198&kwd=soft toy baby bed&tags=||||8752.144|Price|product|||NA|rsf:gd-|-qr_nm:gd|res:RC4|com-cf:nl|ptrs:na|ktp:N0|mc:223875|mtp:S|qry_typ:P|lang:en|wc:4|cs:7593|v=4,Aflipshop,https://www.indiamart.com/aflipshopin/?pos=198&kwd=soft toy baby bed&tags=||||8752.144|Price|product|||NA|rsf:gd-|-qr_nm:gd|res:RC4|com-cf:nl|ptrs:na|ktp:N0|mc:223875|mtp:S|qry_typ:P|lang:en|wc:4|cs:7593|v=4,False,,New Delhi,"P-9, C/o Innovative E Business Service Llp Mayur Vihar Phase 1 Jp Complex New Delhi, New Delhi - 110091, Dist.Delhi, Delhi",,
Cotton VARIETY AVAILABLE MUSLIN REVERSABLE BABY NEST BED ROUND,https://www.indiamart.com/proddetail/muslin-reversable-baby-nest-bed-round-2854011989833.html?pos=199&kwd=soft toy baby bed&tags=||||8559.269|Price|proxy|||TS|rsf:gd-|-qr_nm:gd|res:RC4|com-cf:nl|ptrs:na|ktp:N0|mc:223875|mtp:S|qry_typ:P|lang:en|wc:4|cs:7593|v=4,Central India Fabrics,https://www.centralindiafabrics.net/?pos=199&kwd=soft toy baby bed&tags=||||8559.269|Price|proxy|||TS|rsf:gd-|-qr_nm:gd|res:RC4|com-cf:nl|ptrs:na|ktp:N0|mc:223875|mtp:S|qry_typ:P|lang:en|wc:4|cs:7593|v=4,True,Avantika Nagar,Indore,"2/A/C, Sector D, Sanwer Road Opposite Bandganga Police Station, Avantika Nagar, Indore - 452015, Dist.Indore, Madhya Pradesh",8048965370,
"Rectangular Infant White Printed Godadi Set, Cotton",https://www.indiamart.com/proddetail/infant-white-printed-godadi-set-2854718948362.html?pos=200&kwd=soft toy baby bed&tags=||||8228.275|Price|product|||NA|rsf:gd-|-qr_nm:gd|res:RC4|com-cf:nl|ptrs:na|ktp:N0|mc:223875|mtp:S|qry_typ:P|lang:en|wc:4|cs:7593|v=4,Shishu Apparels,https://www.indiamart.com/shishu-apparels/?pos=200&kwd=soft toy baby bed&tags=||||8228.275|Price|product|||NA|rsf:gd-|-qr_nm:gd|res:RC4|com-cf:nl|ptrs:na|ktp:N0|mc:223875|mtp:S|qry_typ:P|lang:en|wc:4|cs:7593|v=4,False,,Ahmedabad,"62, Laxmi Vishnu Market, Gheekanta Road, Ghee Kanta, Ahmedabad - 380001, Dist.Ahmedabad, Gujarat",7949322683,
"Cotton Printed Play Gym Baby Bed, 3 kg, 1 Year",https://www.indiamart.com/proddetail/play-gym-baby-bed-25635609162.html?pos=201&kwd=soft toy baby bed&tags=||||8747.203|Price|product|||NA|rsf:gd-|-qr_nm:gd|res:RC4|com-cf:nl|ptrs:na|ktp:N0|mc:223875|mtp:S|qry_typ:P|lang:en|wc:4|cs:7593|v=4,Online Vonline,https://www.indiamart.com/online-vonline/?pos=201&kwd=soft toy baby bed&tags=||||8747.203|Price|product|||NA|rsf:gd-|-qr_nm:gd|res:RC4|com-cf:nl|ptrs:na|ktp:N0|mc:223875|mtp:S|qry_typ:P|lang:en|wc:4|cs:7593|v=4,False,rajeev colony,Panipat,"1643/11, Street No.6 opp. g.n vidya mandir school, rajeev colony, Panipat - 132103, Dist.Panipat, Haryana",8047655064,
Supreme Soft Baby Bed Pack-L,https://www.indiamart.com/proddetail/supreme-soft-baby-bed-pack-l-2601014897.html?pos=202&kwd=soft toy baby bed&tags=||||8954.051||product|||NA|rsf:gd-|-qr_nm:gd|res:RC4|com-cf:nl|ptrs:na|ktp:N0|mc:223875|mtp:S|qry_typ:P|lang:en|wc:4|cs:7593|v=4,Utility Textiles,https://www.indiamart.com/utility-textiles/?pos=202&kwd=soft toy baby bed&tags=||||8954.051||product|||NA|rsf:gd-|-qr_nm:gd|res:RC4|com-cf:nl|ptrs:na|ktp:N0|mc:223875|mtp:S|qry_typ:P|lang:en|wc:4|cs:7593|v=4,False,Anna Nagar Shanthi Colony,Chennai,"AH 231, Ground Floor, 4th Street, Shanthi Colony, Anna Nagar, Anna Nagar Shanthi Colony, Chennai - 600040, Dist.Chennai, Tamil Nadu",8062245137,423
"Printed Red, White Baby Soft Bed Set",https://www.indiamart.com/proddetail/baby-soft-bed-set-18374118355.html?pos=203&kwd=soft toy baby bed&tags=||||8752.144|Price|product|||NA|rsf:gd-|-qr_nm:gd|res:RC4|com-cf:nl|ptrs:na|ktp:N0|mc:223875|mtp:S|qry_typ:P|lang:en|wc:4|cs:7593|v=4,R.D. Enterprises,https://www.indiamart.com/rdenterprise-delhi/?pos=203&kwd=soft toy baby bed&tags=||||8752.144|Price|product|||NA|rsf:gd-|-qr_nm:gd|res:RC4|com-cf:nl|ptrs:na|ktp:N0|mc:223875|mtp:S|qry_typ:P|lang:en|wc:4|cs:7593|v=4,False,Karawal Nagar,New Delhi,"B-184, Street No. 2, Sadatpur Colony, Karawal Nagar,, Karawal Nagar, New Delhi - 110094, Dist.Delhi, Delhi",7942660330,
"Plush Majestic Pink Kids Sofa, 1 - 7 Years",https://www.indiamart.com/proddetail/pink-kids-sofa-2853027733312.html?pos=204&kwd=soft toy baby bed&tags=||||8954.051|Price|proxy|||TS|rsf:gd-|-qr_nm:gd|res:RC4|com-cf:nl|ptrs:na|ktp:N0|mc:223875|mtp:S|qry_typ:P|lang:en|wc:4|cs:7593|v=4,Taram Enterprise,https://www.indiamart.com/taram-enterprise-chennai/?pos=204&kwd=soft toy baby bed&tags=||||8954.051|Price|proxy|||TS|rsf:gd-|-qr_nm:gd|res:RC4|com-cf:nl|ptrs:na|ktp:N0|mc:223875|mtp:S|qry_typ:P|lang:en|wc:4|cs:7593|v=4,False,Madhavaram Milk Colony,Chennai,"No 1123/856 A,, 25 Th Street, B. V Colony,, Vyasarpadi,, Madhavaram Milk Colony, Chennai - 600039, Dist.Chennai, Tamil Nadu",7942964785,
Shreya Furnicraft Private Limited,,Shreya Furnicraft Private Limited,https://www.shreyafurnicraft.co.in/?pos=205&kwd=soft toy baby bed&tags=||||8559.269||bl|||TS|rsf:gd-|-qr_nm:gd|res:RC4|com-cf:nl|ptrs:na|ktp:N0|mc:223875|mtp:S|qry_typ:P|lang:en|wc:4|cs:7593|v=4,False,Industrial Area,Indore,"Plot No. 129 & 140, Sector D-2, Industrial Area Sanwer Road, Industrial Area, Indore - 452015, Dist.Indore, Madhya Pradesh",7942966160,
"EF Fabric Kids Sofa Seat, 6 to 24 month",https://www.indiamart.com/proddetail/kids-sofa-seat-23779107462.html?pos=206&kwd=soft toy baby bed&tags=||||8659.139|Price|proxy|||MDC|rsf:gd-|-qr_nm:gd|res:RC4|com-cf:nl|ptrs:na|ktp:N0|mc:223875|mtp:S|qry_typ:P|lang:en|wc:4|cs:7593|v=4,Shri Toys,https://www.indiamart.com/shri-toys/?pos=206&kwd=soft toy baby bed&tags=||||8659.139|Price|proxy|||MDC|rsf:gd-|-qr_nm:gd|res:RC4|com-cf:nl|ptrs:na|ktp:N0|mc:223875|mtp:S|qry_typ:P|lang:en|wc:4|cs:7593|v=4,False,Midc Phase 3 And 4,Akola,"Plot No. N40, MIDC4, Akola Growth Center, Midc Phase 3 And 4, Akola - 444104, Dist.Akola, Maharashtra",8048983400,
Kids Baby Sofa Cum Bed,https://www.indiamart.com/proddetail/kids-baby-sofa-cum-bed-2853570686862.html?pos=207&kwd=soft toy baby bed&tags=||||8752.144|Price|proxy|||MDC|rsf:gd-|-qr_nm:gd|res:RC4|com-cf:nl|ptrs:na|ktp:N0|mc:223875|mtp:S|qry_typ:P|lang:en|wc:4|cs:7593|v=4,Ajay Enterprises,https://www.indiamart.com/ajayenterprisesdelhi/?pos=207&kwd=soft toy baby bed&tags=||||8752.144|Price|proxy|||MDC|rsf:gd-|-qr_nm:gd|res:RC4|com-cf:nl|ptrs:na|ktp:N0|mc:223875|mtp:S|qry_typ:P|lang:en|wc:4|cs:7593|v=4,False,Malka Ganj,New Delhi,"Plot No 626, Gautam Gali, Kabir Basti, Near Hansraj College, Malka Ganj, Malka Ganj, New Delhi - 110007, Dist.Delhi, Delhi",8046030100,
Very Soft Cotton Baby Bed With Playgym,,Natkhat Enterprise,https://www.indiamart.com/natkhatenterprise/?pos=208&kwd=soft toy baby bed&tags=||||7991.571|Price|product|||NA|rsf:gd-|-qr_nm:gd|res:RC4|com-cf:nl|ptrs:na|ktp:N0|mc:223875|mtp:S|qry_typ:P|lang:en|wc:4|cs:7593|v=4,False,Mangnath Road,Junagadh,"Tribhuvan Complex, First Floor Shop 1 -2, Mangnath Road, Junagadh - 362001, Dist.Junagadh, Gujarat",8043851522,
"Baby Soft Cotton Bedding, Newly Born To 1 Year",https://www.indiamart.com/proddetail/baby-soft-cotton-bedding-21753008430.html?pos=209&kwd=soft toy baby bed&tags=||||8211.142|Price|product|||NA|rsf:gd-|-qr_nm:gd|res:RC4|com-cf:nl|ptrs:na|ktp:N0|mc:223875|mtp:S|qry_typ:P|lang:en|wc:4|cs:7593|v=4,Bakai Creation,https://www.indiamart.com/bakaicreation/?pos=209&kwd=soft toy baby bed&tags=||||8211.142|Price|product|||NA|rsf:gd-|-qr_nm:gd|res:RC4|com-cf:nl|ptrs:na|ktp:N0|mc:223875|mtp:S|qry_typ:P|lang:en|wc:4|cs:7593|v=4,False,,Mumbai,"81,FLOOR-GRD, NAYA NAGAR, RAHEJA HOSPITAL MARG,MAHIM Naya Nagar, 81, Raheja Hospital Marg, Mahim,400017,Mumbai, Mumbai - 400016, Dist.Mumbai, Maharashtra",8048372574,102
chadu Baby Net Mattress Bedding Set Mattress with Mosquito Net (0-12 months) Grey color,https://www.indiamart.com/proddetail/chadu-baby-net-mattress-bedding-set-mattress-with-mosquito-net-0-12-months-grey-color-2854186074448.html?pos=210&kwd=soft toy baby bed&tags=||||8663.873|Price|product|||NA|rsf:gd-|-qr_nm:gd|res:RC4|com-cf:nl|ptrs:na|ktp:N0|mc:223875|mtp:S|qry_typ:P|lang:en|wc:4|cs:7593|v=4,Chadu,https://www.indiamart.com/chadu/?pos=210&kwd=soft toy baby bed&tags=||||8663.873|Price|product|||NA|rsf:gd-|-qr_nm:gd|res:RC4|com-cf:nl|ptrs:na|ktp:N0|mc:223875|mtp:S|qry_typ:P|lang:en|wc:4|cs:7593|v=4,False,,Bengaluru,", Bengaluru - 560032, Dist.Bengaluru, Karnataka",8048370717,5972
