product_title,product_link,company_name,company_link,is_verified_exporter,city_region,city,address_details,phone_number,phone_number_extension
Metal Stainless Steel Feeding Bottle 240ml,https://www.indiamart.com/proddetail/stainless-steel-feeding-bottle-240ml-2848984743630.html?pos=1&kwd=stainless steel feeding bottle&tags=A|PL|||8752.144|Price|product|||LSlc|rsf:pl-|-stype:attr=1|qr_nm:gd|res:RC4|com-cf:nl|ptrs:na|ktp:N0|mc:217154|mtp:S|qry_typ:P|lang:en|wc:4|flavl:0-1|cs:9743|v=4,Maharaja Cookers Private Limited,https://www.speedexind.co.in/?pos=1&kwd=stainless steel feeding bottle&tags=A|PL|||8752.144|Price|product|||LSlc|rsf:pl-|-stype:attr=1|qr_nm:gd|res:RC4|com-cf:nl|ptrs:na|ktp:N0|mc:217154|mtp:S|qry_typ:P|lang:en|wc:4|flavl:0-1|cs:9743|v=4,False,Narela,New Delhi,"H-1311, DSIIDC Industrial Area, Narela, New Delhi - 110040, Dist.Delhi, Delhi",8048981827,
Round Feeding Stainless Steel Bottle 140ml,https://www.indiamart.com/proddetail/round-feeding-stainless-steel-bottle-140ml-2853771949691.html?pos=2&kwd=stainless steel feeding bottle&tags=A|PL|||8747.223|Price|product|||SSlc|rsf:pl-|-stype:attr=1|qr_nm:gd|res:RC4|com-cf:nl|ptrs:na|ktp:N0|mc:217154|mtp:S|qry_typ:P|lang:en|wc:4|flavl:0-1|cs:9743|v=4,Dewdrop Bottles Pvt. Ltd.,https://www.dewdropbottles.com/?pos=2&kwd=stainless steel feeding bottle&tags=A|PL|||8747.223|Price|product|||SSlc|rsf:pl-|-stype:attr=1|qr_nm:gd|res:RC4|com-cf:nl|ptrs:na|ktp:N0|mc:217154|mtp:S|qry_typ:P|lang:en|wc:4|flavl:0-1|cs:9743|v=4,False,Sector 42,Sonipat,"Rect. And Killa No. 102//14/1/1, Revenue Estate, Akbarpur Barota, Sector 42, Sonipat - 131103, Dist.Sonipat, Haryana",7942840290,
"Metal Stainless Steel Feeding Bottle, Capacity: 250 mL, Baby",https://www.indiamart.com/proddetail/stainless-steel-feeding-bottle-2853782904562.html?pos=3&kwd=stainless steel feeding bottle&tags=A||||8785.791|Price|product|||TS|rsf:gd-|-stype:attr=1|qr_nm:gd|res:RC4|com-cf:nl|ptrs:na|ktp:N0|mc:217154|mtp:S|qry_typ:P|lang:en|wc:4|flavl:0-1|cs:9743|v=4,Paras Enterprises,https://www.claoberry.com/?pos=3&kwd=stainless steel feeding bottle&tags=A||||8785.791|Price|product|||TS|rsf:gd-|-stype:attr=1|qr_nm:gd|res:RC4|com-cf:nl|ptrs:na|ktp:N0|mc:217154|mtp:S|qry_typ:P|lang:en|wc:4|flavl:0-1|cs:9743|v=4,False,Raj Nagar Extension,Ghaziabad,"KH.NO.-2565,VILLAGE KARHERA,MOHAN NAGAR,Ghaziabad, Raj Nagar Extension, Ghaziabad - 201007, Dist.Ghaziabad, Uttar Pradesh",8043862487,
"Silver Stainless Steel Feeding Bottle, Design/Pattern: ML Marking Pattern, Newly Born",https://www.indiamart.com/proddetail/stainless-steel-feeding-bottle-2849508964391.html?pos=4&kwd=stainless steel feeding bottle&tags=A||||8752.144|Price|product|||TS|rsf:gd-|-stype:attr=1|qr_nm:gd|res:RC4|com-cf:nl|ptrs:na|ktp:N0|mc:217154|mtp:S|qry_typ:P|lang:en|wc:4|flavl:0-1|cs:9743|v=4,R B Enterprises,https://www.indiamart.com/rbenterpriseskondalinewdelhi/?pos=4&kwd=stainless steel feeding bottle&tags=A||||8752.144|Price|product|||TS|rsf:gd-|-stype:attr=1|qr_nm:gd|res:RC4|com-cf:nl|ptrs:na|ktp:N0|mc:217154|mtp:S|qry_typ:P|lang:en|wc:4|flavl:0-1|cs:9743|v=4,False,Gharoli,New Delhi,"Ground, 58 F/F/R/S Brahman Basti, Kondli Main Road, Kondli Gharoli,, Gharoli, New Delhi - 110094, Dist.Delhi, Delhi",7942535965,
"Silver Stainless Steel Feeding Bottle, Design/Pattern: Plain, Newly Born",https://www.indiamart.com/proddetail/stainless-steel-feeding-bottle-2850458006262.html?pos=5&kwd=stainless steel feeding bottle&tags=A||||8778.123|Price|product|||TS|rsf:gd-|-stype:attr=1|qr_nm:gd|res:RC4|com-cf:nl|ptrs:na|ktp:N0|mc:217154|mtp:S|qry_typ:P|lang:en|wc:4|flavl:0-1|cs:9743|v=4,Radiant Enterprises,https://www.indiamart.com/radiant-enterprisesgautam-budhnagar/?pos=5&kwd=stainless steel feeding bottle&tags=A||||8778.123|Price|product|||TS|rsf:gd-|-stype:attr=1|qr_nm:gd|res:RC4|com-cf:nl|ptrs:na|ktp:N0|mc:217154|mtp:S|qry_typ:P|lang:en|wc:4|flavl:0-1|cs:9743|v=4,False,,Noida,"Tower-3,Flat-2601,Lotus 300,Noida,Gautam Buddha Nagar, Noida - 201304, Dist.Gautam Budh Nagar, Uttar Pradesh",7942828511,
Stainless Steel Baby Feeding Bottle,https://www.indiamart.com/proddetail/stainless-steel-baby-feeding-bottle-2850822097391.html?pos=6&kwd=stainless steel feeding bottle&tags=A||||8752.144|Price|product|||SSnp|rsf:gd-|-stype:attr=1|qr_nm:gd|res:RC4|com-cf:nl|ptrs:na|ktp:N0|mc:217154|mtp:S|qry_typ:P|lang:en|wc:4|flavl:0-1|cs:9743|v=4,Ishvan Impex Private Limited,https://www.ishvanimpex.com/?pos=6&kwd=stainless steel feeding bottle&tags=A||||8752.144|Price|product|||SSnp|rsf:gd-|-stype:attr=1|qr_nm:gd|res:RC4|com-cf:nl|ptrs:na|ktp:N0|mc:217154|mtp:S|qry_typ:P|lang:en|wc:4|flavl:0-1|cs:9743|v=4,False,Chandni Chowk,New Delhi,"Ground Floor, Shop No. 1, Bagh Diwar, Fatehpuri, Chandni Chowk, Central Delhi, Chandni Chowk, New Delhi - 110006, Dist.Delhi, Delhi",8048974995,
"Sipfe Silver 500ml Stainless Steel Feeding Bottle, 5 Months",https://www.indiamart.com/proddetail/500ml-stainless-steel-feeding-bottle-24228687348.html?pos=7&kwd=stainless steel feeding bottle&tags=A||||8891.556|Price|product|||SSnp|rsf:gd-|-stype:attr=1|qr_nm:gd|res:RC4|com-cf:nl|ptrs:na|ktp:N0|mc:217154|mtp:S|qry_typ:P|lang:en|wc:4|flavl:0-1|cs:9743|v=4,Sipfe Industries,https://www.indiamart.com/sipfe-industries/?pos=7&kwd=stainless steel feeding bottle&tags=A||||8891.556|Price|product|||SSnp|rsf:gd-|-stype:attr=1|qr_nm:gd|res:RC4|com-cf:nl|ptrs:na|ktp:N0|mc:217154|mtp:S|qry_typ:P|lang:en|wc:4|flavl:0-1|cs:9743|v=4,False,Maraimalai Nagar,Kanchipuram,"Sf No.191/2c1, Plot No.41 Sengundram Road, Alamelumangapuram, Chengalpattu, Maraimalai Nagar, Kanchipuram - 603204, Dist.Kanchipuram, Tamil Nadu",7942562152,
"Blue Metal Stainless Steel Baby Feeding Bottle, Capacity: 250 mL",https://www.indiamart.com/proddetail/stainless-steel-baby-feeding-bottle-2854592900262.html?pos=8&kwd=stainless steel feeding bottle&tags=A||||8823.154|Price|product|||TS|rsf:gd-|-stype:attr=1|qr_nm:gd|res:RC4|com-cf:nl|ptrs:na|ktp:N0|mc:217154|mtp:S|qry_typ:P|lang:en|wc:4|flavl:0-1|cs:9743|v=4,Shri Anant International,https://www.indiamart.com/shrianantinternational/?pos=8&kwd=stainless steel feeding bottle&tags=A||||8823.154|Price|product|||TS|rsf:gd-|-stype:attr=1|qr_nm:gd|res:RC4|com-cf:nl|ptrs:na|ktp:N0|mc:217154|mtp:S|qry_typ:P|lang:en|wc:4|flavl:0-1|cs:9743|v=4,False,DayalBagh,Agra,"No.02,House 2,Alkapuri Phase Ii,Agra, DayalBagh, Agra - 282005, Dist.Agra, Uttar Pradesh",7942721451,
"Metal STAINLESS STEEL BABY FEEDING BOTTLE, Capacity: 250 mL",https://www.indiamart.com/proddetail/stainless-steel-baby-feeding-bottle-22036586230.html?pos=9&kwd=stainless steel feeding bottle&tags=A||||8223.226|Price|product|||TS|rsf:gd-|-stype:attr=1|qr_nm:gd|res:RC4|com-cf:nl|ptrs:na|ktp:N0|mc:217154|mtp:S|qry_typ:P|lang:en|wc:4|flavl:0-1|cs:9743|v=4,Speedy Household Industry,https://www.indiamart.com/speedy-household-industry/?pos=9&kwd=stainless steel feeding bottle&tags=A||||8223.226|Price|product|||TS|rsf:gd-|-stype:attr=1|qr_nm:gd|res:RC4|com-cf:nl|ptrs:na|ktp:N0|mc:217154|mtp:S|qry_typ:P|lang:en|wc:4|flavl:0-1|cs:9743|v=4,False,Bhayandar East,Thane,"0/6, Vikas Udyog Nagar, Behind Goddev Fathak Road, Bhayandar East, Bhayandar East, Thane - 401105, Dist.Thane, Maharashtra",8048962061,
304 Grade Stainless Steel Baby Feeding Bottle,https://www.indiamart.com/proddetail/304-grade-stainless-steel-baby-feeding-bottle-21290466888.html?pos=10&kwd=stainless steel feeding bottle&tags=A||||8954.051||product|||TS|rsf:gd-|-stype:attr=1|qr_nm:gd|res:RC4|com-cf:nl|ptrs:na|ktp:N0|mc:217154|mtp:S|qry_typ:P|lang:en|wc:4|flavl:0-1|cs:9743|v=4,Sundar Garments,https://www.sundargarment.com/?pos=10&kwd=stainless steel feeding bottle&tags=A||||8954.051||product|||TS|rsf:gd-|-stype:attr=1|qr_nm:gd|res:RC4|com-cf:nl|ptrs:na|ktp:N0|mc:217154|mtp:S|qry_typ:P|lang:en|wc:4|flavl:0-1|cs:9743|v=4,False,Kondithop,Chennai,"No-9 Murugesan Street Near Kondithope Park, Kondithop, Chennai - 600079, Dist.Chennai, Tamil Nadu",8048266539,
"Transparent Stainless Steel Baby Feeding Bottles, 1-2 Years",https://www.indiamart.com/proddetail/stainless-steel-baby-feeding-bottles-23207402848.html?pos=11&kwd=stainless steel feeding bottle&tags=A||||8752.144|Price|product|||TS|rsf:gd-|-stype:attr=1|qr_nm:gd|res:RC4|com-cf:nl|ptrs:na|ktp:N0|mc:217154|mtp:S|qry_typ:P|lang:en|wc:4|flavl:0-1|cs:9743|v=4,Dua Traders,https://www.indiamart.com/duatraders-delhi/?pos=11&kwd=stainless steel feeding bottle&tags=A||||8752.144|Price|product|||TS|rsf:gd-|-stype:attr=1|qr_nm:gd|res:RC4|com-cf:nl|ptrs:na|ktp:N0|mc:217154|mtp:S|qry_typ:P|lang:en|wc:4|flavl:0-1|cs:9743|v=4,False,Mandoli,New Delhi,"Plot No. 8, Kh No. 4/24, Mela Ram Vatika, E-block, JR Complex No. 4, Mandoli, Sevadham, Mandoli, New Delhi - 110093, Dist.Delhi, Delhi",8048971741,
Plain Silver 300 Ml Stainless Steel Feeding Bottle With Printed,https://www.indiamart.com/proddetail/300-ml-stainless-steel-feeding-bottle-with-printed-19094668233.html?pos=12&kwd=stainless steel feeding bottle&tags=A||||8954.051|Price|product|||MDC|rsf:gd-|-stype:attr=1|qr_nm:gd|res:RC4|com-cf:nl|ptrs:na|ktp:N0|mc:217154|mtp:S|qry_typ:P|lang:en|wc:4|flavl:0-1|cs:9743|v=4,Bhairavi Metal Works,https://www.indiamart.com/bhairavimetalworks/?pos=12&kwd=stainless steel feeding bottle&tags=A||||8954.051|Price|product|||MDC|rsf:gd-|-stype:attr=1|qr_nm:gd|res:RC4|com-cf:nl|ptrs:na|ktp:N0|mc:217154|mtp:S|qry_typ:P|lang:en|wc:4|flavl:0-1|cs:9743|v=4,False,Thiruporur,Chennai,"No. 24, Sandror Street,, Thiruporur, Chennai - 603110, Dist.Chennai, Tamil Nadu",8046052032,
"Stainless steel Feeding Bottle royal model, Capacity: 250 mL",https://www.indiamart.com/proddetail/stainless-steel-feeding-bottle-royal-model-2854766685391.html?pos=13&kwd=stainless steel feeding bottle&tags=A||||8921.206|Price|product|||MDC|rsf:gd-|-stype:attr=1|qr_nm:gd|res:RC4|com-cf:nl|ptrs:na|ktp:N0|mc:217154|mtp:S|qry_typ:P|lang:en|wc:4|flavl:0-1|cs:9743|v=4,Malar Metalware Products,https://www.indiamart.com/malarmetalware-products/?pos=13&kwd=stainless steel feeding bottle&tags=A||||8921.206|Price|product|||MDC|rsf:gd-|-stype:attr=1|qr_nm:gd|res:RC4|com-cf:nl|ptrs:na|ktp:N0|mc:217154|mtp:S|qry_typ:P|lang:en|wc:4|flavl:0-1|cs:9743|v=4,False,,Chengalpattu,"133a, Sembakkam, Indira Nagar,, Sembakkam Village, Chengalpattu - 603108, Dist.Kanchipuram, Tamil Nadu",8044460341,
304 Stainless Steel Baby Feeding Bottle For Baby 304 Grade 150 Ml Plain,https://www.indiamart.com/proddetail/304-stainless-steel-baby-feeding-bottle-for-baby-304-grade-150-ml-plain-22962350333.html?pos=14&kwd=stainless steel feeding bottle&tags=A||||8206.45|Price|product|||TS|rsf:gd-|-stype:attr=1|qr_nm:gd|res:RC4|com-cf:nl|ptrs:na|ktp:N0|mc:217154|mtp:S|qry_typ:P|lang:en|wc:4|flavl:0-1|cs:9743|v=4,Nelcon Industries India Private Limited,https://www.steelbottles.in/?pos=14&kwd=stainless steel feeding bottle&tags=A||||8206.45|Price|product|||TS|rsf:gd-|-stype:attr=1|qr_nm:gd|res:RC4|com-cf:nl|ptrs:na|ktp:N0|mc:217154|mtp:S|qry_typ:P|lang:en|wc:4|flavl:0-1|cs:9743|v=4,False,Tembhode,Palghar,"Survey No. 43/5/6, Plot No. D, Old Satpati Road Allayali, Post Tembhode Hitech Industrial Estate, Tembhode, Palghar - 401404, Dist.Thane, Maharashtra",7942539784,
"Pink 240ml Stainless Steel Printed Feeding Bottle, 1-2 Years",https://www.indiamart.com/proddetail/240ml-stainless-steel-printed-feeding-bottle-2850527322488.html?pos=15&kwd=stainless steel feeding bottle&tags=A||||8706.508|Price|product|||MDC|rsf:gd-|-stype:attr=1|qr_nm:gd|res:RC4|com-cf:nl|ptrs:na|ktp:N0|mc:217154|mtp:S|qry_typ:P|lang:en|wc:4|cs:8886|v=4,Young Vision,https://www.indiamart.com/young-vision-rohtak/?pos=15&kwd=stainless steel feeding bottle&tags=A||||8706.508|Price|product|||MDC|rsf:gd-|-stype:attr=1|qr_nm:gd|res:RC4|com-cf:nl|ptrs:na|ktp:N0|mc:217154|mtp:S|qry_typ:P|lang:en|wc:4|cs:8886|v=4,False,Janta Colony,Rohtak,"949/31 Azad Nagar, Janta Colony, Rohtak - 124001, Dist.Rohtak, Haryana",8047688329,
304 Stainless Steel Baby Feeding Bottle For Baby 304 Grade 150 Ml Plain,https://www.indiamart.com/proddetail/304-stainless-steel-baby-feeding-bottle-for-baby-304-grade-150-ml-plain-22962350333.html?pos=16&kwd=stainless steel feeding bottle&tags=A||||8206.45|Price|product|||TS|rsf:gd-|-stype:attr=1|qr_nm:gd|res:RC4|com-cf:nl|ptrs:na|ktp:N0|mc:217154|mtp:S|qry_typ:P|lang:en|wc:4|cs:8886|v=4,Nelcon Industries India Private Limited,https://www.steelbottles.in/?pos=16&kwd=stainless steel feeding bottle&tags=A||||8206.45|Price|product|||TS|rsf:gd-|-stype:attr=1|qr_nm:gd|res:RC4|com-cf:nl|ptrs:na|ktp:N0|mc:217154|mtp:S|qry_typ:P|lang:en|wc:4|cs:8886|v=4,False,Tembhode,Palghar,"Survey No. 43/5/6, Plot No. D, Old Satpati Road Allayali, Post Tembhode Hitech Industrial Estate, Tembhode, Palghar - 401404, Dist.Thane, Maharashtra",7942539784,
"Sipfe Silver 500ml Stainless Steel Feeding Bottle, 5 Months",https://www.indiamart.com/proddetail/500ml-stainless-steel-feeding-bottle-24228687348.html?pos=17&kwd=stainless steel feeding bottle&tags=A||||8891.556|Price|product|||SSnp|rsf:gd-|-stype:attr=1|qr_nm:gd|res:RC4|com-cf:nl|ptrs:na|ktp:N0|mc:217154|mtp:S|qry_typ:P|lang:en|wc:4|cs:8886|v=4,Sipfe Industries,https://www.indiamart.com/sipfe-industries/?pos=17&kwd=stainless steel feeding bottle&tags=A||||8891.556|Price|product|||SSnp|rsf:gd-|-stype:attr=1|qr_nm:gd|res:RC4|com-cf:nl|ptrs:na|ktp:N0|mc:217154|mtp:S|qry_typ:P|lang:en|wc:4|cs:8886|v=4,False,Maraimalai Nagar,Kanchipuram,"Sf No.191/2c1, Plot No.41 Sengundram Road, Alamelumangapuram, Chengalpattu, Maraimalai Nagar, Kanchipuram - 603204, Dist.Kanchipuram, Tamil Nadu",7942562152,
"SILVER Metal LITTLE TOUCH STAINLESS STEEL FEEDING BOTTLE, Capacity: 250 mL, 3-12 Months",https://www.indiamart.com/proddetail/little-touch-stainless-steel-feeding-bottle-2853338853255.html?pos=18&kwd=stainless steel feeding bottle&tags=A||||8211.142|Price|product|||TS|rsf:gd-|-stype:attr=1|qr_nm:gd|res:RC4|com-cf:nl|ptrs:na|ktp:N0|mc:217154|mtp:S|qry_typ:P|lang:en|wc:4|cs:8886|v=4,Mahavir Industries,https://www.mahavirmilestone.in/?pos=18&kwd=stainless steel feeding bottle&tags=A||||8211.142|Price|product|||TS|rsf:gd-|-stype:attr=1|qr_nm:gd|res:RC4|com-cf:nl|ptrs:na|ktp:N0|mc:217154|mtp:S|qry_typ:P|lang:en|wc:4|cs:8886|v=4,True,Vasai East,Mumbai,"29, NJ Industrial Estate, Chinchpada, Waliv Road, Vasai East, Mumbai - 401208, Dist.Mumbai, Maharashtra",8048962615,
"Silver Stainless Steel Baby Feeding Bottle, Capacity: 200 ml, 3-12 Months",https://www.indiamart.com/proddetail/stainless-steel-baby-feeding-bottle-23215957797.html?pos=19&kwd=stainless steel feeding bottle&tags=A||||8545.6045|Price|product|||MDC|rsf:gd-|-stype:attr=1|qr_nm:gd|res:RC4|com-cf:nl|ptrs:na|ktp:N0|mc:217154|mtp:S|qry_typ:P|lang:en|wc:4|cs:8886|v=4,Shri Siddhivinayak Traders,https://www.indiamart.com/shrisiddhivinayaktraders-firozpur/?pos=19&kwd=stainless steel feeding bottle&tags=A||||8545.6045|Price|product|||MDC|rsf:gd-|-stype:attr=1|qr_nm:gd|res:RC4|com-cf:nl|ptrs:na|ktp:N0|mc:217154|mtp:S|qry_typ:P|lang:en|wc:4|cs:8886|v=4,False,Basti Nizamdin,Firozpur,"No.94, Anand Avenue, Backside Marked Office, Malwal Road, Firozpur City, Basti Nizamdin, Firozpur - 152002, Dist.Firozpur, Punjab",8046066644,
"Silver Baby Feeding Bottle, Capacity: 250 ml, Age Group: 1-2 Years",https://www.indiamart.com/proddetail/silver-baby-feeding-bottle-2853932627155.html?pos=20&kwd=stainless steel feeding bottle&tags=A||||8954.051|Price|product|||MDC|rsf:gd-|-stype:attr=1|qr_nm:gd|res:RC4|com-cf:nl|ptrs:na|ktp:N0|mc:217154|mtp:S|qry_typ:P|lang:en|wc:4|cs:8886|v=4,For Lil Ones LLP,https://www.indiamart.com/for-lilones/?pos=20&kwd=stainless steel feeding bottle&tags=A||||8954.051|Price|product|||MDC|rsf:gd-|-stype:attr=1|qr_nm:gd|res:RC4|com-cf:nl|ptrs:na|ktp:N0|mc:217154|mtp:S|qry_typ:P|lang:en|wc:4|cs:8886|v=4,False,Perungalattur,Chennai,"30/4, Rajaji Street, Srinivasa Nagar, Perungalattur, Chengalpattu, Perungalattur, Chennai - 600063, Dist.Chennai, Tamil Nadu",8044012811,
240 Ml Stainless Steel Feeding Bottle,https://www.indiamart.com/proddetail/stainless-steel-feeding-bottle-20711728648.html?pos=21&kwd=stainless steel feeding bottle&tags=A||||8752.144|Price|product|||TS|rsf:gd-|-stype:attr=1|qr_nm:gd|res:RC4|com-cf:nl|ptrs:na|ktp:N0|mc:217154|mtp:S|qry_typ:P|lang:en|wc:4|cs:8886|v=4,National Overseas,https://www.indiamart.com/nationaltraders-vishwashnagar/?pos=21&kwd=stainless steel feeding bottle&tags=A||||8752.144|Price|product|||TS|rsf:gd-|-stype:attr=1|qr_nm:gd|res:RC4|com-cf:nl|ptrs:na|ktp:N0|mc:217154|mtp:S|qry_typ:P|lang:en|wc:4|cs:8886|v=4,False,Shahdara,New Delhi,"1/99, Gali No. 3, Vishwas Nagar, Shahdara, New Delhi - 110032, Dist.Delhi, Delhi",8046047673,
Metal 290ML - BLUE- Stainless Steel BABY Feeding Bottle,https://www.indiamart.com/proddetail/290ml-blue-stainless-steel-baby-feeding-bottle-2853687162662.html?pos=22&kwd=stainless steel feeding bottle&tags=A||||8752.144|Price|product|||TS|rsf:gd-|-stype:attr=1|qr_nm:gd|res:RC4|com-cf:nl|ptrs:na|ktp:N0|mc:217154|mtp:S|qry_typ:P|lang:en|wc:4|cs:8886|v=4,Ekta Overseas,https://www.indiamart.com/ektaoverseas-newdelhi/?pos=22&kwd=stainless steel feeding bottle&tags=A||||8752.144|Price|product|||TS|rsf:gd-|-stype:attr=1|qr_nm:gd|res:RC4|com-cf:nl|ptrs:na|ktp:N0|mc:217154|mtp:S|qry_typ:P|lang:en|wc:4|cs:8886|v=4,False,Shahdara,New Delhi,"1/95, Gali No.3, Near Navjeevan Phisical Center, Vishwas Nagar, Shahdara,, Shahdara, New Delhi - 110032, Dist.Delhi, Delhi",7942628926,
"Stainless Steel Feeding Bottle, Capacity: 300 mL",,A V Enterprises,https://www.indiamart.com/a-venterprises-delhi/?pos=23&kwd=stainless steel feeding bottle&tags=A||||8752.144|Price|product|||MDC|rsf:gd-|-stype:attr=1|qr_nm:gd|res:RC4|com-cf:nl|ptrs:na|ktp:N0|mc:217154|mtp:S|qry_typ:P|lang:en|wc:4|cs:8886|v=4,False,,New Delhi,"1st Floor, A-145/1, Wazirpur, Industrial Area, Wazirpur, New Delhi - 110052, Dist.Delhi, Delhi",8044460094,
Metal Stainless Steel Baby Feeding Bottle,https://www.indiamart.com/proddetail/stainless-steel-baby-feeding-bottle-2854887561391.html?pos=24&kwd=stainless steel feeding bottle&tags=A||||8206.306|Price|product|||MDC|rsf:gd-|-stype:attr=1|qr_nm:gd|res:RC4|com-cf:nl|ptrs:na|ktp:N0|mc:217154|mtp:S|qry_typ:P|lang:en|wc:4|cs:8886|v=4,Maya Industries,https://www.indiamart.com/maya-industries-maharashtra/?pos=24&kwd=stainless steel feeding bottle&tags=A||||8206.306|Price|product|||MDC|rsf:gd-|-stype:attr=1|qr_nm:gd|res:RC4|com-cf:nl|ptrs:na|ktp:N0|mc:217154|mtp:S|qry_typ:P|lang:en|wc:4|cs:8886|v=4,False,Bhayandar West,Bhayander West,"B-102, Pawan Kunj Apartment, 60 Feet Road, Nakoda Hospital, Mira Bhayandar, Thane, Bhayandar West, Bhayander West - 401101, Maharashtra",7949090316,
"Baby Insulation Stainless Steel Feeding Bottle, For Water Storage, Capacity: 290 Ml",https://www.indiamart.com/proddetail/baby-insulation-stainless-steel-feeding-bottle-22794274262.html?pos=25&kwd=stainless steel feeding bottle&tags=A||||8752.144|Price|product|||MDC|rsf:gd-|-stype:attr=1|qr_nm:gd|res:RC4|com-cf:nl|ptrs:na|ktp:N0|mc:217154|mtp:S|qry_typ:P|lang:en|wc:4|cs:8886|v=4,Kidz Creation,https://www.indiamart.com/kidzcreation/?pos=25&kwd=stainless steel feeding bottle&tags=A||||8752.144|Price|product|||MDC|rsf:gd-|-stype:attr=1|qr_nm:gd|res:RC4|com-cf:nl|ptrs:na|ktp:N0|mc:217154|mtp:S|qry_typ:P|lang:en|wc:4|cs:8886|v=4,False,,New Delhi,"Shop No. 279/517,Sabharwal Market, Tolia Wali Gali Sadar Bazar, North Delhi,, New Delhi - 110006, Dist.Delhi, Delhi",8047679212,
"Metal Baby Stainless Steel Milk Bottle, Capacity: 250 mL",https://www.indiamart.com/proddetail/baby-stainless-steel-milk-bottle-24273996833.html?pos=26&kwd=stainless steel feeding bottle&tags=A||||8752.144|Price|product|||MDC|rsf:gd-|-stype:attr=1|qr_nm:gd|res:RC4|com-cf:nl|ptrs:na|ktp:N0|mc:217154|mtp:S|qry_typ:P|lang:en|wc:4|cs:8886|v=4,Drishti E-Commerce,https://www.indiamart.com/drishti-e-commerce/?pos=26&kwd=stainless steel feeding bottle&tags=A||||8752.144|Price|product|||MDC|rsf:gd-|-stype:attr=1|qr_nm:gd|res:RC4|com-cf:nl|ptrs:na|ktp:N0|mc:217154|mtp:S|qry_typ:P|lang:en|wc:4|cs:8886|v=4,False,Jahangirpura,New Delhi,"B-29, Ground Floor, Kh No-238/2, Gali No-5/12, Gurunanak Dev Colony, Bhalswa, North Delhi, Jahangirpura, New Delhi - 110042, Dist.Delhi, Delhi",7949082368,
"Silver Stainless Steel Baby Feeding Bottle, Capacity: 300 mL",https://www.indiamart.com/proddetail/stainless-steel-baby-feeding-bottle-2853302145748.html?pos=27&kwd=stainless steel feeding bottle&tags=A||||8210.732|Price|product|||TS|rsf:gd-|-stype:attr=1|qr_nm:gd|res:RC4|com-cf:nl|ptrs:na|ktp:N0|mc:217154|mtp:S|qry_typ:P|lang:en|wc:4|cs:8886|v=4,Arushi Enterprises,https://www.indiamart.com/arushi-enterprisesvasai-virar/?pos=27&kwd=stainless steel feeding bottle&tags=A||||8210.732|Price|product|||TS|rsf:gd-|-stype:attr=1|qr_nm:gd|res:RC4|com-cf:nl|ptrs:na|ktp:N0|mc:217154|mtp:S|qry_typ:P|lang:en|wc:4|cs:8886|v=4,False,Pelhar,Vasai,"Mira Industrial Estate, G.No F/6 S.No.74 H-2471 Nalasopara East, Pelhar, Palghar, Pelhar, Vasai - 401208, Dist.Thane, Maharashtra",7942825056,
"Ankur Silver Stainless Steel Baby Feeding Bottles 220ml, 12 Month",https://www.indiamart.com/proddetail/stainless-steel-baby-feeding-bottles-220ml-22193137597.html?pos=28&kwd=stainless steel feeding bottle&tags=A||||8954.051|Price|product|||TS|rsf:gd-|-stype:attr=1|qr_nm:gd|res:RC4|com-cf:nl|ptrs:na|ktp:N0|mc:217154|mtp:S|qry_typ:P|lang:en|wc:4|cs:8886|v=4,Anita Steel Centre,https://www.indiamart.com/anita-steel-center/?pos=28&kwd=stainless steel feeding bottle&tags=A||||8954.051|Price|product|||TS|rsf:gd-|-stype:attr=1|qr_nm:gd|res:RC4|com-cf:nl|ptrs:na|ktp:N0|mc:217154|mtp:S|qry_typ:P|lang:en|wc:4|cs:8886|v=4,False,Park Town,Chennai,"39/54, Nyniappa Maistry Street, Park Town, Chennai - 600003, Dist.Chennai, Tamil Nadu",8048985784,
Baby Steel Bottle,https://www.indiamart.com/proddetail/baby-steel-bottle-2852427673112.html?pos=29&kwd=stainless steel feeding bottle&tags=A||||8752.144|Price|product|||TS|rsf:gd-|-stype:attr=1|qr_nm:gd|res:RC4|com-cf:nl|ptrs:na|ktp:N0|mc:217154|mtp:S|qry_typ:P|lang:en|wc:4|cs:8886|v=4,Urbancube,https://www.indiamart.com/urbancube/?pos=29&kwd=stainless steel feeding bottle&tags=A||||8752.144|Price|product|||TS|rsf:gd-|-stype:attr=1|qr_nm:gd|res:RC4|com-cf:nl|ptrs:na|ktp:N0|mc:217154|mtp:S|qry_typ:P|lang:en|wc:4|cs:8886|v=4,False,Kamla Nagar,New Delhi,"Ground Floor, 14 UA, Jawahar Nagar, Kamla Nagar, New Delhi - 110007, Dist.Delhi, Delhi",8048980014,
Baby Stainless Steel Feeding Milk Bottle,,A.K.Metal Pressing,https://www.indiamart.com/akmetalpressing/?pos=30&kwd=stainless steel feeding bottle&tags=A||||8954.051|Price|product|||MDC|rsf:gd-|-stype:attr=1|qr_nm:gd|res:RC4|com-cf:nl|ptrs:na|ktp:N0|mc:217154|mtp:S|qry_typ:P|lang:en|wc:4|cs:8886|v=4,False,Sattangadu,Chennai,"No-33/15, Gandhi Nagar Main Road, Thiruvoittyur, Thiruvallur, Sattangadu, Chennai - 600019, Dist.Chennai, Tamil Nadu",8047647689,
"Metal Stainless Steel Feeding Bottle, Capacity: 300 mL, 3-12 Months",https://www.indiamart.com/proddetail/stainless-steel-feeding-bottle-2852451353848.html?pos=31&kwd=stainless steel feeding bottle&tags=A||||8211.142|Price|product|||TS|rsf:gd-|-stype:attr=1|qr_nm:gd|res:RC4|com-cf:nl|ptrs:na|ktp:N0|mc:217154|mtp:S|qry_typ:P|lang:en|wc:4|cs:8886|v=4,Prabhu Industries,https://www.indiamart.com/prabhu-industries-mumbai/?pos=31&kwd=stainless steel feeding bottle&tags=A||||8211.142|Price|product|||TS|rsf:gd-|-stype:attr=1|qr_nm:gd|res:RC4|com-cf:nl|ptrs:na|ktp:N0|mc:217154|mtp:S|qry_typ:P|lang:en|wc:4|cs:8886|v=4,False,Andheri East,Mumbai,"B2-701, 7th Floor, Preeti Apartment, J.B.Nagar, Kanti Nagar, Andheri East, Andheri East, Mumbai - 400059, Dist.Mumbai, Maharashtra",8047304103,
"Stainless Steel Feeding Bottle, Capacity: 140 ml 240 ml, 3-12 Months",https://www.indiamart.com/proddetail/stainless-steel-feeding-bottle-24832956533.html?pos=32&kwd=stainless steel feeding bottle&tags=A||||8752.144|Price|product|||SSnp|rsf:gd-|-stype:attr=1|qr_nm:gd|res:RC4|com-cf:nl|ptrs:na|ktp:N0|mc:217154|mtp:S|qry_typ:P|lang:en|wc:4|cs:8886|v=4,Anand Garments Pvt Ltd,https://www.indiamart.com/anand-garments-newdelhi/?pos=32&kwd=stainless steel feeding bottle&tags=A||||8752.144|Price|product|||SSnp|rsf:gd-|-stype:attr=1|qr_nm:gd|res:RC4|com-cf:nl|ptrs:na|ktp:N0|mc:217154|mtp:S|qry_typ:P|lang:en|wc:4|cs:8886|v=4,False,mundka,New Delhi,"Plot No-276, Area Pocket-m Sector-1, Dsiidc Bawana,, mundka, New Delhi - 110039, Dist.Delhi, Delhi",8048262855,
"Stainless Steel Milk Feeding Bottle, Capacity: 300 mL",https://www.indiamart.com/proddetail/stainless-steel-milk-feeding-bottle-2853697644197.html?pos=33&kwd=stainless steel feeding bottle&tags=A||||8785.791|Price|product|||MDC|rsf:gd-|-stype:attr=1|qr_nm:gd|res:RC4|com-cf:nl|ptrs:na|ktp:N0|mc:217154|mtp:S|qry_typ:P|lang:en|wc:4|cs:8886|v=4,Aadya Traders,https://www.indiamart.com/aadyatradersghaziabad/?pos=33&kwd=stainless steel feeding bottle&tags=A||||8785.791|Price|product|||MDC|rsf:gd-|-stype:attr=1|qr_nm:gd|res:RC4|com-cf:nl|ptrs:na|ktp:N0|mc:217154|mtp:S|qry_typ:P|lang:en|wc:4|cs:8886|v=4,False,Nand Gram,Ghaziabad,"C 465, Nand Gram, Nand Gram, Ghaziabad - 201003, Dist.Ghaziabad, Uttar Pradesh",7949086086,
White Metal Red Kitchen Chef Stainless steel Baby feeding bottle - 250 ml,https://www.indiamart.com/proddetail/red-kitchen-chef-stainless-steel-baby-feeding-bottle-250-ml-2854179718862.html?pos=34&kwd=stainless steel feeding bottle&tags=A||||8663.873|Price|product|||TS|rsf:gd-|-stype:attr=1|qr_nm:gd|res:RC4|com-cf:nl|ptrs:na|ktp:N0|mc:217154|mtp:S|qry_typ:P|lang:en|wc:4|cs:8886|v=4,Suranas,https://www.suranas.in/?pos=34&kwd=stainless steel feeding bottle&tags=A||||8663.873|Price|product|||TS|rsf:gd-|-stype:attr=1|qr_nm:gd|res:RC4|com-cf:nl|ptrs:na|ktp:N0|mc:217154|mtp:S|qry_typ:P|lang:en|wc:4|cs:8886|v=4,False,Basavanagudi,Bengaluru,"14/38, 1st model house street, Basavanagudi, Bengaluru - 560004, Dist.Bengaluru, Karnataka",8047547443,
"Silver VALENTINE Baby Bottle KIDDY 140 ML, 1-2 year",https://www.indiamart.com/proddetail/valentine-baby-bottle-kiddy-140-ml-2849388363748.html?pos=35&kwd=stainless steel feeding bottle&tags=A||||8752.144|Price|product|||MDC|rsf:gd-|-stype:attr=1|qr_nm:gd|res:RC4|com-cf:nl|ptrs:na|ktp:N0|mc:217154|mtp:S|qry_typ:P|lang:en|wc:4|cs:8886|v=4,Maharaja Metalik Group,https://www.indiamart.com/maharaja-metalik-group/?pos=35&kwd=stainless steel feeding bottle&tags=A||||8752.144|Price|product|||MDC|rsf:gd-|-stype:attr=1|qr_nm:gd|res:RC4|com-cf:nl|ptrs:na|ktp:N0|mc:217154|mtp:S|qry_typ:P|lang:en|wc:4|cs:8886|v=4,False,Wazirpur Industrial Area,New Delhi,"A- 87/5 Wazirpur Industrial Area, Wazirpur Industrial Area, New Delhi - 110052, Dist.Delhi, Delhi",8047699043,
"Baby Stainless Steel Feeding Bottle, Age Group: 6 to 10 Year, Capacity: 400 Ml",https://www.indiamart.com/proddetail/baby-stainless-steel-feeding-bottle-21967606988.html?pos=36&kwd=stainless steel feeding bottle&tags=A||||8752.144|Price|product|||TS|rsf:gd-|-stype:attr=1|qr_nm:gd|res:RC4|com-cf:nl|ptrs:na|ktp:N0|mc:217154|mtp:S|qry_typ:P|lang:en|wc:4|cs:8886|v=4,Chinmay Kids,https://www.indiamart.com/chinmaykids/?pos=36&kwd=stainless steel feeding bottle&tags=A||||8752.144|Price|product|||TS|rsf:gd-|-stype:attr=1|qr_nm:gd|res:RC4|com-cf:nl|ptrs:na|ktp:N0|mc:217154|mtp:S|qry_typ:P|lang:en|wc:4|cs:8886|v=4,False,Nayagaon,New Delhi,"C-99, Street No. 4, First Pusta, Nayagaon, New Delhi - 110053, Dist.Delhi, Delhi",8046054858,
Stainless Steel Baby Feeding Bottle,https://www.indiamart.com/proddetail/stainless-steel-baby-feeding-bottle-2854718516173.html?pos=37&kwd=stainless steel feeding bottle&tags=A||||8786.56||product|||TS|rsf:gd-|-stype:attr=1|qr_nm:gd|res:RC4|com-cf:nl|ptrs:na|ktp:N0|mc:217154|mtp:S|qry_typ:P|lang:en|wc:4|cs:8886|v=4,Vishalandhra Industries,https://www.indiamart.com/vishalandhra-industries-hyderabad/?pos=37&kwd=stainless steel feeding bottle&tags=A||||8786.56||product|||TS|rsf:gd-|-stype:attr=1|qr_nm:gd|res:RC4|com-cf:nl|ptrs:na|ktp:N0|mc:217154|mtp:S|qry_typ:P|lang:en|wc:4|cs:8886|v=4,False,Kavadiguda,Hyderabad,"1-7-148/4/2/A Bakaram, Musheerabad Main Road Opp. Metro Pillar No. 1079 Musheerabad, Kavadiguda, Hyderabad - 500020, Dist.Hyderabad, Telangana",7942817189,
"Feeding Bottles & Sippers, Stainless Steel 304 Grade, Best Quality & Lowest Price",https://www.indiamart.com/proddetail/feeding-bottles-sippers-stainless-steel-304-grade-best-quality-lowest-price-24525781262.html?pos=38&kwd=stainless steel feeding bottle&tags=A||||8954.051|Price|product|||TS|rsf:gd-|-stype:attr=1|qr_nm:gd|res:RC4|com-cf:nl|ptrs:na|ktp:N0|mc:217154|mtp:S|qry_typ:P|lang:en|wc:4|cs:8886|v=4,KA Plastic & Safety India,https://www.indiamart.com/kaplastic-safetyindia/?pos=38&kwd=stainless steel feeding bottle&tags=A||||8954.051|Price|product|||TS|rsf:gd-|-stype:attr=1|qr_nm:gd|res:RC4|com-cf:nl|ptrs:na|ktp:N0|mc:217154|mtp:S|qry_typ:P|lang:en|wc:4|cs:8886|v=4,False,Tondiarpet,Chennai,"No.98, SN Chetty Street , Kasimedu, Tondiarpet, Chennai - 600057, Dist.Chennai, Tamil Nadu",7942550416,
"White Metal Stainless Steel Baby Feeding Bottle, Capacity: 200 mL",https://www.indiamart.com/proddetail/stainless-steel-baby-feeding-bottle-2853858030548.html?pos=39&kwd=stainless steel feeding bottle&tags=A||||8210.732||product|||MDC|rsf:gd-|-stype:attr=1|qr_nm:gd|res:RC4|com-cf:nl|ptrs:na|ktp:N0|mc:217154|mtp:S|qry_typ:P|lang:en|wc:4|cs:8886|v=4,Navkar 9 Plastics & Steels,https://www.indiamart.com/navkar9-plastics-steels/?pos=39&kwd=stainless steel feeding bottle&tags=A||||8210.732||product|||MDC|rsf:gd-|-stype:attr=1|qr_nm:gd|res:RC4|com-cf:nl|ptrs:na|ktp:N0|mc:217154|mtp:S|qry_typ:P|lang:en|wc:4|cs:8886|v=4,False,Vasai East,Vasai Virar,"Ground Floor Gala No. 04 Raees Nagar, Khairpada, Bilalpada, Vasai East, Vasai Virar - 401208, Dist.Thane, Maharashtra",7949086716,
Transparent Plastic 240ml Vega Superior Stainless Steel Feeding Bottle,https://www.indiamart.com/proddetail/240ml-vega-superior-stainless-steel-feeding-bottle-2854382182512.html?pos=40&kwd=stainless steel feeding bottle&tags=A||||9110.092|Price|product|||MDC|rsf:gd-|-stype:attr=1|qr_nm:gd|res:RC4|com-cf:nl|ptrs:na|ktp:N0|mc:217154|mtp:S|qry_typ:P|lang:en|wc:4|cs:8886|v=4,Jai Maa Laxmi Agency,https://www.indiamart.com/jaimaalaxmiagency/?pos=40&kwd=stainless steel feeding bottle&tags=A||||9110.092|Price|product|||MDC|rsf:gd-|-stype:attr=1|qr_nm:gd|res:RC4|com-cf:nl|ptrs:na|ktp:N0|mc:217154|mtp:S|qry_typ:P|lang:en|wc:4|cs:8886|v=4,False,,Lucknow,"E-2468,Rajajipuram,Near Rupam Tailor,, Lucknow - 226017, Dist.Lucknow, Uttar Pradesh",7949339166,
"SS Baby Feeding Bottle, Capacity: 150 mL",https://www.indiamart.com/proddetail/ss-baby-feeding-bottle-1247331755.html?pos=41&kwd=stainless steel feeding bottle&tags=A||||8752.144|Price|product|||MDC|rsf:gd-|-stype:attr=1|qr_nm:gd|res:RC4|com-cf:nl|ptrs:na|ktp:N0|mc:217154|mtp:S|qry_typ:P|lang:en|wc:4|cs:8886|v=4,Neelkanth Metal Trading Co.,https://www.indiamart.com/neelkanthmetal-tradingco/?pos=41&kwd=stainless steel feeding bottle&tags=A||||8752.144|Price|product|||MDC|rsf:gd-|-stype:attr=1|qr_nm:gd|res:RC4|com-cf:nl|ptrs:na|ktp:N0|mc:217154|mtp:S|qry_typ:P|lang:en|wc:4|cs:8886|v=4,False,North West Delhi,New Delhi,"Ground Floor, House No X 1/9, Kh.No 83/15, Block -V-1, Budh Vihar Phase 1, North West Delhi, New Delhi - 110086, Dist.Delhi, Delhi",8047795143,
"Baby Stainless Steel Feeding Bottle Small, Capacity: 200ml, Newly Born",https://www.indiamart.com/proddetail/baby-stainless-steel-feeding-bottle-small-2850493443812.html?pos=42&kwd=stainless steel feeding bottle&tags=BA||||8752.144|Price|product|||TS|rsf:gd-|-stype:attr=1|qr_nm:gd|res:RC4|com-cf:nl|ptrs:na|ktp:N0|mc:217154|mtp:S|qry_typ:P|lang:en|wc:4|cs:8886|v=4,Dolphin Baby Product,https://www.dolphinbabyproducts.com/?pos=42&kwd=stainless steel feeding bottle&tags=BA||||8752.144|Price|product|||TS|rsf:gd-|-stype:attr=1|qr_nm:gd|res:RC4|com-cf:nl|ptrs:na|ktp:N0|mc:217154|mtp:S|qry_typ:P|lang:en|wc:4|cs:8886|v=4,False,Inderlok,New Delhi,"No. 488, 1st Floor, Shahzada Bagh, Industrial Area Phase 1, Inderlok, New Delhi - 110035, Dist.Delhi, Delhi",8048965296,
Transparent Plastic 240ml Vega Superior Stainless Steel Feeding Bottle,https://www.indiamart.com/proddetail/240ml-vega-superior-stainless-steel-feeding-bottle-2854382182512.html?pos=43&kwd=stainless steel feeding bottle&tags=A||||9110.092|Price|product|||MDC|rsf:gd-|-stype:attr=1|qr_nm:gd|res:RC4|com-cf:nl|ptrs:na|ktp:N0|mc:217154|mtp:S|qry_typ:P|lang:en|wc:4|cs:8886|v=4,Jai Maa Laxmi Agency,https://www.indiamart.com/jaimaalaxmiagency/?pos=43&kwd=stainless steel feeding bottle&tags=A||||9110.092|Price|product|||MDC|rsf:gd-|-stype:attr=1|qr_nm:gd|res:RC4|com-cf:nl|ptrs:na|ktp:N0|mc:217154|mtp:S|qry_typ:P|lang:en|wc:4|cs:8886|v=4,False,,Lucknow,"E-2468,Rajajipuram,Near Rupam Tailor,, Lucknow - 226017, Dist.Lucknow, Uttar Pradesh",7949339166,
"SS Baby Feeding Bottle, Capacity: 150 mL",https://www.indiamart.com/proddetail/ss-baby-feeding-bottle-1247331755.html?pos=44&kwd=stainless steel feeding bottle&tags=A||||8752.144|Price|product|||MDC|rsf:gd-|-stype:attr=1|qr_nm:gd|res:RC4|com-cf:nl|ptrs:na|ktp:N0|mc:217154|mtp:S|qry_typ:P|lang:en|wc:4|cs:8886|v=4,Neelkanth Metal Trading Co.,https://www.indiamart.com/neelkanthmetal-tradingco/?pos=44&kwd=stainless steel feeding bottle&tags=A||||8752.144|Price|product|||MDC|rsf:gd-|-stype:attr=1|qr_nm:gd|res:RC4|com-cf:nl|ptrs:na|ktp:N0|mc:217154|mtp:S|qry_typ:P|lang:en|wc:4|cs:8886|v=4,False,North West Delhi,New Delhi,"Ground Floor, House No X 1/9, Kh.No 83/15, Block -V-1, Budh Vihar Phase 1, North West Delhi, New Delhi - 110086, Dist.Delhi, Delhi",8047795143,
"Baby Stainless Steel Feeding Bottle Small, Capacity: 200ml, Newly Born",https://www.indiamart.com/proddetail/baby-stainless-steel-feeding-bottle-small-2850493443812.html?pos=45&kwd=stainless steel feeding bottle&tags=BA||||8752.144|Price|product|||TS|rsf:gd-|-stype:attr=1|qr_nm:gd|res:RC4|com-cf:nl|ptrs:na|ktp:N0|mc:217154|mtp:S|qry_typ:P|lang:en|wc:4|cs:8886|v=4,Dolphin Baby Product,https://www.dolphinbabyproducts.com/?pos=45&kwd=stainless steel feeding bottle&tags=BA||||8752.144|Price|product|||TS|rsf:gd-|-stype:attr=1|qr_nm:gd|res:RC4|com-cf:nl|ptrs:na|ktp:N0|mc:217154|mtp:S|qry_typ:P|lang:en|wc:4|cs:8886|v=4,False,Inderlok,New Delhi,"No. 488, 1st Floor, Shahzada Bagh, Industrial Area Phase 1, Inderlok, New Delhi - 110035, Dist.Delhi, Delhi",8048965296,
Philips Avent Baby Feeding Bottles,https://www.indiamart.com/proddetail/philips-avent-baby-feeding-bottles-20706886412.html?pos=46&kwd=stainless steel feeding bottle&tags=A||||8954.051|Price|product|||TS|rsf:gd-|-stype:attr=1|qr_nm:gd|res:RC4|com-cf:nl|ptrs:na|ktp:N0|mc:217154|mtp:S|qry_typ:P|lang:en|wc:4|cs:8886|v=4,Auro Mira Medi Aids,https://www.indiamart.com/auromiramediaids/?pos=46&kwd=stainless steel feeding bottle&tags=A||||8954.051|Price|product|||TS|rsf:gd-|-stype:attr=1|qr_nm:gd|res:RC4|com-cf:nl|ptrs:na|ktp:N0|mc:217154|mtp:S|qry_typ:P|lang:en|wc:4|cs:8886|v=4,False,Adyar,Chennai,"New No. 36, Old No. 32, Shriram Nagar Main Road, Adyar, Chennai - 600113, Dist.Chennai, Tamil Nadu",8048988682,
"Silver VALENTINE Baby Bottle KIDDY 140 ML, 1-2 year",https://www.indiamart.com/proddetail/valentine-baby-bottle-kiddy-140-ml-2849388363748.html?pos=47&kwd=stainless steel feeding bottle&tags=A||||8752.144|Price|product|||MDC|rsf:gd-|-stype:attr=1|qr_nm:gd|res:RC4|com-cf:nl|ptrs:na|ktp:N0|mc:217154|mtp:S|qry_typ:P|lang:en|wc:4|cs:8886|v=4,Maharaja Metalik Group,https://www.indiamart.com/maharaja-metalik-group/?pos=47&kwd=stainless steel feeding bottle&tags=A||||8752.144|Price|product|||MDC|rsf:gd-|-stype:attr=1|qr_nm:gd|res:RC4|com-cf:nl|ptrs:na|ktp:N0|mc:217154|mtp:S|qry_typ:P|lang:en|wc:4|cs:8886|v=4,False,Wazirpur Industrial Area,New Delhi,"A- 87/5 Wazirpur Industrial Area, Wazirpur Industrial Area, New Delhi - 110052, Dist.Delhi, Delhi",8047699043,
Stainless Steel Baby Feeding Bottle,https://www.indiamart.com/proddetail/stainless-steel-baby-feeding-bottle-2853962286362.html?pos=48&kwd=stainless steel feeding bottle&tags=A||||8038.093|Price|product|||TS|rsf:gd-|-stype:attr=1|qr_nm:gd|res:RC4|com-cf:nl|ptrs:na|ktp:N0|mc:217154|mtp:S|qry_typ:P|lang:en|wc:4|cs:8886|v=4,Trishul Marketing,https://www.trishulmarketing.com/?pos=48&kwd=stainless steel feeding bottle&tags=A||||8038.093|Price|product|||TS|rsf:gd-|-stype:attr=1|qr_nm:gd|res:RC4|com-cf:nl|ptrs:na|ktp:N0|mc:217154|mtp:S|qry_typ:P|lang:en|wc:4|cs:8886|v=4,False,Mavdi,Rajkot,"NR Shree Ram Sweet Mart, 1 Amar Nagar, Mavdi, Rajkot - 360004, Dist.Rajkot, Gujarat",7942564686,
Premium Steel Feeding Bottle 250 ml,https://www.indiamart.com/proddetail/premium-steel-feeding-bottle-250-ml-2854428693633.html?pos=49&kwd=stainless steel feeding bottle&tags=A||||8210.732|Price|product|||TS|rsf:gd-|-stype:attr=1|qr_nm:gd|res:RC4|com-cf:nl|ptrs:na|ktp:N0|mc:217154|mtp:S|qry_typ:P|lang:en|wc:4|cs:8886|v=4,B Shah Enterprises,https://www.indiamart.com/bshahenterprises/?pos=49&kwd=stainless steel feeding bottle&tags=A||||8210.732|Price|product|||TS|rsf:gd-|-stype:attr=1|qr_nm:gd|res:RC4|com-cf:nl|ptrs:na|ktp:N0|mc:217154|mtp:S|qry_typ:P|lang:en|wc:4|cs:8886|v=4,False,Vasai West,Vasai Virar,"Shop No 19, Dhuri Campus Building, Suncity, Near 100 feet Road,, Vasai West, Vasai Virar - 401202, Dist.Thane, Maharashtra",8047633191,
"Stainless Steel Feeding Bottle, Capacity: 150 mL, Baby",https://www.indiamart.com/proddetail/stainless-steel-feeding-bottle-2855017078762.html?pos=50&kwd=stainless steel feeding bottle&tags=A||||8954.051|Price|product|||MDC|rsf:gd-|-stype:attr=1|qr_nm:gd|res:RC4|com-cf:nl|ptrs:na|ktp:N0|mc:217154|mtp:S|qry_typ:P|lang:en|wc:4|cs:8886|v=4,Poonam Steel House,https://www.indiamart.com/poonam-steelhouse/?pos=50&kwd=stainless steel feeding bottle&tags=A||||8954.051|Price|product|||MDC|rsf:gd-|-stype:attr=1|qr_nm:gd|res:RC4|com-cf:nl|ptrs:na|ktp:N0|mc:217154|mtp:S|qry_typ:P|lang:en|wc:4|cs:8886|v=4,False,,Chennai,"5, Ravanaiyer Street, Parktown, Chennai - 600003, Dist.Chennai, Tamil Nadu",8044460194,
"Silver 250ml Stainless Steel Feeding Bottle, Design/Pattern: Plain",https://www.indiamart.com/proddetail/250ml-stainless-steel-feeding-bottle-2853121529762.html?pos=51&kwd=stainless steel feeding bottle&tags=A||||8223.226|Price|product|||MDC|rsf:gd-|-stype:attr=1|qr_nm:gd|res:RC4|com-cf:nl|ptrs:na|ktp:N0|mc:217154|mtp:S|qry_typ:P|lang:en|wc:4|cs:8886|v=4,Kalash Enterprise,https://www.indiamart.com/kalashenterprisemumbai/?pos=51&kwd=stainless steel feeding bottle&tags=A||||8223.226|Price|product|||MDC|rsf:gd-|-stype:attr=1|qr_nm:gd|res:RC4|com-cf:nl|ptrs:na|ktp:N0|mc:217154|mtp:S|qry_typ:P|lang:en|wc:4|cs:8886|v=4,False,Bhayandar East,Thane,"Block No S/14 Raigad Building Bhayandar East, Bhayandar East, Thane - 401105, Dist.Thane, Maharashtra",8047827035,
"Metal Stainless Steel Baby Feeding Bottle, Capacity: 150 mL",https://www.indiamart.com/proddetail/stainless-steel-baby-feeding-bottle-2855017152048.html?pos=52&kwd=stainless steel feeding bottle&tags=A||||8752.144|Price|product|||MDC|rsf:gd-|-stype:attr=1|qr_nm:gd|res:RC4|com-cf:nl|ptrs:na|ktp:N0|mc:217154|mtp:S|qry_typ:P|lang:en|wc:4|cs:8886|v=4,A.S.Enterprises,https://www.indiamart.com/a-senterprisesdelhi-india/?pos=52&kwd=stainless steel feeding bottle&tags=A||||8752.144|Price|product|||MDC|rsf:gd-|-stype:attr=1|qr_nm:gd|res:RC4|com-cf:nl|ptrs:na|ktp:N0|mc:217154|mtp:S|qry_typ:P|lang:en|wc:4|cs:8886|v=4,False,,New Delhi,"G F, 816, Pan Mandi, Near Press Street Sadar Bazar Area, Central Delhi, New Delhi - 110006, Dist.Delhi, Delhi",7942537259,
"Stainless Steel Baby Feeding Bottle, Capacity: 300 mL",https://www.indiamart.com/proddetail/stainless-steel-baby-feeding-bottle-2854945064088.html?pos=53&kwd=stainless steel feeding bottle&tags=A||||8723.301||product|||MDC|rsf:gd-|-stype:attr=1|qr_nm:gd|res:RC4|com-cf:nl|ptrs:na|ktp:N0|mc:217154|mtp:S|qry_typ:P|lang:en|wc:4|cs:8886|v=4,Smartech India,https://www.indiamart.com/smartechindia/?pos=53&kwd=stainless steel feeding bottle&tags=A||||8723.301||product|||MDC|rsf:gd-|-stype:attr=1|qr_nm:gd|res:RC4|com-cf:nl|ptrs:na|ktp:N0|mc:217154|mtp:S|qry_typ:P|lang:en|wc:4|cs:8886|v=4,False,,Bhopal,"Shop No. A-28, CRP, Bairagarh, Bhopal - 462030, Dist.Bhopal, Madhya Pradesh",8044458330,
"Metal Stainless Steel Baby Feeding Bottle, Capacity: 250 mL",https://www.indiamart.com/proddetail/stainless-steel-baby-feeding-bottle-2852502002488.html?pos=54&kwd=stainless steel feeding bottle&tags=A||||8752.144|Price|product|||MDC|rsf:gd-|-stype:attr=1|qr_nm:gd|res:RC4|com-cf:nl|ptrs:na|ktp:N0|mc:217154|mtp:S|qry_typ:P|lang:en|wc:4|cs:8886|v=4,Shopindia,https://www.indiamart.com/shopindia-delhi/?pos=54&kwd=stainless steel feeding bottle&tags=A||||8752.144|Price|product|||MDC|rsf:gd-|-stype:attr=1|qr_nm:gd|res:RC4|com-cf:nl|ptrs:na|ktp:N0|mc:217154|mtp:S|qry_typ:P|lang:en|wc:4|cs:8886|v=4,False,Khyala,New Delhi,"F/F, RZ-129 Old No.RZ-57, West Block, Vishnu Garden, Khyala, New Delhi - 110018, Dist.Delhi, Delhi",8047832403,
250ml Stainless Steel Feeding Bottle,https://www.indiamart.com/proddetail/250ml-stainless-steel-feeding-bottle-2854907726688.html?pos=55&kwd=stainless steel feeding bottle&tags=A||||8741.812|Price|product|||MDC|rsf:gd-|-stype:attr=1|qr_nm:gd|res:RC4|com-cf:nl|ptrs:na|ktp:N0|mc:217154|mtp:S|qry_typ:P|lang:en|wc:4|cs:8886|v=4,Meesha Enterprises,https://www.indiamart.com/meeshaenterprises-gurugram/?pos=55&kwd=stainless steel feeding bottle&tags=A||||8741.812|Price|product|||MDC|rsf:gd-|-stype:attr=1|qr_nm:gd|res:RC4|com-cf:nl|ptrs:na|ktp:N0|mc:217154|mtp:S|qry_typ:P|lang:en|wc:4|cs:8886|v=4,False,,Gurugram,"2nd, 2061A, C Block, Sushant Lok 1,, Gurugram - 122002, Dist.Gurgaon, Haryana",8041015150,
150ml Pigeon Flexible Stainless Steel Feeding Bottle,https://www.indiamart.com/proddetail/150ml-pigeon-flexible-stainless-steel-feeding-bottle-2854980988562.html?pos=56&kwd=stainless steel feeding bottle&tags=A||||8584.299|Price|product|||MDC|rsf:gd-|-stype:attr=1|qr_nm:gd|res:RC4|com-cf:nl|ptrs:na|ktp:N0|mc:217154|mtp:S|qry_typ:P|lang:en|wc:4|cs:8886|v=4,Vino Mani Enterprises,https://www.indiamart.com/vino-mani-enterprises/?pos=56&kwd=stainless steel feeding bottle&tags=A||||8584.299|Price|product|||MDC|rsf:gd-|-stype:attr=1|qr_nm:gd|res:RC4|com-cf:nl|ptrs:na|ktp:N0|mc:217154|mtp:S|qry_typ:P|lang:en|wc:4|cs:8886|v=4,False,,Coimbatore,"No 89A, NA, Azad Road, R S Puram, Coimbatore - 641002, Dist.Coimbatore, Tamil Nadu",7942546353,
Kitchen Plate Stand,https://www.indiamart.com/proddetail/kitchen-plate-stand-25504900062.html?pos=57&kwd=stainless steel feeding bottle&tags=A||||8752.144|Price|product|||TS|rsf:gd-|-stype:attr=1|qr_nm:gd|res:RC4|com-cf:nl|ptrs:na|ktp:N0|mc:217154|mtp:S|qry_typ:P|lang:en|wc:4|cs:8886|v=4,Kedy Mart Private Limited,https://www.kedymart.net/?pos=57&kwd=stainless steel feeding bottle&tags=A||||8752.144|Price|product|||TS|rsf:gd-|-stype:attr=1|qr_nm:gd|res:RC4|com-cf:nl|ptrs:na|ktp:N0|mc:217154|mtp:S|qry_typ:P|lang:en|wc:4|cs:8886|v=4,False,Rithala,New Delhi,"khasra No 1008/9, Rohini, New Delhi Landmark Na New Delhi Rithala, Rithala, New Delhi - 110085, Dist.Delhi, Delhi",8048273345,
"Stainless Steel Baby Feeding Bottle, Capacity: 0.5 Ltr",https://www.indiamart.com/proddetail/stainless-steel-baby-feeding-bottle-27007002833.html?pos=58&kwd=stainless steel feeding bottle&tags=BA||||8785.791|Price|product|||TS|rsf:gd-|-stype:attr=1|qr_nm:gd|res:RC4|com-cf:nl|ptrs:na|ktp:N0|mc:217154|mtp:S|qry_typ:P|lang:en|wc:4|cs:8886|v=4,Tatva By Gopika,https://www.urika.in/?pos=58&kwd=stainless steel feeding bottle&tags=BA||||8785.791|Price|product|||TS|rsf:gd-|-stype:attr=1|qr_nm:gd|res:RC4|com-cf:nl|ptrs:na|ktp:N0|mc:217154|mtp:S|qry_typ:P|lang:en|wc:4|cs:8886|v=4,False,Indirapuram,Ghaziabad,"SD-035, LGF, Jaipuria Sunrise Greens, Plot No-12A, Ahinsha Khand, Indirapuram,, Indirapuram, Ghaziabad - 201014, Dist.Ghaziabad, Uttar Pradesh",8047673566,
"Stainless Steel Baby Feeding Bottle, Capacity: 200 mL",https://www.indiamart.com/proddetail/stainless-steel-baby-feeding-bottle-2854703140191.html?pos=59&kwd=stainless steel feeding bottle&tags=BA||||8211.142||product|||MDC|rsf:gd-|-stype:attr=1|qr_nm:gd|res:RC4|com-cf:nl|ptrs:na|ktp:N0|mc:217154|mtp:S|qry_typ:P|lang:en|wc:4|cs:8886|v=4,Brinox International,https://www.indiamart.com/brinox-international/?pos=59&kwd=stainless steel feeding bottle&tags=BA||||8211.142||product|||MDC|rsf:gd-|-stype:attr=1|qr_nm:gd|res:RC4|com-cf:nl|ptrs:na|ktp:N0|mc:217154|mtp:S|qry_typ:P|lang:en|wc:4|cs:8886|v=4,False,,Mumbai,"501/502,5th Floor,Padmavati Niwas,Sadashiv Cross Lane, Nr. Sanskar Bal Mandir,Girgaon, Mumbai - 400004, Dist.Mumbai, Maharashtra",7949324583,
Stainless Steel Baby Feeding Bottle,,Pleasure Paradise,https://www.wonderfeel.in/?pos=60&kwd=stainless steel feeding bottle&tags=A||||8778.123|Price|product|||TS|rsf:gd-|-stype:attr=1|qr_nm:gd|res:RC4|com-cf:nl|ptrs:na|ktp:N0|mc:217154|mtp:S|qry_typ:P|lang:en|wc:4|cs:8886|v=4,False,Sector 137,Noida,"11, T12 1105, Paras Tierea, Sector 137, Sector 137, Noida - 201301, Dist.Gautam Budh Nagar, Uttar Pradesh",8048612980,
"Bravo Stainless Steel Baby Milk Bottle, Capacity: 300 mL",https://www.indiamart.com/proddetail/bravo-stainless-steel-baby-milk-bottle-2854527415830.html?pos=61&kwd=stainless steel feeding bottle&tags=BA||||8038.093|Price|product|||MDC|rsf:gd-|-stype:attr=1|qr_nm:gd|res:RC4|com-cf:nl|ptrs:na|ktp:N0|mc:217154|mtp:S|qry_typ:P|lang:en|wc:4|cs:8886|v=4,My Medicine,https://www.indiamart.com/mymedicinerajkot/?pos=61&kwd=stainless steel feeding bottle&tags=BA||||8038.093|Price|product|||MDC|rsf:gd-|-stype:attr=1|qr_nm:gd|res:RC4|com-cf:nl|ptrs:na|ktp:N0|mc:217154|mtp:S|qry_typ:P|lang:en|wc:4|cs:8886|v=4,False,,Rajkot,"8, Git Gurjari Scoiety, My Medicine, Air Port Road, Opp. Nilkant Mahadev Temple, Rajkot - 360007, Dist.Rajkot, Gujarat",7949336599,
White Metal Red Kitchen Chef Stainless steel Baby feeding bottle - 250 ml,https://www.indiamart.com/proddetail/red-kitchen-chef-stainless-steel-baby-feeding-bottle-250-ml-2854179718862.html?pos=62&kwd=stainless steel feeding bottle&tags=BA||||8663.873|Price|product|||TS|rsf:gd-|-stype:attr=1|qr_nm:gd|res:RC4|com-cf:nl|ptrs:na|ktp:N0|mc:217154|mtp:S|qry_typ:P|lang:en|wc:4|cs:8886|v=4,Suranas,https://www.suranas.in/?pos=62&kwd=stainless steel feeding bottle&tags=BA||||8663.873|Price|product|||TS|rsf:gd-|-stype:attr=1|qr_nm:gd|res:RC4|com-cf:nl|ptrs:na|ktp:N0|mc:217154|mtp:S|qry_typ:P|lang:en|wc:4|cs:8886|v=4,False,Basavanagudi,Bengaluru,"14/38, 1st model house street, Basavanagudi, Bengaluru - 560004, Dist.Bengaluru, Karnataka",8047547443,
Stainless Steel Feeding Bottle,,ARN Designs,https://www.indiamart.com/arn-designs/?pos=63&kwd=stainless steel feeding bottle&tags=BA||||8915.672|Price|product|||TS|rsf:gd-|-stype:attr=1|qr_nm:gd|res:RC4|com-cf:nl|ptrs:na|ktp:N0|mc:217154|mtp:S|qry_typ:P|lang:en|wc:4|cs:8886|v=4,False,Colony,Moradabad,"C/O Nadeem Ahmed Khan, Near Railway Line Opposite Ekta Vihar South, MDA Colony Near Power House Rampur Road, Colony, Moradabad - 244001, Dist.Moradabad, Uttar Pradesh",7949091965,
"Metal Stainless Steel Feeding Bottle, Capacity: 250 mL, Baby",https://www.indiamart.com/proddetail/stainless-steel-feeding-bottle-2854849273930.html?pos=64&kwd=stainless steel feeding bottle&tags=BA||||8038.093|Price|product|||TS|rsf:gd-|-stype:attr=1|qr_nm:gd|res:RC4|com-cf:nl|ptrs:na|ktp:N0|mc:217154|mtp:S|qry_typ:P|lang:en|wc:4|cs:8886|v=4,Kohinoor Overseas,https://www.kohinoorkitchenware.com/?pos=64&kwd=stainless steel feeding bottle&tags=BA||||8038.093|Price|product|||TS|rsf:gd-|-stype:attr=1|qr_nm:gd|res:RC4|com-cf:nl|ptrs:na|ktp:N0|mc:217154|mtp:S|qry_typ:P|lang:en|wc:4|cs:8886|v=4,False,Indira Nagar,Rajkot,"Plot No-13 Sahakar Main Road Street No 5 Shree Krushnanagar Co Opp Housing Ltd, Indira Nagar, Rajkot - 360002, Dist.Rajkot, Gujarat",8044564674,
"Silver Metal Stainless Steel Feeding Bottle, Capacity: 250 ml, Age Group: Newly Born",https://www.indiamart.com/proddetail/stainless-steel-feeding-bottle-22771616891.html?pos=65&kwd=stainless steel feeding bottle&tags=BA||||8584.299|Price|product|||TS|rsf:gd-|-stype:attr=1|qr_nm:gd|res:RC4|com-cf:nl|ptrs:na|ktp:N0|mc:217154|mtp:S|qry_typ:P|lang:en|wc:4|cs:8886|v=4,Sri Barani And Company,https://www.baraniandcompany.com/?pos=65&kwd=stainless steel feeding bottle&tags=BA||||8584.299|Price|product|||TS|rsf:gd-|-stype:attr=1|qr_nm:gd|res:RC4|com-cf:nl|ptrs:na|ktp:N0|mc:217154|mtp:S|qry_typ:P|lang:en|wc:4|cs:8886|v=4,False,PN pudur,Coimbatore,"Coimbatore, Tamil Nadu No.3 Thiyagi kumaran st, PN pudur, Coimbatore - 641041, Dist.Coimbatore, Tamil Nadu",8045909855,
"Kneaders Stainless Steel Baby Feeding Bottle, Capacity: 200 Ml, Size: 6 X 6 X 18 Cm",https://www.indiamart.com/proddetail/stainless-steel-baby-feeding-bottle-23187632155.html?pos=66&kwd=stainless steel feeding bottle&tags=BA||||8223.226|Price|product|||TS|rsf:gd-|-stype:attr=1|qr_nm:gd|res:RC4|com-cf:nl|ptrs:na|ktp:N0|mc:217154|mtp:S|qry_typ:P|lang:en|wc:4|cs:8886|v=4,Tim Engineering,https://www.indiamart.com/timengineering-thane/?pos=66&kwd=stainless steel feeding bottle&tags=BA||||8223.226|Price|product|||TS|rsf:gd-|-stype:attr=1|qr_nm:gd|res:RC4|com-cf:nl|ptrs:na|ktp:N0|mc:217154|mtp:S|qry_typ:P|lang:en|wc:4|cs:8886|v=4,False,Bhayandar West,Thane,"I-24, Swastik Ind.estate , Goddev Fatak Road, Bhayandar West, Thane - 401101, Dist.Thane, Maharashtra",8048954305,
"Silver and Sky Blue Stainless Steel Milk Feeding Bottle, Capacity: 200 mL, Newly Born",https://www.indiamart.com/proddetail/stainless-steel-milk-feeding-bottle-2852725756262.html?pos=67&kwd=stainless steel feeding bottle&tags=BA||||8752.144|Price|product|||TS|rsf:gd-|-stype:attr=1|qr_nm:gd|res:RC4|com-cf:nl|ptrs:na|ktp:N0|mc:217154|mtp:S|qry_typ:P|lang:en|wc:4|cs:8886|v=4,Laxmi Enterprises,https://www.indiamart.com/laxmi-enterprises-delhiindia/?pos=67&kwd=stainless steel feeding bottle&tags=BA||||8752.144|Price|product|||TS|rsf:gd-|-stype:attr=1|qr_nm:gd|res:RC4|com-cf:nl|ptrs:na|ktp:N0|mc:217154|mtp:S|qry_typ:P|lang:en|wc:4|cs:8886|v=4,False,Motia Khan,New Delhi,"C-302, RG Complex, Motia Khan, Near Rani Jhansi Goal Chakkar, Paharganj, Motia Khan, New Delhi - 110055, Dist.Delhi, Delhi",8043846767,
"Silver Metal Stainless Steel Baby Feeding Bottle, Design/Pattern: Round, Capacity: 200 mL",https://www.indiamart.com/proddetail/stainless-steel-baby-feeding-bottle-2853236379288.html?pos=68&kwd=stainless steel feeding bottle&tags=BA||||8211.142|Price|product|||TS|rsf:gd-|-stype:attr=1|qr_nm:gd|res:RC4|com-cf:nl|ptrs:na|ktp:N0|mc:217154|mtp:S|qry_typ:P|lang:en|wc:4|cs:8886|v=4,Stallion Enterprise,https://www.stallionenterprise.com/?pos=68&kwd=stainless steel feeding bottle&tags=BA||||8211.142|Price|product|||TS|rsf:gd-|-stype:attr=1|qr_nm:gd|res:RC4|com-cf:nl|ptrs:na|ktp:N0|mc:217154|mtp:S|qry_typ:P|lang:en|wc:4|cs:8886|v=4,False,Kandivali West,Mumbai,"Plot No. 136- ABC, Kandivali Government Industrial Estate Charkop, Kandivali West, Mumbai - 400067, Dist.Mumbai, Maharashtra",8048983208,
"Silver Stainless Steel Baby Feeding Bottle, Age Group: 1-2 Years, Capacity: 120 ml - 240 ml",https://www.indiamart.com/proddetail/stainless-steel-baby-feeding-bottle-21888941655.html?pos=69&kwd=stainless steel feeding bottle&tags=BA||||8752.144|Price|product|||TS|rsf:gd-|-stype:attr=1|qr_nm:gd|res:RC4|com-cf:nl|ptrs:na|ktp:N0|mc:217154|mtp:S|qry_typ:P|lang:en|wc:4|cs:8886|v=4,Mom & Son,https://www.theindianchoice.com/?pos=69&kwd=stainless steel feeding bottle&tags=BA||||8752.144|Price|product|||TS|rsf:gd-|-stype:attr=1|qr_nm:gd|res:RC4|com-cf:nl|ptrs:na|ktp:N0|mc:217154|mtp:S|qry_typ:P|lang:en|wc:4|cs:8886|v=4,False,Karawal Nagar,New Delhi,"B-57 Gali Number-1 Mukund Vihar, Near Pnb Bank, Karawal Nagar, New Delhi - 110094, Dist.Delhi, Delhi",7942565509,
"Metal Baby Stainless Steel Feeding Bottle 250ML, Design/Pattern: Plain, 3-12 Months",https://www.indiamart.com/proddetail/baby-stainless-steel-feeding-bottle-250ml-26854877091.html?pos=70&kwd=stainless steel feeding bottle&tags=BA||||8752.144|Price|product|||TS|rsf:gd-|-stype:attr=1|qr_nm:gd|res:RC4|com-cf:nl|ptrs:na|ktp:N0|mc:217154|mtp:S|qry_typ:P|lang:en|wc:4|cs:8886|v=4,Shri Shyam Enterprises,https://www.indiamart.com/shrishyamenterprisesnewdelhi/?pos=70&kwd=stainless steel feeding bottle&tags=BA||||8752.144|Price|product|||TS|rsf:gd-|-stype:attr=1|qr_nm:gd|res:RC4|com-cf:nl|ptrs:na|ktp:N0|mc:217154|mtp:S|qry_typ:P|lang:en|wc:4|cs:8886|v=4,False,Tajpur Kalan,New Delhi,"House No.392, First Floor, Village Tajpur Kalan, North Delhi, Tajpur Kalan, New Delhi - 110036, Dist.Delhi, Delhi",8048212783,
Stainless Steel Baby Feeding Milk Bottle,https://www.indiamart.com/proddetail/stainless-steel-baby-feeding-milk-bottle-2854137181388.html?pos=71&kwd=stainless steel feeding bottle&tags=BA||||8584.299|Price|product|||TS|rsf:gd-|-stype:attr=1|qr_nm:gd|res:RC4|com-cf:nl|ptrs:na|ktp:N0|mc:217154|mtp:S|qry_typ:P|lang:en|wc:4|cs:8886|v=4,BKH Enterprises,https://www.bkhenterprises.net/?pos=71&kwd=stainless steel feeding bottle&tags=BA||||8584.299|Price|product|||TS|rsf:gd-|-stype:attr=1|qr_nm:gd|res:RC4|com-cf:nl|ptrs:na|ktp:N0|mc:217154|mtp:S|qry_typ:P|lang:en|wc:4|cs:8886|v=4,False,Annai Indra Nagar,Coimbatore,"45,West Subramaniam Street,RS Puram, Annai Indra Nagar, Coimbatore - 641001, Dist.Coimbatore, Tamil Nadu",8046066722,
KIDZEE VIRTUE HOMEWARE FEEDING STAINLESS STEEL BOTTLE,https://www.indiamart.com/proddetail/kidzee-virtue-homeware-feeding-stainless-steel-bottle-2854041030833.html?pos=72&kwd=stainless steel feeding bottle&tags=BA||||8210.732|Price|product|||TS|rsf:gd-|-stype:attr=1|qr_nm:gd|res:RC4|com-cf:nl|ptrs:na|ktp:N0|mc:217154|mtp:S|qry_typ:P|lang:en|wc:4|cs:8886|v=4,Virtue Household Products,https://www.virtuehomeware.net/?pos=72&kwd=stainless steel feeding bottle&tags=BA||||8210.732|Price|product|||TS|rsf:gd-|-stype:attr=1|qr_nm:gd|res:RC4|com-cf:nl|ptrs:na|ktp:N0|mc:217154|mtp:S|qry_typ:P|lang:en|wc:4|cs:8886|v=4,False,Vasai West,Vasai,"Gala No 2, Survey No 97 And House No Vl09/7120/1, Golani, Near Star Complex And Sunder Nagar, Vasai Virar, Vasai West, Vasai - 401208, Dist.Thane, Maharashtra",7942955369,
"Metal Stainless Steel Baby Feeding Bottles, Capacity: 250 mL",https://www.indiamart.com/proddetail/stainless-steel-baby-feeding-bottles-21810758812.html?pos=73&kwd=stainless steel feeding bottle&tags=BA||||8752.144|Price|product|||TS|rsf:gd-|-stype:attr=1|qr_nm:gd|res:RC4|com-cf:nl|ptrs:na|ktp:N0|mc:217154|mtp:S|qry_typ:P|lang:en|wc:4|cs:8886|v=4,Jain Brothers,https://www.jainbrothersjb.com/?pos=73&kwd=stainless steel feeding bottle&tags=BA||||8752.144|Price|product|||TS|rsf:gd-|-stype:attr=1|qr_nm:gd|res:RC4|com-cf:nl|ptrs:na|ktp:N0|mc:217154|mtp:S|qry_typ:P|lang:en|wc:4|cs:8886|v=4,False,Delhi Sadar Bazar,New Delhi,"1268,2nd Floor Nala road Sadar Bazar, Delhi Sadar Bazar, New Delhi - 110006, Dist.Delhi, Delhi",8048265534,
Maxfresh 304 Stainless Steel Baby Feeding Bottle Feeding Bottle for Baby BPA Free Bottle,https://www.indiamart.com/proddetail/maxfresh-304-stainless-steel-baby-feeding-bottle-feeding-bottle-for-baby-bpa-free-bottle-2852785444773.html?pos=74&kwd=stainless steel feeding bottle&tags=BA||||8211.142|Price|product|||TS|rsf:gd-|-stype:attr=1|qr_nm:gd|res:RC4|com-cf:nl|ptrs:na|ktp:N0|mc:217154|mtp:S|qry_typ:P|lang:en|wc:4|cs:8886|v=4,Shree Vallabh Metals,https://www.shreevallabhmetals.in/?pos=74&kwd=stainless steel feeding bottle&tags=BA||||8211.142|Price|product|||TS|rsf:gd-|-stype:attr=1|qr_nm:gd|res:RC4|com-cf:nl|ptrs:na|ktp:N0|mc:217154|mtp:S|qry_typ:P|lang:en|wc:4|cs:8886|v=4,True,Bhayandar East,Mumbai,"Gala No.8, H.P. Gas Godown Gali, Opposite Old Syndicate Bank, Bhayandar East, Mumbai - 401105, Dist.Mumbai, Maharashtra",8047623277,
"White Steel Feeding Bottle For Baby, Design/Pattern: Round, Capacity: 150 ml",https://www.indiamart.com/proddetail/steel-feeding-bottle-for-baby-25383024533.html?pos=75&kwd=stainless steel feeding bottle&tags=BA||||8954.051||product|||TS|rsf:gd-|-stype:attr=1|qr_nm:gd|res:RC4|com-cf:nl|ptrs:na|ktp:N0|mc:217154|mtp:S|qry_typ:P|lang:en|wc:4|cs:8886|v=4,Sha Mangnajee Bhawarlal,https://www.smbestore.in/?pos=75&kwd=stainless steel feeding bottle&tags=BA||||8954.051||product|||TS|rsf:gd-|-stype:attr=1|qr_nm:gd|res:RC4|com-cf:nl|ptrs:na|ktp:N0|mc:217154|mtp:S|qry_typ:P|lang:en|wc:4|cs:8886|v=4,False,Sowcarpet,Chennai,"Building 33, Narayana Mudali Street Sowcarpet, Sowcarpet, Chennai - 600079, Dist.Chennai, Tamil Nadu",8048963829,
METKING Stainless Steel Baby Feeding Bottle -Anti Colic Nipple Slim Neck Steel Bottle- 220 ml,https://www.indiamart.com/proddetail/metking-stainless-steel-baby-feeding-bottle-anti-colic-nipple-slim-neck-steel-bottle-220-ml-2853615623488.html?pos=76&kwd=stainless steel feeding bottle&tags=BA||||8601.347|Price|product|||TS|rsf:gd-|-stype:attr=1|qr_nm:gd|res:RC4|com-cf:nl|ptrs:na|ktp:N0|mc:217154|mtp:S|qry_typ:P|lang:en|wc:4|cs:8886|v=4,Ashoka Metals,https://www.themetking.com/?pos=76&kwd=stainless steel feeding bottle&tags=BA||||8601.347|Price|product|||TS|rsf:gd-|-stype:attr=1|qr_nm:gd|res:RC4|com-cf:nl|ptrs:na|ktp:N0|mc:217154|mtp:S|qry_typ:P|lang:en|wc:4|cs:8886|v=4,False,Gurudham Colony,Jaipur,"0,Basement,Ashoka Plaza,Bus Stand, Chomu, Gurudham Colony, Jaipur - 303702, Dist.Jaipur, Rajasthan",8047833469,
"Blue Stainless Steel Feeding Bottle, Capacity: 100ml, Newly Born",https://www.indiamart.com/proddetail/stainless-steel-feeding-bottle-23919453488.html?pos=77&kwd=stainless steel feeding bottle&tags=BB||||8509.724|Price|product|||MDC|rsf:gd-|-stype:attr=1|qr_nm:gd|res:RC4|com-cf:nl|ptrs:na|ktp:N0|mc:217154|mtp:S|qry_typ:P|lang:en|wc:4|cs:8886|v=4,GSK,https://www.indiamart.com/gsk-alappuzha/?pos=77&kwd=stainless steel feeding bottle&tags=BB||||8509.724|Price|product|||MDC|rsf:gd-|-stype:attr=1|qr_nm:gd|res:RC4|com-cf:nl|ptrs:na|ktp:N0|mc:217154|mtp:S|qry_typ:P|lang:en|wc:4|cs:8886|v=4,False,Chungam,Alappuzha,"26/996 A, Vinayaka Bhavan, Mo Ward, Alappuzha, Chungam, Alappuzha - 688011, Dist.Alappuzha, Kerala",8048614702,
"Stainless Steel Feeding Bottle, Capacity: 300 mL, New Born Baby",https://www.indiamart.com/proddetail/stainless-steel-feeding-bottle-2853683529088.html?pos=78&kwd=stainless steel feeding bottle&tags=BA||||8556.61|Price|product|||MDC|rsf:gd-|-stype:attr=1|qr_nm:gd|res:RC4|com-cf:nl|ptrs:na|ktp:N0|mc:217154|mtp:S|qry_typ:P|lang:en|wc:4|cs:8886|v=4,Taa Mowaa Sales & Marketing,https://www.indiamart.com/taamowaa-salesmarketing/?pos=78&kwd=stainless steel feeding bottle&tags=BA||||8556.61|Price|product|||MDC|rsf:gd-|-stype:attr=1|qr_nm:gd|res:RC4|com-cf:nl|ptrs:na|ktp:N0|mc:217154|mtp:S|qry_typ:P|lang:en|wc:4|cs:8886|v=4,False,Bannimantap,Mysore,"No.3/2, C.V West Cross Mill Rooad, A Bannimantap Extension, Mandi Mohalla, Bannimantap, Mysore - 570015, Dist.Mysuru, Karnataka",8047843494,
"White Metal Stainless Steel Feeding Bottle, Capacity: 200 mL, Baby",https://www.indiamart.com/proddetail/stainless-steel-feeding-bottle-2853433643797.html?pos=79&kwd=stainless steel feeding bottle&tags=BA||||9301.656|Price|product|||MDC|rsf:gd-|-stype:attr=1|qr_nm:gd|res:RC4|com-cf:nl|ptrs:na|ktp:N0|mc:217154|mtp:S|qry_typ:P|lang:en|wc:4|cs:8886|v=4,Suraj Stainless Steel,https://www.indiamart.com/surajstainlesssteel/?pos=79&kwd=stainless steel feeding bottle&tags=BA||||9301.656|Price|product|||MDC|rsf:gd-|-stype:attr=1|qr_nm:gd|res:RC4|com-cf:nl|ptrs:na|ktp:N0|mc:217154|mtp:S|qry_typ:P|lang:en|wc:4|cs:8886|v=4,False,Sidhgiribagh,Varanasi,"D-60/15A,Chotti Gaivi, Sidhgiribagh, Sidhgiribagh, Varanasi - 221001, Dist.Varanasi, Uttar Pradesh",8043884935,
"Silver 400ml Budds Buddy Stainless Steel Feeding Bottle, Design/Pattern: Plain, 3-12 Months",https://www.indiamart.com/proddetail/400ml-budds-buddy-stainless-steel-feeding-bottle-2852621500773.html?pos=80&kwd=stainless steel feeding bottle&tags=BA||||8230.883|Price|product|||MDC|rsf:gd-|-stype:attr=1|qr_nm:gd|res:RC4|com-cf:nl|ptrs:na|ktp:N0|mc:217154|mtp:S|qry_typ:P|lang:en|wc:4|cs:8886|v=4,Jay Impex,https://www.indiamart.com/jayimpexsurat/?pos=80&kwd=stainless steel feeding bottle&tags=BA||||8230.883|Price|product|||MDC|rsf:gd-|-stype:attr=1|qr_nm:gd|res:RC4|com-cf:nl|ptrs:na|ktp:N0|mc:217154|mtp:S|qry_typ:P|lang:en|wc:4|cs:8886|v=4,False,Athwa,Surat,"1st Floor, 77, Narmad Nagar Soc, Hirabaug,, Athwa, Surat - 395006, Dist.Surat, Gujarat",7942713335,
"Metal Stainless Steel Baby Feeding Bottle, Capacity: 250 mL",https://www.indiamart.com/proddetail/stainless-steel-baby-feeding-bottle-2853649178897.html?pos=81&kwd=stainless steel feeding bottle&tags=BA||||8210.732|Price|product|||MDC|rsf:gd-|-stype:attr=1|qr_nm:gd|res:RC4|com-cf:nl|ptrs:na|ktp:N0|mc:217154|mtp:S|qry_typ:P|lang:en|wc:4|cs:8886|v=4,Mahesh Enterprises,https://www.indiamart.com/maheshenterprises-thane-maharashtra/?pos=81&kwd=stainless steel feeding bottle&tags=BA||||8210.732|Price|product|||MDC|rsf:gd-|-stype:attr=1|qr_nm:gd|res:RC4|com-cf:nl|ptrs:na|ktp:N0|mc:217154|mtp:S|qry_typ:P|lang:en|wc:4|cs:8886|v=4,False,Yashwant Gaurav Road,Vasai Virar,"Fifth Floor, E-503, Shri Khambeshwar Heights, Yashwant Gaurav Road, Apple 2 CHS, Nallasopara West, Vasai Virar Palghar, Yashwant Gaurav Road, Vasai Virar - 401203, Dist.Thane, Maharashtra",7949226545,
"Metal Stainless Steel Baby Feeding Bottle, Capacity: 250 mL",https://www.indiamart.com/proddetail/stainless-steel-baby-feeding-bottle-2853362605162.html?pos=82&kwd=stainless steel feeding bottle&tags=BA||||8785.791|Price|product|||MDC|rsf:gd-|-stype:attr=1|qr_nm:gd|res:RC4|com-cf:nl|ptrs:na|ktp:N0|mc:217154|mtp:S|qry_typ:P|lang:en|wc:4|cs:8886|v=4,Arhaan Enterprises,https://www.indiamart.com/arhaan-enterprisesuttarpradesh/?pos=82&kwd=stainless steel feeding bottle&tags=BA||||8785.791|Price|product|||MDC|rsf:gd-|-stype:attr=1|qr_nm:gd|res:RC4|com-cf:nl|ptrs:na|ktp:N0|mc:217154|mtp:S|qry_typ:P|lang:en|wc:4|cs:8886|v=4,False,Dasna,Ghaziabad,"910, AH 2, Country Liquor Shop, Dasna, Masuri, measure dasna, Dasna, Ghaziabad - 201015, Dist.Ghaziabad, Uttar Pradesh",7948548911,
"Stainless Steel Baby Feeding Bottle, Capacity: 250 mL",https://www.indiamart.com/proddetail/stainless-steel-baby-feeding-bottle-2854606665797.html?pos=83&kwd=stainless steel feeding bottle&tags=BA||||8307.81|Price|product|||MDC|rsf:gd-|-stype:attr=1|qr_nm:gd|res:RC4|com-cf:nl|ptrs:na|ktp:N0|mc:217154|mtp:S|qry_typ:P|lang:en|wc:4|cs:8886|v=4,Parmar Crockery World,https://www.indiamart.com/parmarcrockeryworld/?pos=83&kwd=stainless steel feeding bottle&tags=BA||||8307.81|Price|product|||MDC|rsf:gd-|-stype:attr=1|qr_nm:gd|res:RC4|com-cf:nl|ptrs:na|ktp:N0|mc:217154|mtp:S|qry_typ:P|lang:en|wc:4|cs:8886|v=4,False,,Pune,"CTS No 384, Guruwar Peth, Pune - 411002, Dist.Pune, Maharashtra",7949329873,
"250ml Stainless Steel Feeding Bottle, New Born Baby",https://www.indiamart.com/proddetail/250ml-stainless-steel-feeding-bottle-2854090243991.html?pos=84&kwd=stainless steel feeding bottle&tags=BA||||8461.862|Price|product|||MDC|rsf:gd-|-stype:attr=1|qr_nm:gd|res:RC4|com-cf:nl|ptrs:na|ktp:N0|mc:217154|mtp:S|qry_typ:P|lang:en|wc:4|cs:8886|v=4,Arihant Metals,https://www.indiamart.com/arihantmetals-bhilwara/?pos=84&kwd=stainless steel feeding bottle&tags=BA||||8461.862|Price|product|||MDC|rsf:gd-|-stype:attr=1|qr_nm:gd|res:RC4|com-cf:nl|ptrs:na|ktp:N0|mc:217154|mtp:S|qry_typ:P|lang:en|wc:4|cs:8886|v=4,False,Sector D,Bhilwara,"30/3894-95,3938-45, Anukampa Skydeck Ke Pass, 100 Feet Road, Sector D, Bhilwara - 311001, Dist.Bhilwara, Rajasthan",8045732287,
Baby Stainless Steel Feeding Bottle,https://www.indiamart.com/proddetail/baby-stainless-steel-feeding-bottle-2854133658197.html?pos=85&kwd=stainless steel feeding bottle&tags=BA||||8624.416|Price|product|||MDC|rsf:gd-|-stype:attr=1|qr_nm:gd|res:RC4|com-cf:nl|ptrs:na|ktp:N0|mc:217154|mtp:S|qry_typ:P|lang:en|wc:4|cs:8886|v=4,Nagpal Cosmetics,https://www.indiamart.com/nagpal-cosmetics/?pos=85&kwd=stainless steel feeding bottle&tags=BA||||8624.416|Price|product|||MDC|rsf:gd-|-stype:attr=1|qr_nm:gd|res:RC4|com-cf:nl|ptrs:na|ktp:N0|mc:217154|mtp:S|qry_typ:P|lang:en|wc:4|cs:8886|v=4,False,,Hisar,"First Floor, House No. 123, Kunj Lal Garden, Shanti Nagar, Hisar - 125001, Dist.Hisar, Haryana",8045738316,
"13 Stainless Steel Feeding Bottle, Capacity: 250 mL, Baby",https://www.indiamart.com/proddetail/13-stainless-steel-feeding-bottle-21723593530.html?pos=86&kwd=stainless steel feeding bottle&tags=BA||||8954.051|Price|product|||MDC|rsf:gd-|-stype:attr=1|qr_nm:gd|res:RC4|com-cf:nl|ptrs:na|ktp:N0|mc:217154|mtp:S|qry_typ:P|lang:en|wc:4|cs:8886|v=4,Mahavir Enterprises,https://www.indiamart.com/mahavir-enterprises-tamilnadu/?pos=86&kwd=stainless steel feeding bottle&tags=BA||||8954.051|Price|product|||MDC|rsf:gd-|-stype:attr=1|qr_nm:gd|res:RC4|com-cf:nl|ptrs:na|ktp:N0|mc:217154|mtp:S|qry_typ:P|lang:en|wc:4|cs:8886|v=4,False,Old Washermanpet Seven Wells,Chennai,"Old No 117/118 New No 8, NA, Sevenwells Street George Town, Old Washermanpet Seven Wells, Chennai - 600001, Dist.Chennai, Tamil Nadu",7949087437,
"Aristo Silver Stainless Steel Baby Feeding Bottle, 6 Month, Size: 7 X 7 X 20 cm",https://www.indiamart.com/proddetail/stainless-steel-baby-feeding-bottle-2849837006073.html?pos=87&kwd=stainless steel feeding bottle&tags=BA||||8211.142|Price|product|||MDC|rsf:gd-|-stype:attr=1|qr_nm:gd|res:RC4|com-cf:nl|ptrs:na|ktp:N0|mc:217154|mtp:S|qry_typ:P|lang:en|wc:4|cs:8886|v=4,ATCO STEEL,https://www.indiamart.com/atcosteel/?pos=87&kwd=stainless steel feeding bottle&tags=BA||||8211.142|Price|product|||MDC|rsf:gd-|-stype:attr=1|qr_nm:gd|res:RC4|com-cf:nl|ptrs:na|ktp:N0|mc:217154|mtp:S|qry_typ:P|lang:en|wc:4|cs:8886|v=4,False,bhuleshwar mumbai,Mumbai,"Shop No-5A, 15, Bada Mandir, Gaushala, Panjarapole Lane, Suburban, bhuleshwar mumbai, Mumbai - 400002, Dist.Mumbai, Maharashtra",7942797065,
"Baby Stainless Steel Feeding Bottle, Capacity: 250 mL",https://www.indiamart.com/proddetail/baby-stainless-steel-feeding-bottle-2853624655148.html?pos=88&kwd=stainless steel feeding bottle&tags=BA||||8752.144|Price|product|||MDC|rsf:gd-|-stype:attr=1|qr_nm:gd|res:RC4|com-cf:nl|ptrs:na|ktp:N0|mc:217154|mtp:S|qry_typ:P|lang:en|wc:4|cs:8886|v=4,S.N. Enterprises,https://www.indiamart.com/sn-enterprisesnew-delhi/?pos=88&kwd=stainless steel feeding bottle&tags=BA||||8752.144|Price|product|||MDC|rsf:gd-|-stype:attr=1|qr_nm:gd|res:RC4|com-cf:nl|ptrs:na|ktp:N0|mc:217154|mtp:S|qry_typ:P|lang:en|wc:4|cs:8886|v=4,False,Daryaganj,New Delhi,"Shop No. 16, Sabharwal Market, Sabharwal Lane, Sadar Bazar, North, Daryaganj, New Delhi - 110006, Dist.Delhi, Delhi",8045166377,
"Metal Stainless Steel Baby Feeding Bottle, Capacity: 250 mL",https://www.indiamart.com/proddetail/stainless-steel-baby-feeding-bottle-2853468908712.html?pos=89&kwd=stainless steel feeding bottle&tags=BA||||8752.144||product|||MDC|rsf:gd-|-stype:attr=1|qr_nm:gd|res:RC4|com-cf:nl|ptrs:na|ktp:N0|mc:217154|mtp:S|qry_typ:P|lang:en|wc:4|cs:8886|v=4,Prince And Princess,https://www.indiamart.com/prince-princess-delhi/?pos=89&kwd=stainless steel feeding bottle&tags=BA||||8752.144||product|||MDC|rsf:gd-|-stype:attr=1|qr_nm:gd|res:RC4|com-cf:nl|ptrs:na|ktp:N0|mc:217154|mtp:S|qry_typ:P|lang:en|wc:4|cs:8886|v=4,False,Gulabi Bagh,New Delhi,"Ground Floor, Garage No - 74, Gulabi Bagh Road,, Gulabi Bagh, New Delhi - 110007, Dist.Delhi, Delhi",8047629125,
"Silver Stainless Steel Baby Feeding Bottle, Capacity: 300 mL, Newly Born",https://www.indiamart.com/proddetail/stainless-steel-baby-feeding-bottle-2853216723897.html?pos=90&kwd=stainless steel feeding bottle&tags=BA||||8752.144|Price|product|||MDC|rsf:gd-|-stype:attr=1|qr_nm:gd|res:RC4|com-cf:nl|ptrs:na|ktp:N0|mc:217154|mtp:S|qry_typ:P|lang:en|wc:4|cs:8886|v=4,Shubh Shakti Traders,https://www.indiamart.com/shubhshaktitraders/?pos=90&kwd=stainless steel feeding bottle&tags=BA||||8752.144|Price|product|||MDC|rsf:gd-|-stype:attr=1|qr_nm:gd|res:RC4|com-cf:nl|ptrs:na|ktp:N0|mc:217154|mtp:S|qry_typ:P|lang:en|wc:4|cs:8886|v=4,False,Wazirpur,New Delhi,"Ground Floor, House No.51, DSIDC Complex. Wazirpur Indl. Area, Landmark Old SBI Building, North West, Wazirpur, New Delhi - 110052, Dist.Delhi, Delhi",7949224945,
Stainless Steel Feeding Bottle 140 Ml,https://www.indiamart.com/proddetail/stainless-steel-feeding-bottle-140-ml-2852134237430.html?pos=91&kwd=stainless steel feeding bottle&tags=BA||||8624.416|Price|product|||MDC|rsf:gd-|-stype:attr=1|qr_nm:gd|res:RC4|com-cf:nl|ptrs:na|ktp:N0|mc:217154|mtp:S|qry_typ:P|lang:en|wc:4|cs:8886|v=4,Dayawanti Traders,https://www.indiamart.com/dayawati-trader/?pos=91&kwd=stainless steel feeding bottle&tags=BA||||8624.416|Price|product|||MDC|rsf:gd-|-stype:attr=1|qr_nm:gd|res:RC4|com-cf:nl|ptrs:na|ktp:N0|mc:217154|mtp:S|qry_typ:P|lang:en|wc:4|cs:8886|v=4,False,Indira Colony,Hisar,"Plot No. 137 Dhani Kishandutt, Near Asha High School, Nancy Beauty Parlour, Indira Colony, Indira Colony, Hisar - 125001, Dist.Hisar, Haryana",7942701403,
"Mansi Stainless Steel Baby Feeding Bottle, Capacity: 250 mL",https://www.indiamart.com/proddetail/mansi-stainless-steel-baby-feeding-bottle-2853998678962.html?pos=92&kwd=stainless steel feeding bottle&tags=BA||||8168.6484|Price|product|||MDC|rsf:gd-|-stype:attr=1|qr_nm:gd|res:RC4|com-cf:nl|ptrs:na|ktp:N0|mc:217154|mtp:S|qry_typ:P|lang:en|wc:4|cs:8886|v=4,Dhiraj Traders,https://www.indiamart.com/dhiraj-traders-bhavnagar/?pos=92&kwd=stainless steel feeding bottle&tags=BA||||8168.6484|Price|product|||MDC|rsf:gd-|-stype:attr=1|qr_nm:gd|res:RC4|com-cf:nl|ptrs:na|ktp:N0|mc:217154|mtp:S|qry_typ:P|lang:en|wc:4|cs:8886|v=4,False,Jogiwaad,Bhavnagar,"Vora Sheri, Khargate, Jogiwaad, Bhavnagar - 364001, Dist.Bhavnagar, Gujarat",7949373026,
150ml AVS Stainless Steel feeding Bottle,https://www.indiamart.com/proddetail/150ml-avs-stainless-steel-feeding-bottle-2853926160048.html?pos=93&kwd=stainless steel feeding bottle&tags=BA||||8211.142|Price|product|||MDC|rsf:gd-|-stype:attr=1|qr_nm:gd|res:RC4|com-cf:nl|ptrs:na|ktp:N0|mc:217154|mtp:S|qry_typ:P|lang:en|wc:4|cs:8886|v=4,Mahakali Stationery & Printer,https://www.indiamart.com/mahakalistationeryprinter/?pos=93&kwd=stainless steel feeding bottle&tags=BA||||8211.142|Price|product|||MDC|rsf:gd-|-stype:attr=1|qr_nm:gd|res:RC4|com-cf:nl|ptrs:na|ktp:N0|mc:217154|mtp:S|qry_typ:P|lang:en|wc:4|cs:8886|v=4,False,Powai,Mumbai,"Ground Floor, Shop No 74, Powai Plaza Chs Ltd, Near Iit Hiranandani Gardens, J V Link Road Powai Suburban, Powai, Mumbai - 400076, Dist.Mumbai, Maharashtra",8044563937,
220ml Stainless Steel Baby Feeding Bottle,https://www.indiamart.com/proddetail/220ml-stainless-steel-baby-feeding-bottle-2853402744355.html?pos=94&kwd=stainless steel feeding bottle&tags=BA||||8954.051||product|||MDC|rsf:gd-|-stype:attr=1|qr_nm:gd|res:RC4|com-cf:nl|ptrs:na|ktp:N0|mc:217154|mtp:S|qry_typ:P|lang:en|wc:4|cs:8886|v=4,Aasi Metal Products,https://www.indiamart.com/aasi-metal-products/?pos=94&kwd=stainless steel feeding bottle&tags=BA||||8954.051||product|||MDC|rsf:gd-|-stype:attr=1|qr_nm:gd|res:RC4|com-cf:nl|ptrs:na|ktp:N0|mc:217154|mtp:S|qry_typ:P|lang:en|wc:4|cs:8886|v=4,False,Vengavasal,Chennai,"N.S. Tower First Floor, Plot No.A2, School Street, Swaminathapuram,Vengai Vasal,Chengalpattu, Vengavasal, Chennai - 600126, Dist.Chennai, Tamil Nadu",7949225565,
Stainless Steel Baby Feeding 200ml Bottle,https://www.indiamart.com/proddetail/stainless-steel-baby-feeding-200ml-bottle-2854493745548.html?pos=95&kwd=stainless steel feeding bottle&tags=BA||||8663.873|Price|product|||MDC|rsf:gd-|-stype:attr=1|qr_nm:gd|res:RC4|com-cf:nl|ptrs:na|ktp:N0|mc:217154|mtp:S|qry_typ:P|lang:en|wc:4|cs:8886|v=4,AQ Corporation,https://www.indiamart.com/aqcorporation/?pos=95&kwd=stainless steel feeding bottle&tags=BA||||8663.873|Price|product|||MDC|rsf:gd-|-stype:attr=1|qr_nm:gd|res:RC4|com-cf:nl|ptrs:na|ktp:N0|mc:217154|mtp:S|qry_typ:P|lang:en|wc:4|cs:8886|v=4,False,,Bengaluru,"Ground And First Floor, No 88, 2nd Cross, 4th Main, NGEF Layout, Nagashetty Halli, Sanjaynagar Bengaluru Urban, Bengaluru - 560094, Dist.Bengaluru, Karnataka",7949325043,
"150ml Diamond Stainless Steel Feeding Bottle, New Born Baby",https://www.indiamart.com/proddetail/150ml-diamond-stainless-steel-feeding-bottle-2854300182730.html?pos=96&kwd=stainless steel feeding bottle&tags=BA||||9301.656|Price|product|||MDC|rsf:gd-|-stype:attr=1|qr_nm:gd|res:RC4|com-cf:nl|ptrs:na|ktp:N0|mc:217154|mtp:S|qry_typ:P|lang:en|wc:4|cs:8886|v=4,Madhuram Enterprises,https://www.indiamart.com/madhuramenterprises-varanasi/?pos=96&kwd=stainless steel feeding bottle&tags=BA||||9301.656|Price|product|||MDC|rsf:gd-|-stype:attr=1|qr_nm:gd|res:RC4|com-cf:nl|ptrs:na|ktp:N0|mc:217154|mtp:S|qry_typ:P|lang:en|wc:4|cs:8886|v=4,False,,Varanasi,"C 14/161 8 A, Kazipura Khurd Sonia, Sonia, Varanasi - 221010, Dist.Varanasi, Uttar Pradesh",7949325420,
"Stainless Steel Mix Baby Feeding Bottle, Age Group: 0-2 Years, Capacity: 120ml-280ml",https://www.indiamart.com/proddetail/baby-feeding-bottle-21942150288.html?pos=97&kwd=stainless steel feeding bottle&tags=BA||||8223.226|Price|product|||MDC|rsf:gd-|-stype:attr=1|qr_nm:gd|res:RC4|com-cf:nl|ptrs:na|ktp:N0|mc:217154|mtp:S|qry_typ:P|lang:en|wc:4|cs:8886|v=4,Wecare Solutions,https://www.indiamart.com/wecare-solutions/?pos=97&kwd=stainless steel feeding bottle&tags=BA||||8223.226|Price|product|||MDC|rsf:gd-|-stype:attr=1|qr_nm:gd|res:RC4|com-cf:nl|ptrs:na|ktp:N0|mc:217154|mtp:S|qry_typ:P|lang:en|wc:4|cs:8886|v=4,False,Valiv,Thane,"Gala No. F-19-20, 1st Floor, Rajprabha Anand Industrial Estate Naikpada, Waliv, Valiv, Thane - 401208, Dist.Thane, Maharashtra",8047631791,
"Metal Bonne Steel Baby Milk Bottle, Capacity: 150 mL",https://www.indiamart.com/proddetail/bonne-steel-baby-milk-bottle-2851569091262.html?pos=98&kwd=stainless steel feeding bottle&tags=BA||||8559.269|Price|product|||TS|rsf:gd-|-stype:attr=1|qr_nm:gd|res:RC4|com-cf:nl|ptrs:na|ktp:N0|mc:217154|mtp:S|qry_typ:P|lang:en|wc:4|cs:8886|v=4,Subhash Stores,https://www.indiamart.com/subhash-stores/?pos=98&kwd=stainless steel feeding bottle&tags=BA||||8559.269|Price|product|||TS|rsf:gd-|-stype:attr=1|qr_nm:gd|res:RC4|com-cf:nl|ptrs:na|ktp:N0|mc:217154|mtp:S|qry_typ:P|lang:en|wc:4|cs:8886|v=4,False,Gadi Adda,Indore,"77, RANIPURA MAIN ROAD INDORE, Gadi Adda, Indore - 452001, Dist.Indore, Madhya Pradesh",8047698960,
Stainless Steel Feeding Bottle,https://www.indiamart.com/proddetail/ss-milk-bottle-2851649611455.html?pos=99&kwd=stainless steel feeding bottle&tags=BA||||8559.269|Price|product|||TS|rsf:gd-|-stype:attr=1|qr_nm:gd|res:RC4|com-cf:nl|ptrs:na|ktp:N0|mc:217154|mtp:S|qry_typ:P|lang:en|wc:4|cs:8886|v=4,Kamal Girdharilal And Sons,https://www.indiamart.com/kamalgirdharilalsons/?pos=99&kwd=stainless steel feeding bottle&tags=BA||||8559.269|Price|product|||TS|rsf:gd-|-stype:attr=1|qr_nm:gd|res:RC4|com-cf:nl|ptrs:na|ktp:N0|mc:217154|mtp:S|qry_typ:P|lang:en|wc:4|cs:8886|v=4,False,Sudama Nagar,Indore,"First, Second, Third And Fourth Floor, 51-52, Kasera Bazar, Sudama Nagar, Indore - 452001, Dist.Indore, Madhya Pradesh",7942842565,
"Stainless Steel Kids sipper vacuum bottle, Capacity: 500 mL",https://www.indiamart.com/proddetail/kids-sipper-vacuum-bottle-2852177389755.html?pos=100&kwd=stainless steel feeding bottle&tags=BA||||8211.142|Price|product|||TS|rsf:gd-|-stype:attr=1|qr_nm:gd|res:RC4|com-cf:nl|ptrs:na|ktp:N0|mc:217154|mtp:S|qry_typ:P|lang:en|wc:4|cs:8886|v=4,Sambhav Enterprise,https://www.indiamart.com/sambhaventerprisemumbai/?pos=100&kwd=stainless steel feeding bottle&tags=BA||||8211.142|Price|product|||TS|rsf:gd-|-stype:attr=1|qr_nm:gd|res:RC4|com-cf:nl|ptrs:na|ktp:N0|mc:217154|mtp:S|qry_typ:P|lang:en|wc:4|cs:8886|v=4,False,Borivali West,Mumbai,"203, 2nd Floor, Om Tower, Saibaba Nagar, Borivali West, Mumbai - 400092, Dist.Mumbai, Maharashtra",8043856690,
"Metal Feeding steel bottles, Capacity: 150 mL, 3-12 Months",https://www.indiamart.com/proddetail/feeding-steel-bottles-2851282527591.html?pos=101&kwd=stainless steel feeding bottle&tags=BA||||8786.56|Price|product|||TS|rsf:gd-|-stype:attr=1|qr_nm:gd|res:RC4|com-cf:nl|ptrs:na|ktp:N0|mc:217154|mtp:S|qry_typ:P|lang:en|wc:4|cs:8886|v=4,Sri Vinayaka Steel Palace,https://www.indiamart.com/sri-vinayaka-steelpalace/?pos=101&kwd=stainless steel feeding bottle&tags=BA||||8786.56|Price|product|||TS|rsf:gd-|-stype:attr=1|qr_nm:gd|res:RC4|com-cf:nl|ptrs:na|ktp:N0|mc:217154|mtp:S|qry_typ:P|lang:en|wc:4|cs:8886|v=4,False,Ameerpet,Hyderabad,"No. 7-1-191/4,, Ameerpet, Hyderabad - 500016, Dist.Hyderabad, Telangana",8047647521,
300ml Auto Flow Super Ultra Stainless Steel Newborn Baby Feeding Bottle,https://www.indiamart.com/proddetail/300ml-auto-flow-super-ultra-stainless-steel-newborn-baby-feeding-bottle-2853299330812.html?pos=102&kwd=stainless steel feeding bottle&tags=BA||||8211.142|Price|product|||MDC|rsf:gd-|-stype:attr=1|qr_nm:gd|res:RC4|com-cf:nl|ptrs:na|ktp:N0|mc:217154|mtp:S|qry_typ:P|lang:en|wc:4|cs:8886|v=4,National Baby Products,https://www.indiamart.com/nationalbabyproducts/?pos=102&kwd=stainless steel feeding bottle&tags=BA||||8211.142|Price|product|||MDC|rsf:gd-|-stype:attr=1|qr_nm:gd|res:RC4|com-cf:nl|ptrs:na|ktp:N0|mc:217154|mtp:S|qry_typ:P|lang:en|wc:4|cs:8886|v=4,False,Sewri,Mumbai,"3rd Floor, D 22/23, Acme Industrial Estate, Sewri East, Sewri, Mumbai - 400015, Dist.Mumbai, Maharashtra",7948548024,
SS baby feeding bottle,https://www.indiamart.com/proddetail/ss-baby-feeding-bottle-2854921394091.html?pos=103&kwd=stainless steel feeding bottle&tags=BA||||8823.154|Price|product|||MDC|rsf:gd-|-stype:attr=1|qr_nm:gd|res:RC4|com-cf:nl|ptrs:na|ktp:N0|mc:217154|mtp:S|qry_typ:P|lang:en|wc:4|cs:8886|v=4,Ekta Agency,https://www.indiamart.com/ekta-agencyup/?pos=103&kwd=stainless steel feeding bottle&tags=BA||||8823.154|Price|product|||MDC|rsf:gd-|-stype:attr=1|qr_nm:gd|res:RC4|com-cf:nl|ptrs:na|ktp:N0|mc:217154|mtp:S|qry_typ:P|lang:en|wc:4|cs:8886|v=4,False,Mantola,Agra,"B7,,SHRIGOPAL COMPLEX GROUND FLOOR,DARESHI NO 2 AGAR, Mantola, Agra - 282003, Dist.Agra, Uttar Pradesh",8047652350,
"Sheetal Ss Feeding Bottle, Capacity: 1 L",https://www.indiamart.com/proddetail/ss-feeding-bottle-16473070348.html?pos=104&kwd=stainless steel feeding bottle&tags=BA||||8954.051|Price|product|||MDC|rsf:gd-|-stype:attr=1|qr_nm:gd|res:RC4|com-cf:nl|ptrs:na|ktp:N0|mc:217154|mtp:S|qry_typ:P|lang:en|wc:4|cs:8886|v=4,Sheetal Enterprises,https://www.indiamart.com/sheetal-enterpriseschennai/?pos=104&kwd=stainless steel feeding bottle&tags=BA||||8954.051|Price|product|||MDC|rsf:gd-|-stype:attr=1|qr_nm:gd|res:RC4|com-cf:nl|ptrs:na|ktp:N0|mc:217154|mtp:S|qry_typ:P|lang:en|wc:4|cs:8886|v=4,False,Park Town,Chennai,"No. 9, Vengu Chetty Lane, Park Town, Chennai - 600003, Dist.Chennai, Tamil Nadu",8046032658,
"White Metal Ss Baby Feeding Bottle, Capacity: 240ml, 3-12 Months",https://www.indiamart.com/proddetail/ss-baby-feeding-bottle-23667007648.html?pos=105&kwd=stainless steel feeding bottle&tags=BA||||8545.6045|Price|product|||MDC|rsf:gd-|-stype:attr=1|qr_nm:gd|res:RC4|com-cf:nl|ptrs:na|ktp:N0|mc:217154|mtp:S|qry_typ:P|lang:en|wc:4|cs:8886|v=4,Shraddha Saburi,https://www.indiamart.com/shraddhasaburi/?pos=105&kwd=stainless steel feeding bottle&tags=BA||||8545.6045|Price|product|||MDC|rsf:gd-|-stype:attr=1|qr_nm:gd|res:RC4|com-cf:nl|ptrs:na|ktp:N0|mc:217154|mtp:S|qry_typ:P|lang:en|wc:4|cs:8886|v=4,False,Cantonment Area,Firozpur,"263, Suji Bazar, M/s Shraddha Saburi, Ferozepur Cantt, Cantonment Area, Firozpur - 152001, Dist.Firozpur, Punjab",8048979628,
"Obbi Metal Stainless Steel Milk Bottles, Plastic, Packaging Type: Corrugated Box",https://www.indiamart.com/proddetail/stainless-steel-milk-bottles-21135003897.html?pos=106&kwd=stainless steel feeding bottle&tags=BA||||8785.791|Price|product|||MDC|rsf:gd-|-stype:attr=1|qr_nm:gd|res:RC4|com-cf:nl|ptrs:na|ktp:N0|mc:217154|mtp:S|qry_typ:P|lang:en|wc:4|cs:8886|v=4,Fra Enterprises,https://www.indiamart.com/fraenterprises/?pos=106&kwd=stainless steel feeding bottle&tags=BA||||8785.791|Price|product|||MDC|rsf:gd-|-stype:attr=1|qr_nm:gd|res:RC4|com-cf:nl|ptrs:na|ktp:N0|mc:217154|mtp:S|qry_typ:P|lang:en|wc:4|cs:8886|v=4,False,Lohia Nagar,Ghaziabad,"Plot No. 75, Gali No. 7, Prem Enclave, Opposite DPS School, Meerut Road, Lohia Nagar, Ghaziabad - 201001, Dist.Ghaziabad, Uttar Pradesh",8046078303,
"Double Wall Heavy Stainless Steel Copper Inside Water Bottle, Capacity: 750 mL",https://www.indiamart.com/proddetail/double-wall-heavy-stainless-steel-copper-inside-water-bottle-2852056153933.html?pos=107&kwd=stainless steel feeding bottle&tags=BA||||8915.672|Price|product|||TS|rsf:gd-|-stype:attr=1|qr_nm:gd|res:RC4|com-cf:nl|ptrs:na|ktp:N0|mc:217154|mtp:S|qry_typ:P|lang:en|wc:4|cs:8886|v=4,Met Craft,https://www.metcrafter.com/?pos=107&kwd=stainless steel feeding bottle&tags=BA||||8915.672|Price|product|||TS|rsf:gd-|-stype:attr=1|qr_nm:gd|res:RC4|com-cf:nl|ptrs:na|ktp:N0|mc:217154|mtp:S|qry_typ:P|lang:en|wc:4|cs:8886|v=4,False,katghar,Moradabad,"Road Kathghar Udpura, katghar, Moradabad - 244001, Dist.Moradabad, Uttar Pradesh",7942869512,
"Hard Plastic Pink Feeding bottles 125ml, Capacity: 250 Ml, Packaging Type: Box",https://www.indiamart.com/proddetail/feeding-bottles-125ml-20928739512.html?pos=108&kwd=stainless steel feeding bottle&tags=BA||||8211.906||product|||TS|rsf:gd-|-stype:attr=1|qr_nm:gd|res:RC4|com-cf:nl|ptrs:na|ktp:N0|mc:217154|mtp:S|qry_typ:P|lang:en|wc:4|cs:8886|v=4,Punamiya Exim Private Limited,https://www.punamiyaexim.co.in/?pos=108&kwd=stainless steel feeding bottle&tags=BA||||8211.906||product|||TS|rsf:gd-|-stype:attr=1|qr_nm:gd|res:RC4|com-cf:nl|ptrs:na|ktp:N0|mc:217154|mtp:S|qry_typ:P|lang:en|wc:4|cs:8886|v=4,False,Umargam,Umargam,"Near To Sonal Plastic, Plot No 828 A GIDC, Plot No 828 A GIDC, Umbergaon Station Road, GIDC, Umargam, Umargam - 396171, Dist.Valsad, Gujarat",8048976705,
800 Ml Stainless Steel Apple Serving Bowl,https://www.indiamart.com/proddetail/800-ml-stainless-steel-apple-serving-bowl-15480998388.html?pos=109&kwd=stainless steel feeding bottle&tags=BA||||8752.144|Price|product|||TS|rsf:gd-|-stype:attr=1|qr_nm:gd|res:RC4|com-cf:nl|ptrs:na|ktp:N0|mc:217154|mtp:S|qry_typ:P|lang:en|wc:4|cs:8886|v=4,Aradhya Steel Industries,https://www.indiamart.com/aradhya-steel-industries/?pos=109&kwd=stainless steel feeding bottle&tags=BA||||8752.144|Price|product|||TS|rsf:gd-|-stype:attr=1|qr_nm:gd|res:RC4|com-cf:nl|ptrs:na|ktp:N0|mc:217154|mtp:S|qry_typ:P|lang:en|wc:4|cs:8886|v=4,False,Wazirpur Industrial Area,New Delhi,"A-29, Group, Wazirpur Industrial Area, Wazirpur Industrial Area, New Delhi - 110052, Dist.Delhi, Delhi",7942533471,
Stainless Steel Baby Feeding Bottle,,Kedareshwar Industries,https://www.indiamart.com/kedareshwarindustries/?pos=110&kwd=stainless steel feeding bottle&tags=A||||8223.226|Price|product|||MDC|rsf:gd-|-stype:attr=1|qr_nm:gd|res:RC4|com-cf:nl|ptrs:na|ktp:N0|mc:217154|mtp:S|qry_typ:P|lang:en|wc:4|cs:8886|v=4,False,Bhayandar East,Thane,"23, Amar Industrial Estate, Navghar Road, Bhayandar East, Thane,, Bhayandar East, Thane - 401105, Dist.Thane, Maharashtra",7948549238,
Stainless Steel Sipper Bottle,https://www.indiamart.com/proddetail/stainless-steel-sipper-bottle-2854783122330.html?pos=111&kwd=stainless steel feeding bottle&tags=BA||||8752.144|Price|product|||MDC|rsf:gd-|-stype:attr=1|qr_nm:gd|res:RC4|com-cf:nl|ptrs:na|ktp:N0|mc:217154|mtp:S|qry_typ:P|lang:en|wc:4|cs:8886|v=4,Household Mart,https://www.indiamart.com/household-mart-newdelhi/?pos=111&kwd=stainless steel feeding bottle&tags=BA||||8752.144|Price|product|||MDC|rsf:gd-|-stype:attr=1|qr_nm:gd|res:RC4|com-cf:nl|ptrs:na|ktp:N0|mc:217154|mtp:S|qry_typ:P|lang:en|wc:4|cs:8886|v=4,False,,New Delhi,"2nd Floor Ganesh Pura A Kanhiya Nagar Tri Nagar, House 3904 Plot No Old -171 Street No 14, North West Delhi, New Delhi - 110035, Dist.Delhi, Delhi",7949337207,
290Ml Baby Feeding Bottle,,Priyanshi International,https://www.indiamart.com/priyanshi-international-uttarpradesh/?pos=112&kwd=stainless steel feeding bottle&tags=A||||8752.144|Price|product|||MDC|rsf:gd-|-stype:attr=1|qr_nm:gd|res:RC4|com-cf:nl|ptrs:na|ktp:N0|mc:217154|mtp:S|qry_typ:P|lang:en|wc:4|cs:8886|v=4,False,,New Delhi,"3,PROP NO S228,SCHOOL BLOCK,SHAKARPUR UGF, 3, Prop No S228, School Block, Shakarpur,110092, New Delhi - 110092, Dist.Delhi, Delhi",7942676139,
Stainless Steel Sipper Bottle,https://www.indiamart.com/proddetail/stainless-steel-sipper-bottle-2854783122330.html?pos=113&kwd=stainless steel feeding bottle&tags=BA||||8752.144|Price|product|||MDC|rsf:gd-|-stype:attr=1|qr_nm:gd|res:RC4|com-cf:nl|ptrs:na|ktp:N0|mc:217154|mtp:S|qry_typ:P|lang:en|wc:4|cs:8886|v=4,Household Mart,https://www.indiamart.com/household-mart-newdelhi/?pos=113&kwd=stainless steel feeding bottle&tags=BA||||8752.144|Price|product|||MDC|rsf:gd-|-stype:attr=1|qr_nm:gd|res:RC4|com-cf:nl|ptrs:na|ktp:N0|mc:217154|mtp:S|qry_typ:P|lang:en|wc:4|cs:8886|v=4,False,,New Delhi,"2nd Floor Ganesh Pura A Kanhiya Nagar Tri Nagar, House 3904 Plot No Old -171 Street No 14, North West Delhi, New Delhi - 110035, Dist.Delhi, Delhi",7949337207,
"Silver 250 Ml Baby Milk Stainless Steel Bottle, 3-12 Months",https://www.indiamart.com/proddetail/250-ml-baby-milk-stainless-steel-bottle-2853337035412.html?pos=114&kwd=stainless steel feeding bottle&tags=BA||||8785.791|Price|product|||NA|rsf:gd-|-stype:attr=1|qr_nm:gd|res:RC4|com-cf:nl|ptrs:na|ktp:N0|mc:217154|mtp:S|qry_typ:P|lang:en|wc:4|cs:8886|v=4,V V S Fashions,https://www.indiamart.com/vvsfashions/?pos=114&kwd=stainless steel feeding bottle&tags=BA||||8785.791|Price|product|||NA|rsf:gd-|-stype:attr=1|qr_nm:gd|res:RC4|com-cf:nl|ptrs:na|ktp:N0|mc:217154|mtp:S|qry_typ:P|lang:en|wc:4|cs:8886|v=4,False,,Ghaziabad,"Plot No.-10/6, Flat No M-4, Sector-3, Rajendra Nagar, Sahibabad, Uttar Pradesh, 201005, Ghaziabad - 201005, Dist.Ghaziabad, Uttar Pradesh",7949227527,
Stainless Steel Water Bottle,https://www.indiamart.com/proddetail/stainless-steel-water-bottle-2854472907633.html?pos=115&kwd=stainless steel feeding bottle&tags=BA||||7981.7773|Price|proxy|||TS|rsf:gd-|-stype:attr=1|qr_nm:gd|res:RC4|com-cf:nl|ptrs:na|ktp:N0|mc:217154|mtp:S|qry_typ:P|lang:en|wc:4|cs:8886|v=4,Shreeji Enterprise,https://www.indiamart.com/shreejienterprisegandhidham/?pos=115&kwd=stainless steel feeding bottle&tags=BA||||7981.7773|Price|proxy|||TS|rsf:gd-|-stype:attr=1|qr_nm:gd|res:RC4|com-cf:nl|ptrs:na|ktp:N0|mc:217154|mtp:S|qry_typ:P|lang:en|wc:4|cs:8886|v=4,False,Golden Heights,Gandhidham,"108, Golden Height, Opposite Hotel Shiv Grand, Behind Petrol Pump, Golden Heights, Gandhidham - 370201, Dist.Kachchh, Gujarat",7942553471,
Stainless Steel Feeding Bottle,,Agrima Enterprises,https://www.indiamart.com/agrima-enterprises-kanpur/?pos=116&kwd=stainless steel feeding bottle&tags=BB||||9062.178|Price|product|||NA|rsf:gd-|-stype:attr=1|qr_nm:gd|res:RC4|com-cf:nl|ptrs:na|ktp:N0|mc:217154|mtp:S|qry_typ:P|lang:en|wc:4|cs:8886|v=4,False,Chetganj,Unnao,"12/205 Gandhi Nagar Shuklaganj Unnao, Chetganj, Unnao - 209861, Dist.Unnao, Uttar Pradesh",8048372186,381
"Silver Stainless Steel Feeding Bottle, 3 years, Size: 15 X 8inch",https://www.indiamart.com/proddetail/stainless-steel-feeding-bottle-24740235262.html?pos=117&kwd=stainless steel feeding bottle&tags=BB||||8752.144|Price|product|||NA|rsf:gd-|-stype:attr=1|qr_nm:gd|res:RC4|com-cf:nl|ptrs:na|ktp:N0|mc:217154|mtp:S|qry_typ:P|lang:en|wc:4|cs:8886|v=4,Urvashi Enterprises,https://www.indiamart.com/urvashienterprisesdelhi/?pos=117&kwd=stainless steel feeding bottle&tags=BB||||8752.144|Price|product|||NA|rsf:gd-|-stype:attr=1|qr_nm:gd|res:RC4|com-cf:nl|ptrs:na|ktp:N0|mc:217154|mtp:S|qry_typ:P|lang:en|wc:4|cs:8886|v=4,False,Burari North Delhi,New Delhi,"Ground Floor, C 58 C Block, Sant Nagar, Gali No 02, Burari North Delhi, New Delhi - 110084, Dist.Delhi, Delhi",7942564518,
"Stainless Steel Feeding Bottle, Capacity: 150 mL",,Shri Gulab Sons And Company,https://www.indiamart.com/shri-gulab-sons-and-company/?pos=118&kwd=stainless steel feeding bottle&tags=BA||||8211.142|Price|product|||NA|rsf:gd-|-stype:attr=1|qr_nm:gd|res:RC4|com-cf:nl|ptrs:na|ktp:N0|mc:217154|mtp:S|qry_typ:P|lang:en|wc:4|cs:8886|v=4,False,Vasai East,Mumbai,"Vasai Maharashtra, Vasai East, Mumbai - 401208, Dist.Mumbai, Maharashtra",8062245978,195
"SK Silver Stainless Steel Feeding Bottle, Newly Born, Size: 12x6 Inch",https://www.indiamart.com/proddetail/stainless-steel-feeding-bottle-2850448835762.html?pos=119&kwd=stainless steel feeding bottle&tags=BB||||8663.873||product|||NA|rsf:gd-|-stype:attr=1|qr_nm:gd|res:RC4|com-cf:nl|ptrs:na|ktp:N0|mc:217154|mtp:S|qry_typ:P|lang:en|wc:4|cs:8886|v=4,Maico Marketing,https://www.indiamart.com/maico-marketing/?pos=119&kwd=stainless steel feeding bottle&tags=BB||||8663.873||product|||NA|rsf:gd-|-stype:attr=1|qr_nm:gd|res:RC4|com-cf:nl|ptrs:na|ktp:N0|mc:217154|mtp:S|qry_typ:P|lang:en|wc:4|cs:8886|v=4,False,Nagarathpete,Bengaluru,"No.21/1, C.s.temple Street, Avenue Road Cross, Ganigarpet, Bangalore, Urban, Nagarathpete, Bengaluru - 560002, Dist.Bengaluru, Karnataka",7942824481,
"Earth Star Silver Stainless Steel Feeding Bottle, 3-12 Months, Size: 5 X 5 X 12 cm",https://www.indiamart.com/proddetail/stainless-steel-feeding-bottle-22962443891.html?pos=120&kwd=stainless steel feeding bottle&tags=BB||||8786.56|Price|product|||NA|rsf:gd-|-stype:attr=1|qr_nm:gd|res:RC4|com-cf:nl|ptrs:na|ktp:N0|mc:217154|mtp:S|qry_typ:P|lang:en|wc:4|cs:8886|v=4,Universal Enterprise,https://www.indiamart.com/universalenterprise-telangana/?pos=120&kwd=stainless steel feeding bottle&tags=BB||||8786.56|Price|product|||NA|rsf:gd-|-stype:attr=1|qr_nm:gd|res:RC4|com-cf:nl|ptrs:na|ktp:N0|mc:217154|mtp:S|qry_typ:P|lang:en|wc:4|cs:8886|v=4,False,Begum Bazaar,Hyderabad,"14-4-72 Bedar Wadi Near Chand Tara Masjid Begum Bazaar, Begum Bazaar, Hyderabad - 500052, Dist.Hyderabad, Telangana",8047663345,
Birthday Party Stainless Steel Feeding Bottle,https://www.indiamart.com/proddetail/stainless-steel-feeding-bottle-23168443512.html?pos=121&kwd=stainless steel feeding bottle&tags=BB||||8752.144|Price|product|||NA|rsf:gd-|-stype:attr=1|qr_nm:gd|res:RC4|com-cf:nl|ptrs:na|ktp:N0|mc:217154|mtp:S|qry_typ:P|lang:en|wc:4|cs:8886|v=4,Raagashree Impex Pvt. Ltd.,https://www.indiamart.com/raagashreeimpex/?pos=121&kwd=stainless steel feeding bottle&tags=BB||||8752.144|Price|product|||NA|rsf:gd-|-stype:attr=1|qr_nm:gd|res:RC4|com-cf:nl|ptrs:na|ktp:N0|mc:217154|mtp:S|qry_typ:P|lang:en|wc:4|cs:8886|v=4,False,Najafgarh Road Industrial Area,New Delhi,"No. 59, Rama Road Industrial Area, Najafgarh Road Industrial Area, New Delhi - 110015, Dist.Delhi, Delhi",8048372698,319
"Tender Flo Stainless Steel Feeding Bottle, Capacity: 125ML",https://www.indiamart.com/proddetail/stainless-steel-feeding-bottle-2850597416012.html?pos=122&kwd=stainless steel feeding bottle&tags=BB||||8559.269|Price|product|||NA|rsf:gd-|-stype:attr=1|qr_nm:gd|res:RC4|com-cf:nl|ptrs:na|ktp:N0|mc:217154|mtp:S|qry_typ:P|lang:en|wc:4|cs:8886|v=4,Prayas Enterprises,https://www.indiamart.com/prayasenterprises-madhyapradesh/?pos=122&kwd=stainless steel feeding bottle&tags=BB||||8559.269|Price|product|||NA|rsf:gd-|-stype:attr=1|qr_nm:gd|res:RC4|com-cf:nl|ptrs:na|ktp:N0|mc:217154|mtp:S|qry_typ:P|lang:en|wc:4|cs:8886|v=4,False,,Indore,"13-14,Shop No 101,RNT Marg,Third Floor,Dawa Bajar, Indore - 452001, Dist.Indore, Madhya Pradesh",7942662592,
"Standard Silver Stainless Steel Feeding Bottle, 1-2 Years, Size: 150 / 200 / 250 ml",https://www.indiamart.com/proddetail/stainless-steel-feeding-bottle-22628286888.html?pos=123&kwd=stainless steel feeding bottle&tags=BB||||8954.051||product|||NA|rsf:gd-|-stype:attr=1|qr_nm:gd|res:RC4|com-cf:nl|ptrs:na|ktp:N0|mc:217154|mtp:S|qry_typ:P|lang:en|wc:4|cs:8886|v=4,Avias India,https://www.indiamart.com/aviasindia/?pos=123&kwd=stainless steel feeding bottle&tags=BB||||8954.051||product|||NA|rsf:gd-|-stype:attr=1|qr_nm:gd|res:RC4|com-cf:nl|ptrs:na|ktp:N0|mc:217154|mtp:S|qry_typ:P|lang:en|wc:4|cs:8886|v=4,False,Kilpauk,Chennai,"3rd floor, Twins Chambers, 824, Poonamallee High Rd, Kilpauk - 600010, Kilpauk, Chennai - 600003, Dist.Chennai, Tamil Nadu",7942541592,
"Silver And Pink 290ml Stainless Steel Feeding Bottle, Design/Pattern: Plain, 12 Months",https://www.indiamart.com/proddetail/290ml-stainless-steel-feeding-bottle-2851512176391.html?pos=124&kwd=stainless steel feeding bottle&tags=BB||||8752.144|Price|product|||NA|rsf:gd-|-stype:attr=1|qr_nm:gd|res:RC4|com-cf:nl|ptrs:na|ktp:N0|mc:217154|mtp:S|qry_typ:P|lang:en|wc:4|cs:8886|v=4,Kanhaa,https://www.indiamart.com/kanhaa/?pos=124&kwd=stainless steel feeding bottle&tags=BB||||8752.144|Price|product|||NA|rsf:gd-|-stype:attr=1|qr_nm:gd|res:RC4|com-cf:nl|ptrs:na|ktp:N0|mc:217154|mtp:S|qry_typ:P|lang:en|wc:4|cs:8886|v=4,False,Shahdara,New Delhi,"G/F, 4/2931, SS Block, Shri Ram Colony, Bhola Nath Nagar, Shahdara, East Delhi,, Shahdara, New Delhi - 110032, Dist.Delhi, Delhi",7942836873,
"Stainless Steel Feeding Bottle, Capacity: 150 Ml, Newly Born",https://www.indiamart.com/proddetail/stainless-steel-feeding-bottle-22205057412.html?pos=125&kwd=stainless steel feeding bottle&tags=BB||||8954.051|Price|product|||NA|rsf:gd-|-stype:attr=1|qr_nm:gd|res:RC4|com-cf:nl|ptrs:na|ktp:N0|mc:217154|mtp:S|qry_typ:P|lang:en|wc:4|cs:8886|v=4,Unix Steel World,https://www.indiamart.com/unixsteelworld/?pos=125&kwd=stainless steel feeding bottle&tags=BB||||8954.051|Price|product|||NA|rsf:gd-|-stype:attr=1|qr_nm:gd|res:RC4|com-cf:nl|ptrs:na|ktp:N0|mc:217154|mtp:S|qry_typ:P|lang:en|wc:4|cs:8886|v=4,False,,Chennai,"12/1, 1st floor shop no : 3, mutha market, ekambareswarar street, Chennai - 600003, Dist.Chennai, Tamil Nadu",8048371758,630
"Stainless Steel Feeding Bottle, Capacity: 300 Ml",https://www.indiamart.com/proddetail/stainless-steel-feeding-bottle-22105741255.html?pos=126&kwd=stainless steel feeding bottle&tags=BB||||8210.732|Price|product|||NA|rsf:gd-|-stype:attr=1|qr_nm:gd|res:RC4|com-cf:nl|ptrs:na|ktp:N0|mc:217154|mtp:S|qry_typ:P|lang:en|wc:4|cs:8886|v=4,Nirman Home Appliances,https://www.indiamart.com/nirmanhomeappliances/?pos=126&kwd=stainless steel feeding bottle&tags=BB||||8210.732|Price|product|||NA|rsf:gd-|-stype:attr=1|qr_nm:gd|res:RC4|com-cf:nl|ptrs:na|ktp:N0|mc:217154|mtp:S|qry_typ:P|lang:en|wc:4|cs:8886|v=4,False,,Vasai Virar,"Gala No.9,10,11,12,13, Mataji Industrial Estate, Mahavir Nagar Main Road, Waliv, Vasai East, Vasai Virar - 401208, Dist.Thane, Maharashtra",8046069233,
"Avatar Stainless Steel Feeding Bottle, Capacity: 200 & 300 Ml, 3-12 Months",https://www.indiamart.com/proddetail/stainless-steel-feeding-bottle-22655523662.html?pos=127&kwd=stainless steel feeding bottle&tags=BB||||8663.873|Price|product|||NA|rsf:gd-|-stype:attr=1|qr_nm:gd|res:RC4|com-cf:nl|ptrs:na|ktp:N0|mc:217154|mtp:S|qry_typ:P|lang:en|wc:4|cs:8886|v=4,Hitendra Enterprises,https://www.indiamart.com/hitendraentps/?pos=127&kwd=stainless steel feeding bottle&tags=BB||||8663.873|Price|product|||NA|rsf:gd-|-stype:attr=1|qr_nm:gd|res:RC4|com-cf:nl|ptrs:na|ktp:N0|mc:217154|mtp:S|qry_typ:P|lang:en|wc:4|cs:8886|v=4,False,,Bengaluru,"49/5 MM, Lane Ganigarpet, Bengaluru - 560002, Dist.Bengaluru, Karnataka",8046030394,
"Mnstseller Sliver Stainless Steel Feeding Bottle, 3-12 Months, Size: 250 Ml",https://www.indiamart.com/proddetail/stainless-steel-feeding-bottle-22449559312.html?pos=128&kwd=stainless steel feeding bottle&tags=BB||||8307.81|Price|product|||NA|rsf:gd-|-stype:attr=1|qr_nm:gd|res:RC4|com-cf:nl|ptrs:na|ktp:N0|mc:217154|mtp:S|qry_typ:P|lang:en|wc:4|cs:8886|v=4,MNST Seller,https://www.indiamart.com/mnst-seller/?pos=128&kwd=stainless steel feeding bottle&tags=BB||||8307.81|Price|product|||NA|rsf:gd-|-stype:attr=1|qr_nm:gd|res:RC4|com-cf:nl|ptrs:na|ktp:N0|mc:217154|mtp:S|qry_typ:P|lang:en|wc:4|cs:8886|v=4,False,,Pune,"Survey No. 41/4 K, Jai Hind Society, Wadgaon Sheri, Pune - 411014, Dist.Pune, Maharashtra",8069416030,166
"Silver Stainless Steel Feeding Bottle, Capacity: 100 mL, Design/Pattern: Plain",https://www.indiamart.com/proddetail/stainless-steel-feeding-bottle-2850789911291.html?pos=129&kwd=stainless steel feeding bottle&tags=BA||||8210.732|Price|product|||NA|rsf:gd-|-stype:attr=1|qr_nm:gd|res:RC4|com-cf:nl|ptrs:na|ktp:N0|mc:217154|mtp:S|qry_typ:P|lang:en|wc:4|cs:8886|v=4,Sai Innovation Tech,https://www.indiamart.com/saiinnovationtech/?pos=129&kwd=stainless steel feeding bottle&tags=BA||||8210.732|Price|product|||NA|rsf:gd-|-stype:attr=1|qr_nm:gd|res:RC4|com-cf:nl|ptrs:na|ktp:N0|mc:217154|mtp:S|qry_typ:P|lang:en|wc:4|cs:8886|v=4,False,Vasai East,Vasai Virar,"H No.Bd01/2507, Sr No.21/4, Rais Anagar, Vasai Virar, Palghar, Vasai East, Vasai Virar - 401208, Dist.Thane, Maharashtra",7942825363,
"Silver Chhajer Stainless Steel Feeding Bottle, Capacity: 220ml, 4 Months",https://www.indiamart.com/proddetail/chhajer-stainless-steel-feeding-bottle-26791092248.html?pos=130&kwd=stainless steel feeding bottle&tags=BA||||8954.051||product|||NA|rsf:gd-|-stype:attr=1|qr_nm:gd|res:RC4|com-cf:nl|ptrs:na|ktp:N0|mc:217154|mtp:S|qry_typ:P|lang:en|wc:4|cs:8886|v=4,Swastik Marketing,https://www.indiamart.com/swastikmarketingchennai/?pos=130&kwd=stainless steel feeding bottle&tags=BA||||8954.051||product|||NA|rsf:gd-|-stype:attr=1|qr_nm:gd|res:RC4|com-cf:nl|ptrs:na|ktp:N0|mc:217154|mtp:S|qry_typ:P|lang:en|wc:4|cs:8886|v=4,False,,Chennai,"52,,GOVINDAPPA NAICKEN STREET,CHENNAI 52 Govindappa Naicken Street Chennai,600001,, Chennai - 600001, Dist.Chennai, Tamil Nadu",8043825466,
"Stainless Steel Feeding Bottle, Capacity: 150mL, 6 Months",https://www.indiamart.com/proddetail/stainless-steel-feeding-bottle-24428222430.html?pos=131&kwd=stainless steel feeding bottle&tags=BB||||8830.079|Price|product|||NA|rsf:gd-|-stype:attr=1|qr_nm:gd|res:RC4|com-cf:nl|ptrs:na|ktp:N0|mc:217154|mtp:S|qry_typ:P|lang:en|wc:4|cs:8886|v=4,Goodmunchkins Private Limited,https://www.indiamart.com/goodmunchkins/?pos=131&kwd=stainless steel feeding bottle&tags=BB||||8830.079|Price|product|||NA|rsf:gd-|-stype:attr=1|qr_nm:gd|res:RC4|com-cf:nl|ptrs:na|ktp:N0|mc:217154|mtp:S|qry_typ:P|lang:en|wc:4|cs:8886|v=4,False,Gandhi Nagar,Vellore,"No.31, Ground Floor, Jaganathan Nagar Main Road, Gandhi Nagar, Vellore - 632006, Dist.Vellore, Tamil Nadu",7942555990,
"Silver Stainless Steel Milk Feeding Bottle, Capacity: 200 ml, 3-12 Months",https://www.indiamart.com/proddetail/stainless-steel-milk-feeding-bottle-23490595997.html?pos=132&kwd=stainless steel feeding bottle&tags=BB||||8785.791||product|||NA|rsf:gd-|-stype:attr=1|qr_nm:gd|res:RC4|com-cf:nl|ptrs:na|ktp:N0|mc:217154|mtp:S|qry_typ:P|lang:en|wc:4|cs:8886|v=4,Lifelong Enterprise,https://www.indiamart.com/online-sell-noida/?pos=132&kwd=stainless steel feeding bottle&tags=BB||||8785.791||product|||NA|rsf:gd-|-stype:attr=1|qr_nm:gd|res:RC4|com-cf:nl|ptrs:na|ktp:N0|mc:217154|mtp:S|qry_typ:P|lang:en|wc:4|cs:8886|v=4,False,,Ghaziabad,"Rc -298, Bharat Nagar, Khora Colony, Ghaziabad - 201001, Dist.Ghaziabad, Uttar Pradesh",8047826548,
Pigeon Stainless Steel Feeding Bottle,https://www.indiamart.com/proddetail/pigeon-stainless-steel-feeding-bottle-2852002172755.html?pos=133&kwd=stainless steel feeding bottle&tags=BA||||8823.154||product|||NA|rsf:gd-|-stype:attr=1|qr_nm:gd|res:RC4|com-cf:nl|ptrs:na|ktp:N0|mc:217154|mtp:S|qry_typ:P|lang:en|wc:4|cs:8886|v=4,Yahoo Fabs,https://www.indiamart.com/yahoo-fabs/?pos=133&kwd=stainless steel feeding bottle&tags=BA||||8823.154||product|||NA|rsf:gd-|-stype:attr=1|qr_nm:gd|res:RC4|com-cf:nl|ptrs:na|ktp:N0|mc:217154|mtp:S|qry_typ:P|lang:en|wc:4|cs:8886|v=4,False,,Agra,"58, Jaipur House, Loha Mandi, Agra - 282002, Dist.Agra, Uttar Pradesh",7942870014,
"Seama Stainless Steel Baby Feeding Bottle, Capacity: 180ml, Newly Born",https://www.indiamart.com/proddetail/stainless-steel-baby-feeding-bottle-24340884297.html?pos=134&kwd=stainless steel feeding bottle&tags=BB||||8584.299|Price|product|||NA|rsf:gd-|-stype:attr=1|qr_nm:gd|res:RC4|com-cf:nl|ptrs:na|ktp:N0|mc:217154|mtp:S|qry_typ:P|lang:en|wc:4|cs:8886|v=4,2k Distributor,https://www.indiamart.com/2k-distributor/?pos=134&kwd=stainless steel feeding bottle&tags=BB||||8584.299|Price|product|||NA|rsf:gd-|-stype:attr=1|qr_nm:gd|res:RC4|com-cf:nl|ptrs:na|ktp:N0|mc:217154|mtp:S|qry_typ:P|lang:en|wc:4|cs:8886|v=4,False,,Coimbatore,"3E, Sembagounder Thottam, Marutham Nagar, Ramachettipalayam, Sundakamuthur Post,, Coimbatore - 641010, Dist.Coimbatore, Tamil Nadu",7942565091,
"Metal 250 Ml Stainless Steel Feeding Bottle, New Born Baby",https://www.indiamart.com/proddetail/250-ml-stainless-steel-feeding-bottle-2853719968797.html?pos=135&kwd=stainless steel feeding bottle&tags=BA||||8785.791|Price|product|||NA|rsf:gd-|-stype:attr=1|qr_nm:gd|res:RC4|com-cf:nl|ptrs:na|ktp:N0|mc:217154|mtp:S|qry_typ:P|lang:en|wc:4|cs:8886|v=4,Mahakal Traders,https://www.indiamart.com/mahakaltradersghaziabad/?pos=135&kwd=stainless steel feeding bottle&tags=BA||||8785.791|Price|product|||NA|rsf:gd-|-stype:attr=1|qr_nm:gd|res:RC4|com-cf:nl|ptrs:na|ktp:N0|mc:217154|mtp:S|qry_typ:P|lang:en|wc:4|cs:8886|v=4,False,Marium Nagar,Ghaziabad,"C 1152, Nandgram, Marium Nagar, Ghaziabad - 201003, Dist.Ghaziabad, Uttar Pradesh",7949373396,
"Blue And Silver Stainless Steel Baby Feeding Bottle, Design/Pattern: Plain, 3-12 Months",https://www.indiamart.com/proddetail/stainless-steel-baby-feeding-bottle-2850835174933.html?pos=136&kwd=stainless steel feeding bottle&tags=BB||||8810.737|Price|product|||NA|rsf:gd-|-stype:attr=1|qr_nm:gd|res:RC4|com-cf:nl|ptrs:na|ktp:N0|mc:217154|mtp:S|qry_typ:P|lang:en|wc:4|cs:8886|v=4,Saraniya Enterprises,https://www.indiamart.com/saraniya-enterprises-saharanpur/?pos=136&kwd=stainless steel feeding bottle&tags=BB||||8810.737|Price|product|||NA|rsf:gd-|-stype:attr=1|qr_nm:gd|res:RC4|com-cf:nl|ptrs:na|ktp:N0|mc:217154|mtp:S|qry_typ:P|lang:en|wc:4|cs:8886|v=4,False,,Saharanpur,"House No-3/5215, Jagdamba Colony, Paper Mill Road, Saharanpur - 247001, Dist.Saharanpur, Uttar Pradesh",7942826965,
"BEAT BORN Baby Feeding Stainless Steel Bottle, Capacity: 250ML, NEWLLY BORN TO 2 YEAR BABBY",https://www.indiamart.com/proddetail/baby-feeding-stainless-steel-bottle-2849781579991.html?pos=137&kwd=stainless steel feeding bottle&tags=BB||||8752.144|Price|product|||NA|rsf:gd-|-stype:attr=1|qr_nm:gd|res:RC4|com-cf:nl|ptrs:na|ktp:N0|mc:217154|mtp:S|qry_typ:P|lang:en|wc:4|cs:8886|v=4,Pakki Garanti,https://www.indiamart.com/pakki-garanti/?pos=137&kwd=stainless steel feeding bottle&tags=BB||||8752.144|Price|product|||NA|rsf:gd-|-stype:attr=1|qr_nm:gd|res:RC4|com-cf:nl|ptrs:na|ktp:N0|mc:217154|mtp:S|qry_typ:P|lang:en|wc:4|cs:8886|v=4,False,Chandni Chowk,New Delhi,"Gf 2666 Gali Arya Samaj Sita Ram Bazar New Delhi Central Delhi, Chandni Chowk, New Delhi - 110006, Dist.Delhi, Delhi",7942794197,
"White Metal Stainless Steel Baby Feeding Bottle, Capacity: 250 mL",https://www.indiamart.com/proddetail/stainless-steel-baby-feeding-bottle-2853893279362.html?pos=138&kwd=stainless steel feeding bottle&tags=BA||||8785.791|Price|product|||NA|rsf:gd-|-stype:attr=1|qr_nm:gd|res:RC4|com-cf:nl|ptrs:na|ktp:N0|mc:217154|mtp:S|qry_typ:P|lang:en|wc:4|cs:8886|v=4,Madhav Traders,https://www.indiamart.com/madhavtraders-191879565/?pos=138&kwd=stainless steel feeding bottle&tags=BA||||8785.791|Price|product|||NA|rsf:gd-|-stype:attr=1|qr_nm:gd|res:RC4|com-cf:nl|ptrs:na|ktp:N0|mc:217154|mtp:S|qry_typ:P|lang:en|wc:4|cs:8886|v=4,False,,Ghaziabad,"1 376/86 Kotgoan Kotgaon Ghaziabad, Ghaziabad - 201001, Dist.Ghaziabad, Uttar Pradesh",8048249802,878
Stainless Steel Baby Feeding Bottle,,Iag Traders,https://www.indiamart.com/minigenz/?pos=139&kwd=stainless steel feeding bottle&tags=BA||||8974.737|Price|product|||NA|rsf:gd-|-stype:attr=1|qr_nm:gd|res:RC4|com-cf:nl|ptrs:na|ktp:N0|mc:217154|mtp:S|qry_typ:P|lang:en|wc:4|cs:8886|v=4,False,Siklapur,Bareilly,"Bareilly 400 Siklapur Siklapur Bareilly Siklapur, Siklapur, Bareilly - 243001, Dist.Bareilly, Uttar Pradesh",8048372572,384
"Silver Stainless Steel Baby Feeding Bottle, 3-12 Months, Size: 250ml &150ml",https://www.indiamart.com/proddetail/stainless-steel-baby-feeding-bottle-2850379071233.html?pos=140&kwd=stainless steel feeding bottle&tags=BA||||8954.051|Price|product|||NA|rsf:gd-|-stype:attr=1|qr_nm:gd|res:RC4|com-cf:nl|ptrs:na|ktp:N0|mc:217154|mtp:S|qry_typ:P|lang:en|wc:4|cs:8886|v=4,Prithi Enterprises,https://www.indiamart.com/prithi-enterprises-chennai/?pos=140&kwd=stainless steel feeding bottle&tags=BA||||8954.051|Price|product|||NA|rsf:gd-|-stype:attr=1|qr_nm:gd|res:RC4|com-cf:nl|ptrs:na|ktp:N0|mc:217154|mtp:S|qry_typ:P|lang:en|wc:4|cs:8886|v=4,False,Pulianthope,Chennai,"No.1/5, Veera Chetti Street, Pulianthope, Chennai, Tamil Nadu, 600012, Pulianthope, Chennai - 600012, Dist.Chennai, Tamil Nadu",7942659263,
"Silver Stainless Steel Baby Feed Bottle, Age Group: 1-2 Years, Capacity: 250 Ml",https://www.indiamart.com/proddetail/stainless-steel-baby-feed-bottle-21830420697.html?pos=141&kwd=stainless steel feeding bottle&tags=BB||||8225.089|Price|product|||NA|rsf:gd-|-stype:attr=1|qr_nm:gd|res:RC4|com-cf:nl|ptrs:na|ktp:N0|mc:217154|mtp:S|qry_typ:P|lang:en|wc:4|cs:8886|v=4,Max Mall Wholesale & Retail,https://www.indiamart.com/maxmallwholesale-retail/?pos=141&kwd=stainless steel feeding bottle&tags=BB||||8225.089|Price|product|||NA|rsf:gd-|-stype:attr=1|qr_nm:gd|res:RC4|com-cf:nl|ptrs:na|ktp:N0|mc:217154|mtp:S|qry_typ:P|lang:en|wc:4|cs:8886|v=4,False,Vadgam Banaskantha,Chhapi,"Chhapi Highway Approach Road, Vadgam Banaskantha, Chhapi - 385210, Dist.Banaskantha, Gujarat",7949313924,
"White Metal Stainless Steel Baby Feeding Bottle, Capacity: 250 mL",https://www.indiamart.com/proddetail/stainless-steel-baby-feeding-bottle-2854888060573.html?pos=142&kwd=stainless steel feeding bottle&tags=BB||||8752.144|Price|product|||NA|rsf:gd-|-stype:attr=1|qr_nm:gd|res:RC4|com-cf:nl|ptrs:na|ktp:N0|mc:217154|mtp:S|qry_typ:P|lang:en|wc:4|cs:8886|v=4,V. Anshika Enterprises,https://www.indiamart.com/v-anshika-enterprises/?pos=142&kwd=stainless steel feeding bottle&tags=BB||||8752.144|Price|product|||NA|rsf:gd-|-stype:attr=1|qr_nm:gd|res:RC4|com-cf:nl|ptrs:na|ktp:N0|mc:217154|mtp:S|qry_typ:P|lang:en|wc:4|cs:8886|v=4,False,Bakhtawarpur,New Delhi,"Kh No. 120/141/1, 120/41/3 & 120/45/2 Ground Address Line 2 : Floor Extended Lal Dora Village, Bakhtawarpur, New Delhi - 110036, Dist.Delhi, Delhi",8048247089,5000
Bonne Stainless Steel Feeding Bottle,https://www.indiamart.com/proddetail/bonne-stainless-steel-feeding-bottle-26236561397.html?pos=143&kwd=stainless steel feeding bottle&tags=BA||||9045.955|Price|product|||NA|rsf:gd-|-stype:attr=1|qr_nm:gd|res:RC4|com-cf:nl|ptrs:na|ktp:N0|mc:217154|mtp:S|qry_typ:P|lang:en|wc:4|cs:8886|v=4,M/S Sadhuram Rajaram And Sons,https://www.indiamart.com/sadhuram-rajaram-sons/?pos=143&kwd=stainless steel feeding bottle&tags=BA||||9045.955|Price|product|||NA|rsf:gd-|-stype:attr=1|qr_nm:gd|res:RC4|com-cf:nl|ptrs:na|ktp:N0|mc:217154|mtp:S|qry_typ:P|lang:en|wc:4|cs:8886|v=4,False,,Kanpur,"46/10, Triloki Nath Market, Chhapra Mohal, Maniram Bagiya Kanpur Nagar, Kanpur - 208001, Uttar Pradesh",8043864569,
Stainless Steel Milk Feeding Bottle,,New Bourn Junction,https://www.indiamart.com/new-born-junction/?pos=144&kwd=stainless steel feeding bottle&tags=BA||||8984.809|Price|product|||NA|rsf:gd-|-stype:attr=1|qr_nm:gd|res:RC4|com-cf:nl|ptrs:na|ktp:N0|mc:217154|mtp:S|qry_typ:P|lang:en|wc:4|cs:8886|v=4,False,Kamania Gate Near Vijay Cutpiece,Jabalpur,"568/1 Bhaldarpura Narghaiya Road Sarafa Ward, Kamania Gate Near Vijay Cutpiece, Jabalpur - 482002, Dist.Jabalpur, Madhya Pradesh",8048371748,794
"Stainless Steel Baby Feeding Bottle, Capacity: 300ml, 1-2 Years",https://www.indiamart.com/proddetail/stainless-steel-baby-feeding-bottle-27600092033.html?pos=145&kwd=stainless steel feeding bottle&tags=BB||||8771.463|Price|product|||NA|rsf:gd-|-stype:attr=1|qr_nm:gd|res:RC4|com-cf:nl|ptrs:na|ktp:N0|mc:217154|mtp:S|qry_typ:P|lang:en|wc:4|cs:8886|v=4,Mahadev Traders,https://www.indiamart.com/mahadev-traders-mandi/?pos=145&kwd=stainless steel feeding bottle&tags=BB||||8771.463|Price|product|||NA|rsf:gd-|-stype:attr=1|qr_nm:gd|res:RC4|com-cf:nl|ptrs:na|ktp:N0|mc:217154|mtp:S|qry_typ:P|lang:en|wc:4|cs:8886|v=4,False,Sarkaghat,Mandi,"Opposite to Shiva flour mill Barchhwar, Sarkaghat, Mandi - 175024, Dist.Mandi, Himachal Pradesh",8048983317,
"Silver Baby Stainless Steel Feeding Bottle, Capacity: 250ml, Newly Born",https://www.indiamart.com/proddetail/baby-stainless-steel-feeding-bottle-27185215997.html?pos=146&kwd=stainless steel feeding bottle&tags=BB||||8778.123|Price|product|||NA|rsf:gd-|-stype:attr=1|qr_nm:gd|res:RC4|com-cf:nl|ptrs:na|ktp:N0|mc:217154|mtp:S|qry_typ:P|lang:en|wc:4|cs:8886|v=4,Smart Tech,https://www.indiamart.com/smarttech/?pos=146&kwd=stainless steel feeding bottle&tags=BB||||8778.123|Price|product|||NA|rsf:gd-|-stype:attr=1|qr_nm:gd|res:RC4|com-cf:nl|ptrs:na|ktp:N0|mc:217154|mtp:S|qry_typ:P|lang:en|wc:4|cs:8886|v=4,False,,Noida,"H.No-RC97, Bharat Nagar-1, Khora, Indrapuram, Noida - 201309, Dist.Gautam Budh Nagar, Uttar Pradesh",8047546219,
"Silver Stainless Steel Baby Feeding Bottle, Design/Pattern: Plain, Capacity: 100 mL",https://www.indiamart.com/proddetail/stainless-steel-baby-feeding-bottle-2853205312262.html?pos=147&kwd=stainless steel feeding bottle&tags=BA||||8211.142|Price|product|||NA|rsf:gd-|-stype:attr=1|qr_nm:gd|res:RC4|com-cf:nl|ptrs:na|ktp:N0|mc:217154|mtp:S|qry_typ:P|lang:en|wc:4|cs:8886|v=4,Hasti Steel,https://www.indiamart.com/hasti-steel/?pos=147&kwd=stainless steel feeding bottle&tags=BA||||8211.142|Price|product|||NA|rsf:gd-|-stype:attr=1|qr_nm:gd|res:RC4|com-cf:nl|ptrs:na|ktp:N0|mc:217154|mtp:S|qry_typ:P|lang:en|wc:4|cs:8886|v=4,False,Borivali,Mumbai,"6th Floor, C Wing-604, Tulip Building,Royal Complex, Eksar Road, Borivali West, Suburban, Borivali, Mumbai - 400091, Dist.Mumbai, Maharashtra",7942960421,
"Metal Stainless Steel Baby Feeding Bottle, Capacity: 250 mL",https://www.indiamart.com/proddetail/stainless-steel-baby-feeding-bottle-2854996871330.html?pos=148&kwd=stainless steel feeding bottle&tags=BB||||8752.144|Price|product|||NA|rsf:gd-|-stype:attr=1|qr_nm:gd|res:RC4|com-cf:nl|ptrs:na|ktp:N0|mc:217154|mtp:S|qry_typ:P|lang:en|wc:4|cs:8886|v=4,Oriental Global,https://www.indiamart.com/company/107970244/?pos=148&kwd=stainless steel feeding bottle&tags=BB||||8752.144|Price|product|||NA|rsf:gd-|-stype:attr=1|qr_nm:gd|res:RC4|com-cf:nl|ptrs:na|ktp:N0|mc:217154|mtp:S|qry_typ:P|lang:en|wc:4|cs:8886|v=4,False,,New Delhi,"1st Floor Hall, 66, Engineers Enclave, Pitampura, New Delhi - 110034, Dist.Delhi, Delhi",8048247104,3730
"Stainless Steel Baby Feeding Bottle, Capacity: 150 mL",https://www.indiamart.com/proddetail/stainless-steel-baby-feeding-bottle-2853677882688.html?pos=149&kwd=stainless steel feeding bottle&tags=BA||||8223.226|Price|product|||NA|rsf:gd-|-stype:attr=1|qr_nm:gd|res:RC4|com-cf:nl|ptrs:na|ktp:N0|mc:217154|mtp:S|qry_typ:P|lang:en|wc:4|cs:8886|v=4,Dhruv Metal,https://www.indiamart.com/dhruvmetal/?pos=149&kwd=stainless steel feeding bottle&tags=BA||||8223.226|Price|product|||NA|rsf:gd-|-stype:attr=1|qr_nm:gd|res:RC4|com-cf:nl|ptrs:na|ktp:N0|mc:217154|mtp:S|qry_typ:P|lang:en|wc:4|cs:8886|v=4,False,Bhayander East,Thane,"1st Floor, Gala 6, Mehta Ind Estate, Navghar Ghoddev Road, Shreepat Nagar, Bhayander East, Bhayander East, Thane - 401105, Dist.Thane, Maharashtra",8045168675,
Stainless Steel Baby Feeding Bottle,https://www.indiamart.com/proddetail/stainless-steel-baby-feeding-bottle-2853180406197.html?pos=150&kwd=stainless steel feeding bottle&tags=BA||||8785.791|Price|product|||NA|rsf:gd-|-stype:attr=1|qr_nm:gd|res:RC4|com-cf:nl|ptrs:na|ktp:N0|mc:217154|mtp:S|qry_typ:P|lang:en|wc:4|cs:8886|v=4,Ecom Fashion Hub,https://www.indiamart.com/ecomfashionhub/?pos=150&kwd=stainless steel feeding bottle&tags=BA||||8785.791|Price|product|||NA|rsf:gd-|-stype:attr=1|qr_nm:gd|res:RC4|com-cf:nl|ptrs:na|ktp:N0|mc:217154|mtp:S|qry_typ:P|lang:en|wc:4|cs:8886|v=4,False,Raispur,Ghaziabad,"E-42/06, Madhuban Bapudham, Sadarpur, Raispur, Ghaziabad - 201013, Dist.Ghaziabad, Uttar Pradesh",8047671986,
"Tridev Silver Salem Stainless Steel Feeding Bottle, Capacity: 150ml,200 ml And 250 ml",https://www.indiamart.com/proddetail/salem-stainless-steel-feeding-bottle-24660280812.html?pos=151&kwd=stainless steel feeding bottle&tags=BB||||8954.051||product|||NA|rsf:gd-|-stype:attr=1|qr_nm:gd|res:RC4|com-cf:nl|ptrs:na|ktp:N0|mc:217154|mtp:S|qry_typ:P|lang:en|wc:4|cs:8886|v=4,Siri Ram Agency,https://www.indiamart.com/siriramagency/?pos=151&kwd=stainless steel feeding bottle&tags=BB||||8954.051||product|||NA|rsf:gd-|-stype:attr=1|qr_nm:gd|res:RC4|com-cf:nl|ptrs:na|ktp:N0|mc:217154|mtp:S|qry_typ:P|lang:en|wc:4|cs:8886|v=4,False,,Chennai,"22, Paramasiva Chetty Street, Chennai - 600003, Dist.Chennai, Tamil Nadu",7942558376,
"Black Stainless Steel Baby Feeding Bottle, Capacity: 320ml, Newly Born",https://www.indiamart.com/proddetail/stainless-steel-baby-feeding-bottle-2850411683930.html?pos=152&kwd=stainless steel feeding bottle&tags=BB||||8915.672|Price|product|||NA|rsf:gd-|-stype:attr=1|qr_nm:gd|res:RC4|com-cf:nl|ptrs:na|ktp:N0|mc:217154|mtp:S|qry_typ:P|lang:en|wc:4|cs:8886|v=4,P I Manufacturer & Exporter,https://www.indiamart.com/pimanufacturerandexporter/?pos=152&kwd=stainless steel feeding bottle&tags=BB||||8915.672|Price|product|||NA|rsf:gd-|-stype:attr=1|qr_nm:gd|res:RC4|com-cf:nl|ptrs:na|ktp:N0|mc:217154|mtp:S|qry_typ:P|lang:en|wc:4|cs:8886|v=4,False,,Moradabad,"H No 223, Sukhanand Bhawan,Gulal Gali,Reti Street, Moradabad - 244001, Dist.Moradabad, Uttar Pradesh",7942821076,
"Glittering Silver Stainless Steel Feeding Bottle 150ml, 1-2 Years",https://www.indiamart.com/proddetail/stainless-steel-feeding-bottle-150ml-26415372591.html?pos=153&kwd=stainless steel feeding bottle&tags=BB||||8954.051|Price|product|||NA|rsf:gd-|-stype:attr=1|qr_nm:gd|res:RC4|com-cf:nl|ptrs:na|ktp:N0|mc:217154|mtp:S|qry_typ:P|lang:en|wc:4|cs:8886|v=4,M/S BISMILLAH RUBBER WORKS,https://www.indiamart.com/bismillah-rubber-works/?pos=153&kwd=stainless steel feeding bottle&tags=BB||||8954.051|Price|product|||NA|rsf:gd-|-stype:attr=1|qr_nm:gd|res:RC4|com-cf:nl|ptrs:na|ktp:N0|mc:217154|mtp:S|qry_typ:P|lang:en|wc:4|cs:8886|v=4,False,,Chennai,"NO 69,THIAGAPPA CHETTY STREET,KORRUKUPET,, Chennai - 600021, Dist.Chennai, Tamil Nadu",8048272250,
"Blue Man Stainless Steel Baby Feeding Bottle, Design/Pattern: Printed, Capacity: 300ml",https://www.indiamart.com/proddetail/stainless-steel-baby-feeding-bottle-23832240797.html?pos=154&kwd=stainless steel feeding bottle&tags=BB||||8206.45|Price|product|||NA|rsf:gd-|-stype:attr=1|qr_nm:gd|res:RC4|com-cf:nl|ptrs:na|ktp:N0|mc:217154|mtp:S|qry_typ:P|lang:en|wc:4|cs:8886|v=4,Royal Marketing,https://www.indiamart.com/royalmarketing-palghar/?pos=154&kwd=stainless steel feeding bottle&tags=BB||||8206.45|Price|product|||NA|rsf:gd-|-stype:attr=1|qr_nm:gd|res:RC4|com-cf:nl|ptrs:na|ktp:N0|mc:217154|mtp:S|qry_typ:P|lang:en|wc:4|cs:8886|v=4,False,,Palghar,"Gala No.102, 1st Floor, Anila Shinti Industrial Estate, Bldg. No-2, Block Sector, Dhumal Nagar Road, Waliv, Vasai- East, Palghar - 401208, Dist.Thane, Maharashtra",8047800230,
Stainless Steel Baby Feeding Bottle,https://www.indiamart.com/proddetail/stainless-steel-baby-feeding-bottle-2853708259388.html?pos=155&kwd=stainless steel feeding bottle&tags=BA||||8786.56|Price|product|||NA|rsf:gd-|-stype:attr=1|qr_nm:gd|res:RC4|com-cf:nl|ptrs:na|ktp:N0|mc:217154|mtp:S|qry_typ:P|lang:en|wc:4|cs:8886|v=4,Laxmi Agencies,https://www.indiamart.com/laxmiagencies-telangana/?pos=155&kwd=stainless steel feeding bottle&tags=BA||||8786.56|Price|product|||NA|rsf:gd-|-stype:attr=1|qr_nm:gd|res:RC4|com-cf:nl|ptrs:na|ktp:N0|mc:217154|mtp:S|qry_typ:P|lang:en|wc:4|cs:8886|v=4,False,,Hyderabad,"14-3-297/1 Goshamahal Kamalgunj, Hyderabad - 500012, Dist.Hyderabad, Telangana",8045166120,
"Stainless Steel Baby Feeding Bottle, Capacity: 150 mL",,Shree Gulab Sons & Co.,https://www.indiamart.com/shree-gulab-sons-co-mumbai/?pos=156&kwd=stainless steel feeding bottle&tags=BB||||8211.142|Price|product|||NA|rsf:gd-|-stype:attr=1|qr_nm:gd|res:RC4|com-cf:nl|ptrs:na|ktp:N0|mc:217154|mtp:S|qry_typ:P|lang:en|wc:4|cs:8886|v=4,False,,Mumbai,"2nd Floor Shop No.224 Range Office Waliv Road Doms Complex, Vasai East, Mumbai - 401208, Dist.Mumbai, Maharashtra",8062245038,795
Stainless steel baby feeding bottle,https://www.indiamart.com/proddetail/stainless-steel-baby-feeding-bottle-21950795530.html?pos=157&kwd=stainless steel feeding bottle&tags=BA||||8752.144|Price|product|||NA|rsf:gd-|-stype:attr=1|qr_nm:gd|res:RC4|com-cf:nl|ptrs:na|ktp:N0|mc:217154|mtp:S|qry_typ:P|lang:en|wc:4|cs:8886|v=4,Jain Traders,https://www.indiamart.com/jain-tradersindia/?pos=157&kwd=stainless steel feeding bottle&tags=BA||||8752.144|Price|product|||NA|rsf:gd-|-stype:attr=1|qr_nm:gd|res:RC4|com-cf:nl|ptrs:na|ktp:N0|mc:217154|mtp:S|qry_typ:P|lang:en|wc:4|cs:8886|v=4,False,,New Delhi,"26/4782, Deputy Ganj, Sadar Bazar, New Delhi - 110006, Dist.Delhi, Delhi",8047640499,
"Stainless Steel Feeding Bottle SFB-534, Capacity: 240ml",https://www.indiamart.com/proddetail/stainless-steel-feeding-bottle-sfb-534-22481687997.html?pos=158&kwd=stainless steel feeding bottle&tags=BB||||8211.142|Price|product|||NA|rsf:gd-|-stype:attr=1|qr_nm:gd|res:RC4|com-cf:nl|ptrs:na|ktp:N0|mc:217154|mtp:S|qry_typ:P|lang:en|wc:4|cs:8886|v=4,Sizzle Creation,https://www.indiamart.com/sizzlecreation-mumbai/?pos=158&kwd=stainless steel feeding bottle&tags=BB||||8211.142|Price|product|||NA|rsf:gd-|-stype:attr=1|qr_nm:gd|res:RC4|com-cf:nl|ptrs:na|ktp:N0|mc:217154|mtp:S|qry_typ:P|lang:en|wc:4|cs:8886|v=4,False,,Mumbai,"Mulund West, Mumbai - 400080, Dist.Mumbai, Maharashtra",8046054174,
"240ml Stainless Steel Feeding Bottle, Baby",https://www.indiamart.com/proddetail/240ml-stainless-steel-feeding-bottle-2853639069430.html?pos=159&kwd=stainless steel feeding bottle&tags=BA||||8752.144|Price|product|||NA|rsf:gd-|-stype:attr=1|qr_nm:gd|res:RC4|com-cf:nl|ptrs:na|ktp:N0|mc:217154|mtp:S|qry_typ:P|lang:en|wc:4|cs:8886|v=4,Badal Trading Enterprises,https://www.indiamart.com/badaltradingenterprises/?pos=159&kwd=stainless steel feeding bottle&tags=BA||||8752.144|Price|product|||NA|rsf:gd-|-stype:attr=1|qr_nm:gd|res:RC4|com-cf:nl|ptrs:na|ktp:N0|mc:217154|mtp:S|qry_typ:P|lang:en|wc:4|cs:8886|v=4,False,Tilak Nagar,New Delhi,"Ground Floor, Shop At 16/32, Prakash Shopping Complex, Tilak Nagar, West, Tilak Nagar, New Delhi - 110018, Dist.Delhi, Delhi",7949095301,
"Secular Stainless Steel Feeding Bottle 200ml, Design/Pattern: Silver, Newly Born",https://www.indiamart.com/proddetail/secular-stainless-steel-feeding-bottle-200ml-25680125130.html?pos=160&kwd=stainless steel feeding bottle&tags=BB||||8584.299|Price|product|||NA|rsf:gd-|-stype:attr=1|qr_nm:gd|res:RC4|com-cf:nl|ptrs:na|ktp:N0|mc:217154|mtp:S|qry_typ:P|lang:en|wc:4|cs:8886|v=4,Secular Organic,https://www.indiamart.com/secularorganic/?pos=160&kwd=stainless steel feeding bottle&tags=BB||||8584.299|Price|product|||NA|rsf:gd-|-stype:attr=1|qr_nm:gd|res:RC4|com-cf:nl|ptrs:na|ktp:N0|mc:217154|mtp:S|qry_typ:P|lang:en|wc:4|cs:8886|v=4,False,,Coimbatore,"Door No.128/1-2, Race Course Road, 1-67-207, 1st Floor Trishul Towers, Ward No.26, Race Course, Coimbatore - 641018, Dist.Coimbatore, Tamil Nadu",8047622044,
"Orange(Base) Baby Orange Stainless Steel Insulated Feeding Bottle, Capacity: 250ml, 1 To 3 Year",https://www.indiamart.com/proddetail/baby-orange-stainless-steel-insulated-feeding-bottle-25906467912.html?pos=161&kwd=stainless steel feeding bottle&tags=BB||||8663.873|Price|product|||NA|rsf:gd-|-stype:attr=1|qr_nm:gd|res:RC4|com-cf:nl|ptrs:na|ktp:N0|mc:217154|mtp:S|qry_typ:P|lang:en|wc:4|cs:8886|v=4,Cryba Bottles Private Limited,https://www.indiamart.com/crybabottles/?pos=161&kwd=stainless steel feeding bottle&tags=BB||||8663.873|Price|product|||NA|rsf:gd-|-stype:attr=1|qr_nm:gd|res:RC4|com-cf:nl|ptrs:na|ktp:N0|mc:217154|mtp:S|qry_typ:P|lang:en|wc:4|cs:8886|v=4,False,,Bengaluru,"No 42, S N Layout, Tata Nagar, Bengaluru - 560092, Dist.Bengaluru, Karnataka",8043864940,
"Silver Jony Kidee Stainless Steel Feeding Bottle, Capacity: 500 mL, Newly Born",https://www.indiamart.com/proddetail/jony-kidee-stainless-steel-feeding-bottle-2853236753391.html?pos=162&kwd=stainless steel feeding bottle&tags=BA||||8786.56|Price|product|||NA|rsf:gd-|-stype:attr=1|qr_nm:gd|res:RC4|com-cf:nl|ptrs:na|ktp:N0|mc:217154|mtp:S|qry_typ:P|lang:en|wc:4|cs:8886|v=4,Parmar Crockery,https://www.indiamart.com/parmarcrockery/?pos=162&kwd=stainless steel feeding bottle&tags=BA||||8786.56|Price|product|||NA|rsf:gd-|-stype:attr=1|qr_nm:gd|res:RC4|com-cf:nl|ptrs:na|ktp:N0|mc:217154|mtp:S|qry_typ:P|lang:en|wc:4|cs:8886|v=4,False,Feelkhana,Hyderabad,"15-8-496 To 498/1 & 2,S.V Complex,Feelkhana,Hyderabad, Feelkhana, Hyderabad - 500012, Dist.Hyderabad, Telangana",7948549781,
"1 L Stainless Steel Feeding Bottle, Screw Cap",https://www.indiamart.com/proddetail/1-l-stainless-steel-feeding-bottle-22064557497.html?pos=163&kwd=stainless steel feeding bottle&tags=BA||||8210.732|Price|product|||NA|rsf:gd-|-stype:attr=1|qr_nm:gd|res:RC4|com-cf:nl|ptrs:na|ktp:N0|mc:217154|mtp:S|qry_typ:P|lang:en|wc:4|cs:8886|v=4,Vijay Raj Steel,https://www.indiamart.com/vijay-raj-steel-vasai/?pos=163&kwd=stainless steel feeding bottle&tags=BA||||8210.732|Price|product|||NA|rsf:gd-|-stype:attr=1|qr_nm:gd|res:RC4|com-cf:nl|ptrs:na|ktp:N0|mc:217154|mtp:S|qry_typ:P|lang:en|wc:4|cs:8886|v=4,False,,Vasai,"Shakti Industrial Estate, Opposite K. T. Industrial Esate Gala No. 26, Fanaspada Vasai East Palghar, Vasai - 401208, Dist.Thane, Maharashtra",7949354746,
"Silver 100ml Stainless Steel Baby Feeding Bottle, 1-2 Years",https://www.indiamart.com/proddetail/100ml-stainless-steel-baby-feeding-bottle-2852944439330.html?pos=164&kwd=stainless steel feeding bottle&tags=BA||||8585.341||product|||NA|rsf:gd-|-stype:attr=1|qr_nm:gd|res:RC4|com-cf:nl|ptrs:na|ktp:N0|mc:217154|mtp:S|qry_typ:P|lang:en|wc:4|cs:8886|v=4,S.R. Steel,https://www.indiamart.com/sr-steel/?pos=164&kwd=stainless steel feeding bottle&tags=BA||||8585.341||product|||NA|rsf:gd-|-stype:attr=1|qr_nm:gd|res:RC4|com-cf:nl|ptrs:na|ktp:N0|mc:217154|mtp:S|qry_typ:P|lang:en|wc:4|cs:8886|v=4,False,Sardulgarh,Sardulgarh,"Chhange Di Chakki De Bekside, Khaira Road, Mansa, Sardulgarh, Sardulgarh - 151507, Dist.Mansa, Punjab",7942969032,
"Silver 240ml Stainless Steel Baby Feeding Bottle, Design/Pattern: Plain, 3 Months",https://www.indiamart.com/proddetail/240ml-stainless-steel-baby-feeding-bottle-26374732791.html?pos=165&kwd=stainless steel feeding bottle&tags=BB||||8752.144|Price|product|||NA|rsf:gd-|-stype:attr=1|qr_nm:gd|res:RC4|com-cf:nl|ptrs:na|ktp:N0|mc:217154|mtp:S|qry_typ:P|lang:en|wc:4|cs:8886|v=4,Hopshoptop E-Commerce (OPC) Private Limited,https://www.indiamart.com/hopshoptop-e-commerce/?pos=165&kwd=stainless steel feeding bottle&tags=BB||||8752.144|Price|product|||NA|rsf:gd-|-stype:attr=1|qr_nm:gd|res:RC4|com-cf:nl|ptrs:na|ktp:N0|mc:217154|mtp:S|qry_typ:P|lang:en|wc:4|cs:8886|v=4,False,,New Delhi,"H. No 64, Bank Vihar, Pitampura, North West Delhi, New Delhi - 110034, Dist.Delhi, Delhi",8047681265,
"White Metal Stainless Steel Baby Feeding Bottle 280ml, Capacity: 250 mL",https://www.indiamart.com/proddetail/stainless-steel-baby-feeding-bottle-280ml-2853698901697.html?pos=166&kwd=stainless steel feeding bottle&tags=BA||||8230.883|Price|product|||NA|rsf:gd-|-stype:attr=1|qr_nm:gd|res:RC4|com-cf:nl|ptrs:na|ktp:N0|mc:217154|mtp:S|qry_typ:P|lang:en|wc:4|cs:8886|v=4,Pooja Enterprise,https://www.indiamart.com/poojaenterprise-159125404/?pos=166&kwd=stainless steel feeding bottle&tags=BA||||8230.883|Price|product|||NA|rsf:gd-|-stype:attr=1|qr_nm:gd|res:RC4|com-cf:nl|ptrs:na|ktp:N0|mc:217154|mtp:S|qry_typ:P|lang:en|wc:4|cs:8886|v=4,False,,Surat,"G4, Achkan Bazaar Baroda Prestige, Varachha, Surat, Surat - 395006, Dist.Surat, Gujarat",8041011891,
"Silver Avias Rio Stainless Steel Feeding Bottle, Capacity: 250 mL, Newly Born",https://www.indiamart.com/proddetail/avias-rio-stainless-steel-feeding-bottle-2852753486948.html?pos=167&kwd=stainless steel feeding bottle&tags=BA||||9839.57|Price|product|||NA|rsf:gd-|-stype:attr=1|qr_nm:gd|res:RC4|com-cf:nl|ptrs:na|ktp:N0|mc:217154|mtp:S|qry_typ:P|lang:en|wc:4|cs:8886|v=4,Jatanlal Abhayraj,https://www.indiamart.com/jatanlalabhayraj/?pos=167&kwd=stainless steel feeding bottle&tags=BA||||9839.57|Price|product|||NA|rsf:gd-|-stype:attr=1|qr_nm:gd|res:RC4|com-cf:nl|ptrs:na|ktp:N0|mc:217154|mtp:S|qry_typ:P|lang:en|wc:4|cs:8886|v=4,False,,Kolkata,"Ground Floor, 105, Old China Bazar Street, Kolkata - 700001, Dist.Kolkata, West Bengal",7942718660,
"SILVER Stainless Steel Feeding Bottle 220 ML, Design/Pattern: Plain, Newly Born",https://www.indiamart.com/proddetail/stainless-steel-feeding-bottle-220-ml-21886013873.html?pos=168&kwd=stainless steel feeding bottle&tags=BB||||8584.299|Price|product|||NA|rsf:gd-|-stype:attr=1|qr_nm:gd|res:RC4|com-cf:nl|ptrs:na|ktp:N0|mc:217154|mtp:S|qry_typ:P|lang:en|wc:4|cs:8886|v=4,Barani And Co,https://www.indiamart.com/baraniandco/?pos=168&kwd=stainless steel feeding bottle&tags=BB||||8584.299|Price|product|||NA|rsf:gd-|-stype:attr=1|qr_nm:gd|res:RC4|com-cf:nl|ptrs:na|ktp:N0|mc:217154|mtp:S|qry_typ:P|lang:en|wc:4|cs:8886|v=4,False,P.N.Pudur,Coimbatore,"No. 3, Thiyagi Kumaran Street Valampuri Complex, Thiyagi Kumaran St, P.N.Pudur, Coimbatore - 641041, Dist.Coimbatore, Tamil Nadu",8047670944,
"Meemee Transparent Stainless steel feeding bottles, 3-12 Months, Size: 120ml.240 ml",https://www.indiamart.com/proddetail/stainless-steel-feeding-bottles-2850217072512.html?pos=169&kwd=stainless steel feeding bottle&tags=BA||||8725.564|Price|product|||NA|rsf:gd-|-stype:attr=1|qr_nm:gd|res:RC4|com-cf:nl|ptrs:na|ktp:N0|mc:217154|mtp:S|qry_typ:P|lang:en|wc:4|cs:8886|v=4,Vishuddh Drug And Surgicals,https://www.indiamart.com/vishuddh-traders/?pos=169&kwd=stainless steel feeding bottle&tags=BA||||8725.564|Price|product|||NA|rsf:gd-|-stype:attr=1|qr_nm:gd|res:RC4|com-cf:nl|ptrs:na|ktp:N0|mc:217154|mtp:S|qry_typ:P|lang:en|wc:4|cs:8886|v=4,False,,Guna,"Near Nagar Palika 01 Vidisha Road Ashoknagar, Guna - 473331, Dist.Guna, Madhya Pradesh",8048371743,363
"Steel X Steel Feeding Bottle, Design/Pattern: Cute, Capacity: 250 ml",https://www.indiamart.com/proddetail/steel-x-steel-feeding-bottle-2849278599773.html?pos=170&kwd=stainless steel feeding bottle&tags=BB||||8601.347|Price|product|||NA|rsf:gd-|-stype:attr=1|qr_nm:gd|res:RC4|com-cf:nl|ptrs:na|ktp:N0|mc:217154|mtp:S|qry_typ:P|lang:en|wc:4|cs:8886|v=4,Mahesh Traders,https://www.indiamart.com/mahesh-traderjaipur/?pos=170&kwd=stainless steel feeding bottle&tags=BB||||8601.347|Price|product|||NA|rsf:gd-|-stype:attr=1|qr_nm:gd|res:RC4|com-cf:nl|ptrs:na|ktp:N0|mc:217154|mtp:S|qry_typ:P|lang:en|wc:4|cs:8886|v=4,False,Ramganj Bazar,Jaipur,"Ramganj Bazar, Ramganj Bazar, Jaipur - 302007, Dist.Jaipur, Rajasthan",8048361377,457
"Maxmi4U Premium 304 Grade Stainless Steel Feeding Bottle, Newly Born, Size: 220 Ml And 300 Ml",https://www.indiamart.com/proddetail/maxmi4u-premium-304-grade-stainless-steel-feeding-bottle-23718876988.html?pos=171&kwd=stainless steel feeding bottle&tags=BB||||8786.56|Price|product|||NA|rsf:gd-|-stype:attr=1|qr_nm:gd|res:RC4|com-cf:nl|ptrs:na|ktp:N0|mc:217154|mtp:S|qry_typ:P|lang:en|wc:4|cs:8886|v=4,Maxon,https://www.indiamart.com/maxon-hyderabad/?pos=171&kwd=stainless steel feeding bottle&tags=BB||||8786.56|Price|product|||NA|rsf:gd-|-stype:attr=1|qr_nm:gd|res:RC4|com-cf:nl|ptrs:na|ktp:N0|mc:217154|mtp:S|qry_typ:P|lang:en|wc:4|cs:8886|v=4,False,Sanath Nagar,Hyderabad,"7-2-124/1, Ashok Colony, Pooja Residency, Sanath Nagar, Ranga Reddy, Sanath Nagar, Hyderabad - 500018, Dist.Hyderabad, Telangana",8047692086,
Born Babies Stainless Steel Feeding Bottle Set,https://www.indiamart.com/proddetail/born-babies-stainless-steel-feeding-bottle-set-2850111067433.html?pos=172&kwd=stainless steel feeding bottle&tags=BB||||8584.299|Price|product|||NA|rsf:gd-|-stype:attr=1|qr_nm:gd|res:RC4|com-cf:nl|ptrs:na|ktp:N0|mc:217154|mtp:S|qry_typ:P|lang:en|wc:4|cs:8886|v=4,Born Babies India Private Limited,https://www.indiamart.com/bornbabies-coimbatore/?pos=172&kwd=stainless steel feeding bottle&tags=BB||||8584.299|Price|product|||NA|rsf:gd-|-stype:attr=1|qr_nm:gd|res:RC4|com-cf:nl|ptrs:na|ktp:N0|mc:217154|mtp:S|qry_typ:P|lang:en|wc:4|cs:8886|v=4,False,Ram Nagar,Coimbatore,"NO-69/2, Thiruvenkatasamy Road, R S Puram, Ram Nagar, Coimbatore - 641002, Dist.Coimbatore, Tamil Nadu",7942788170,
Baby Stainless Steel Feeding Bottle Wide Neck,,A.J.Traders,https://www.indiamart.com/ajtraderspunjab/?pos=173&kwd=stainless steel feeding bottle&tags=BA||||8580.032|Price|product|||NA|rsf:gd-|-stype:attr=1|qr_nm:gd|res:RC4|com-cf:nl|ptrs:na|ktp:N0|mc:217154|mtp:S|qry_typ:P|lang:en|wc:4|cs:8886|v=4,False,Guru Amar Dass Nagar,Amritsar,"137, Krishna Nagar, Tarn Taran Road, Guru Amar Dass Nagar, Amritsar - 143001, Dist.Amritsar, Punjab",7942551590,
"Stainless Steel 2 In 1 Feeding Bottle, Capacity: 290ml, Newly Born",https://www.indiamart.com/proddetail/stainless-steel-2-in-1-feeding-bottle-24312663088.html?pos=174&kwd=stainless steel feeding bottle&tags=BB||||8752.144|Price|product|||NA|rsf:gd-|-stype:attr=1|qr_nm:gd|res:RC4|com-cf:nl|ptrs:na|ktp:N0|mc:217154|mtp:S|qry_typ:P|lang:en|wc:4|cs:8886|v=4,NG Kitchenware,https://www.indiamart.com/ng-kitchenware/?pos=174&kwd=stainless steel feeding bottle&tags=BB||||8752.144|Price|product|||NA|rsf:gd-|-stype:attr=1|qr_nm:gd|res:RC4|com-cf:nl|ptrs:na|ktp:N0|mc:217154|mtp:S|qry_typ:P|lang:en|wc:4|cs:8886|v=4,False,,New Delhi,"20/2, Yusuf Sarai, New Delhi - 110016, Dist.Delhi, Delhi",8046044082,
Baby Feeding Steel Bottle,,Bala Ji Enterprises,https://www.indiamart.com/company/23814936/?pos=175&kwd=stainless steel feeding bottle&tags=BA||||8624.416|Price|product|||NA|rsf:gd-|-stype:attr=1|qr_nm:gd|res:RC4|com-cf:nl|ptrs:na|ktp:N0|mc:217154|mtp:S|qry_typ:P|lang:en|wc:4|cs:8886|v=4,False,,Hisar,"310 Unnamed Road, Hisar - 125001, Dist.Hisar, Haryana",8045849099,4539
"Blue Luvlap Steel Feeding Bottle, 3-12 Months",https://www.indiamart.com/proddetail/luvlap-steel-feeding-bottle-2852115280733.html?pos=176&kwd=stainless steel feeding bottle&tags=BA||||9644.414|Price|product|||NA|rsf:gd-|-stype:attr=1|qr_nm:gd|res:RC4|com-cf:nl|ptrs:na|ktp:N0|mc:217154|mtp:S|qry_typ:P|lang:en|wc:4|cs:8886|v=4,Kanhaiya Enterprises,https://www.indiamart.com/kanhaiya-enterprises-dhanbad/?pos=176&kwd=stainless steel feeding bottle&tags=BA||||9644.414|Price|product|||NA|rsf:gd-|-stype:attr=1|qr_nm:gd|res:RC4|com-cf:nl|ptrs:na|ktp:N0|mc:217154|mtp:S|qry_typ:P|lang:en|wc:4|cs:8886|v=4,False,,Dhanbad,"Ratanji Road, Purana Bazar, Dhanbad - 826001, Dist.Dhanbad, Jharkhand",8046043892,
"Stainless Steel Baby Feeding Bottles, Age Group: 3-12 Months, Capacity: 150ml To 300 Ml",https://www.indiamart.com/proddetail/stainless-steel-baby-feeding-bottles-23245628391.html?pos=177&kwd=stainless steel feeding bottle&tags=BB||||8228.275|Price|product|||NA|rsf:gd-|-stype:attr=1|qr_nm:gd|res:RC4|com-cf:nl|ptrs:na|ktp:N0|mc:217154|mtp:S|qry_typ:P|lang:en|wc:4|cs:8886|v=4,Kavya Sales,https://www.indiamart.com/kavya-sales-ahmedabad/?pos=177&kwd=stainless steel feeding bottle&tags=BB||||8228.275|Price|product|||NA|rsf:gd-|-stype:attr=1|qr_nm:gd|res:RC4|com-cf:nl|ptrs:na|ktp:N0|mc:217154|mtp:S|qry_typ:P|lang:en|wc:4|cs:8886|v=4,False,Rakhial,Ahmedabad,"253,BALABHAI CHAGANBHAI NI CHALI,B/H RAIPUR MILS, RAKHIYAL ROAD,AHMEDABAD 253/balabhai chaganlal chowl nr raipur mill,380018,Ahmedabad, Rakhial, Ahmedabad - 380021, Dist.Ahmedabad, Gujarat",8043837082,
"Multicolor Stainless Steel Baby Feeding Bottles, 3-12 Months, Size: Standard",https://www.indiamart.com/proddetail/stainless-steel-baby-feeding-bottles-21957279197.html?pos=178&kwd=stainless steel feeding bottle&tags=BB||||8752.144|Price|product|||NA|rsf:gd-|-stype:attr=1|qr_nm:gd|res:RC4|com-cf:nl|ptrs:na|ktp:N0|mc:217154|mtp:S|qry_typ:P|lang:en|wc:4|cs:8886|v=4,Rajah Trading Co,https://www.indiamart.com/rajahtradingco/?pos=178&kwd=stainless steel feeding bottle&tags=BB||||8752.144|Price|product|||NA|rsf:gd-|-stype:attr=1|qr_nm:gd|res:RC4|com-cf:nl|ptrs:na|ktp:N0|mc:217154|mtp:S|qry_typ:P|lang:en|wc:4|cs:8886|v=4,False,,New Delhi,"5237, Ground Floor, Gandhi Market,rui Mandi,near Sardar Tea Stall, Sadar Bazar, New Delhi - 110006, Dist.Delhi, Delhi",7942557744,
Stainless Steel Baby Feeding Bottles,https://www.indiamart.com/proddetail/stainless-steel-baby-feeding-bottles-21126848997.html?pos=179&kwd=stainless steel feeding bottle&tags=BB||||8211.142|Price|product|||NA|rsf:gd-|-stype:attr=1|qr_nm:gd|res:RC4|com-cf:nl|ptrs:na|ktp:N0|mc:217154|mtp:S|qry_typ:P|lang:en|wc:4|cs:8886|v=4,B.S.Industries,https://www.indiamart.com/bsindustriesmaharashtra/?pos=179&kwd=stainless steel feeding bottle&tags=BB||||8211.142|Price|product|||NA|rsf:gd-|-stype:attr=1|qr_nm:gd|res:RC4|com-cf:nl|ptrs:na|ktp:N0|mc:217154|mtp:S|qry_typ:P|lang:en|wc:4|cs:8886|v=4,False,Bhayandar East,Mumbai,"No. 108, Rolex Building, B. P. X Road, Bhayandar East, Mumbai - 401105, Dist.Mumbai, Maharashtra",8047627835,
Stainless Steel Baby Feeder Bottle,,Saintiphic Solushuns,https://www.indiamart.com/saintiphic-solushuns/?pos=180&kwd=stainless steel feeding bottle&tags=BB||||8788.382|Price|product|||NA|rsf:gd-|-stype:attr=1|qr_nm:gd|res:RC4|com-cf:nl|ptrs:na|ktp:N0|mc:217154|mtp:S|qry_typ:P|lang:en|wc:4|cs:8886|v=4,False,Rajnagar Extension,Greater Noida,"D-204, 2nd Floor, Kw Srishti, Meerut By Pass Road Nh-58, Rajnagar Extension, Greater Noida - 201017, Dist.Gautam Budh Nagar, Uttar Pradesh",8048371598,918
Mee Mee Steel Feeding Bottle,,JMD Traders,https://www.indiamart.com/jmdtraders-148998611/?pos=181&kwd=stainless steel feeding bottle&tags=BA||||8752.144|Price|product|||NA|rsf:gd-|-stype:attr=1|qr_nm:gd|res:RC4|com-cf:nl|ptrs:na|ktp:N0|mc:217154|mtp:S|qry_typ:P|lang:en|wc:4|cs:8886|v=4,False,,New Delhi,"356, G/F, S/O Mr. Mahender, Sarita Vihar, Aali Village, South East Delhi, New Delhi - 110044, Dist.Delhi, Delhi",8045169636,
"Stainless Steel feeder 304 grade with silicon cover, 2 mm",https://www.indiamart.com/proddetail/stainless-steel-feeder-304-grade-with-silicon-cover-2854672676830.html?pos=182&kwd=stainless steel feeding bottle&tags=BA||||9110.092|Price|product|||NA|rsf:gd-|-stype:attr=1|qr_nm:gd|res:RC4|com-cf:nl|ptrs:na|ktp:N0|mc:217154|mtp:S|qry_typ:P|lang:en|wc:4|cs:8886|v=4,Newborn,https://www.indiamart.com/newborn/?pos=182&kwd=stainless steel feeding bottle&tags=BA||||9110.092|Price|product|||NA|rsf:gd-|-stype:attr=1|qr_nm:gd|res:RC4|com-cf:nl|ptrs:na|ktp:N0|mc:217154|mtp:S|qry_typ:P|lang:en|wc:4|cs:8886|v=4,False,lucknow,Lucknow,"226/20 Nai Basti bhadwwan aishbagh, lucknow, Lucknow - 226004, Dist.Lucknow, Uttar Pradesh",8043830778,
Mee Mee Steel Feeding Bottle,https://www.indiamart.com/proddetail/mee-mee-steel-feeding-bottle-2853364940962.html?pos=183&kwd=stainless steel feeding bottle&tags=BA||||8954.051|Price|product|||NA|rsf:gd-|-stype:attr=1|qr_nm:gd|res:RC4|com-cf:nl|ptrs:na|ktp:N0|mc:217154|mtp:S|qry_typ:P|lang:en|wc:4|cs:8886|v=4,K Enterprises,https://www.indiamart.com/k-enterpriseschennai/?pos=183&kwd=stainless steel feeding bottle&tags=BA||||8954.051|Price|product|||NA|rsf:gd-|-stype:attr=1|qr_nm:gd|res:RC4|com-cf:nl|ptrs:na|ktp:N0|mc:217154|mtp:S|qry_typ:P|lang:en|wc:4|cs:8886|v=4,False,,Chennai,"New No 42,Old No 65,Gandhi Street,West Mambalam,Chennai,Chennai, Chennai - 600033, Dist.Chennai, Tamil Nadu",7942638362,
"Metal Guggi Stainless Steel Feeding Bottle-150 ml, Design/Pattern: Plain, 3-12 Months",https://www.indiamart.com/proddetail/guggi-stainless-steel-feeding-bottle-150-ml-25364716788.html?pos=184&kwd=stainless steel feeding bottle&tags=BA||||8921.206|Price|product|||NA|rsf:gd-|-stype:attr=1|qr_nm:gd|res:RC4|com-cf:nl|ptrs:na|ktp:N0|mc:217154|mtp:S|qry_typ:P|lang:en|wc:4|cs:8886|v=4,JP Enterprises,https://www.indiamart.com/jp-enterprises-chengalpattu/?pos=184&kwd=stainless steel feeding bottle&tags=BA||||8921.206|Price|product|||NA|rsf:gd-|-stype:attr=1|qr_nm:gd|res:RC4|com-cf:nl|ptrs:na|ktp:N0|mc:217154|mtp:S|qry_typ:P|lang:en|wc:4|cs:8886|v=4,False,Melkalvoy,Chengalpattu,"Karpagambal Nagar, Melkalvoy, Chengalpattu - 603108, Dist.Kanchipuram, Tamil Nadu",8048250413,968
"Metal stainless steel double-wall baby feeding boottle, Capacity: 150 mL",https://www.indiamart.com/proddetail/stainless-steel-double-wall-baby-feeding-boottle-2853744837991.html?pos=185&kwd=stainless steel feeding bottle&tags=BA||||8230.883|Price|product|||NA|rsf:gd-|-stype:attr=1|qr_nm:gd|res:RC4|com-cf:nl|ptrs:na|ktp:N0|mc:217154|mtp:S|qry_typ:P|lang:en|wc:4|cs:8886|v=4,Shree Lakshmi Ventures,https://www.indiamart.com/shree-lakshmi-ventures/?pos=185&kwd=stainless steel feeding bottle&tags=BA||||8230.883|Price|product|||NA|rsf:gd-|-stype:attr=1|qr_nm:gd|res:RC4|com-cf:nl|ptrs:na|ktp:N0|mc:217154|mtp:S|qry_typ:P|lang:en|wc:4|cs:8886|v=4,False,surat,Surat,"sanki gam kadodara, surat, Surat - 394305, Dist.Surat, Gujarat",8047308899,2226
"Plastic 240ml Stainless Steel Baby Milk Bottle, Capacity: 150 mL",https://www.indiamart.com/proddetail/240ml-stainless-steel-baby-milk-bottle-2853912728062.html?pos=186&kwd=stainless steel feeding bottle&tags=BA||||8785.791|Price|product|||NA|rsf:gd-|-stype:attr=1|qr_nm:gd|res:RC4|com-cf:nl|ptrs:na|ktp:N0|mc:217154|mtp:S|qry_typ:P|lang:en|wc:4|cs:8886|v=4,Million Minds Traders,https://www.indiamart.com/million-minds-traders/?pos=186&kwd=stainless steel feeding bottle&tags=BA||||8785.791|Price|product|||NA|rsf:gd-|-stype:attr=1|qr_nm:gd|res:RC4|com-cf:nl|ptrs:na|ktp:N0|mc:217154|mtp:S|qry_typ:P|lang:en|wc:4|cs:8886|v=4,False,Indirapuram,Ghaziabad,"Basement, Khasra No-1042/2A, Indirapuram, Indirapuram, Ghaziabad - 201014, Dist.Ghaziabad, Uttar Pradesh",8044563092,
Baby Feeding Bottles 316 Stainless Surgical Steel,https://www.indiamart.com/proddetail/baby-feeding-bottles-316-stainless-surgical-steel-25391110973.html?pos=187&kwd=stainless steel feeding bottle&tags=BB||||8211.142||product|||NA|rsf:gd-|-stype:attr=1|qr_nm:gd|res:RC4|com-cf:nl|ptrs:na|ktp:N0|mc:217154|mtp:S|qry_typ:P|lang:en|wc:4|cs:8886|v=4,New India Work,https://www.indiamart.com/newindiaworks/?pos=187&kwd=stainless steel feeding bottle&tags=BB||||8211.142||product|||NA|rsf:gd-|-stype:attr=1|qr_nm:gd|res:RC4|com-cf:nl|ptrs:na|ktp:N0|mc:217154|mtp:S|qry_typ:P|lang:en|wc:4|cs:8886|v=4,False,Malad West,Mumbai,"A- 2, Dronagiri, Modern Usha Colony, Evershine Nagar, Link Road, Malad West, Mumbai - 400064, Dist.Mumbai, Maharashtra",8047628809,
Stainless Steel Baby Feeding Milk Bottle for New Born Baby: 250ml,https://www.indiamart.com/proddetail/stainless-steel-baby-feeding-milk-bottle-for-new-born-baby-250ml-2851560834030.html?pos=188&kwd=stainless steel feeding bottle&tags=BA||||8230.883|Price|product|||NA|rsf:gd-|-stype:attr=1|qr_nm:gd|res:RC4|com-cf:nl|ptrs:na|ktp:N0|mc:217154|mtp:S|qry_typ:P|lang:en|wc:4|cs:8886|v=4,Diya Mart,https://www.indiamart.com/vardhmansales-gujarat/?pos=188&kwd=stainless steel feeding bottle&tags=BA||||8230.883|Price|product|||NA|rsf:gd-|-stype:attr=1|qr_nm:gd|res:RC4|com-cf:nl|ptrs:na|ktp:N0|mc:217154|mtp:S|qry_typ:P|lang:en|wc:4|cs:8886|v=4,False,5V92+CC Surat Gujarat,Surat,"Shop No.1, And 3, Hiranand Complex, Road No, Udhna Rly Station, Udhna, 5V92+CC Surat Gujarat, Surat - 394210, Dist.Surat, Gujarat",8047685321,
Moms Lap Stanless Steel Feeding Bottle 300ml,,Shree Sushila Sons & Co,https://www.indiamart.com/saurabh-trading/?pos=189&kwd=stainless steel feeding bottle&tags=BA||||8210.732|Price|product|||NA|rsf:gd-|-stype:attr=1|qr_nm:gd|res:RC4|com-cf:nl|ptrs:na|ktp:N0|mc:217154|mtp:S|qry_typ:P|lang:en|wc:4|cs:8886|v=4,False,hdfc bank,Vasai Virar,"office address -224 2nd floor Doms complex opp platinum hospital renge office, hdfc bank, Vasai Virar - 401209, Dist.Thane, Maharashtra",8069707389,984
Stainless Steel Baby Feeding Bottle for Milk and Drinks with Silicone Nipple,https://www.indiamart.com/proddetail/stainless-steel-baby-feeding-bottle-for-milk-and-drinks-with-silicone-nipple-27134518630.html?pos=190&kwd=stainless steel feeding bottle&tags=BB||||8785.791|Price|product|||NA|rsf:gd-|-stype:attr=1|qr_nm:gd|res:RC4|com-cf:nl|ptrs:na|ktp:N0|mc:217154|mtp:S|qry_typ:P|lang:en|wc:4|cs:8886|v=4,Krishna Sales,https://www.indiamart.com/krishnasalesghaziabad/?pos=190&kwd=stainless steel feeding bottle&tags=BB||||8785.791|Price|product|||NA|rsf:gd-|-stype:attr=1|qr_nm:gd|res:RC4|com-cf:nl|ptrs:na|ktp:N0|mc:217154|mtp:S|qry_typ:P|lang:en|wc:4|cs:8886|v=4,False,,Ghaziabad,"D-234, Third Floor, Lajpat Nagar Sahibabad, Ghaziabad - 201005, Dist.Ghaziabad, Uttar Pradesh",8043893550,
Stainless Steel Baby Feeding Bottle,,Rrr Enterprises,https://www.indiamart.com/rrr-enterprises-faizabad/?pos=191&kwd=stainless steel feeding bottle&tags=A||||9228.171|Price|product|||NA|rsf:gd-|-stype:attr=1|qr_nm:gd|res:RC4|com-cf:nl|ptrs:na|ktp:N0|mc:217154|mtp:S|qry_typ:P|lang:en|wc:4|cs:8886|v=4,False,,Faizabad,"1/4/391D Saadatganj, Faizabad - 224001, Uttar Pradesh",8062270218,961
"Silver Eagle Feeding Bottle, Age Group: 3-12 Months, Capacity: 150 ml",https://www.indiamart.com/proddetail/eagle-feeding-bottle-27524727730.html?pos=192&kwd=stainless steel feeding bottle&tags=BB||||9839.57|Price|product|||NA|rsf:gd-|-stype:attr=1|qr_nm:gd|res:RC4|com-cf:nl|ptrs:na|ktp:N0|mc:217154|mtp:S|qry_typ:P|lang:en|wc:4|cs:8886|v=4,Eagle Consumer Products Pvt. Ltd.,https://www.indiamart.com/eagleconsumerproducts/?pos=192&kwd=stainless steel feeding bottle&tags=BB||||9839.57|Price|product|||NA|rsf:gd-|-stype:attr=1|qr_nm:gd|res:RC4|com-cf:nl|ptrs:na|ktp:N0|mc:217154|mtp:S|qry_typ:P|lang:en|wc:4|cs:8886|v=4,False,,Kolkata,"4th Floor, Central Plaza, 41, B.B. Ganguly Street,, Kolkata - 700012, Dist.Kolkata, West Bengal",8047623799,
"Silver Plain SS Baby Feeding Milk Bottle, For Home, Size: 12 Inch",https://www.indiamart.com/proddetail/ss-baby-feeding-milk-bottle-2850162652148.html?pos=193&kwd=stainless steel feeding bottle&tags=BB||||8954.051|Price|product|||NA|rsf:gd-|-stype:attr=1|qr_nm:gd|res:RC4|com-cf:nl|ptrs:na|ktp:N0|mc:217154|mtp:S|qry_typ:P|lang:en|wc:4|cs:8886|v=4,KRISHNA ENTERPRISES,https://www.indiamart.com/krishna-enterprisess-chennai/?pos=193&kwd=stainless steel feeding bottle&tags=BB||||8954.051|Price|product|||NA|rsf:gd-|-stype:attr=1|qr_nm:gd|res:RC4|com-cf:nl|ptrs:na|ktp:N0|mc:217154|mtp:S|qry_typ:P|lang:en|wc:4|cs:8886|v=4,False,Park Town,Chennai,"Old No-9, New No-34, Paramsiva Chetty Street, Parktown, Park Town, Chennai - 600003, Dist.Chennai, Tamil Nadu",8069857448,193
"Pink& Blue Classic Steels Baby Feeding Bottle 270ml Pink And Blue, 1-2 Years",https://www.indiamart.com/proddetail/classic-steels-baby-feeding-bottle-270ml-pink-and-blue-23953600833.html?pos=194&kwd=stainless steel feeding bottle&tags=BA||||8211.142||product|||NA|rsf:gd-|-stype:attr=1|qr_nm:gd|res:RC4|com-cf:nl|ptrs:na|ktp:N0|mc:217154|mtp:S|qry_typ:P|lang:en|wc:4|cs:8886|v=4,D2 Enterprises,https://www.indiamart.com/d2enterprises-maharashtra/?pos=194&kwd=stainless steel feeding bottle&tags=BA||||8211.142||product|||NA|rsf:gd-|-stype:attr=1|qr_nm:gd|res:RC4|com-cf:nl|ptrs:na|ktp:N0|mc:217154|mtp:S|qry_typ:P|lang:en|wc:4|cs:8886|v=4,False,Kandivali West,Mumbai,"House No.10 Ganesh Nagar Ekta Nagar Kandivali West, Kandivali West, Mumbai - 400067, Dist.Mumbai, Maharashtra",8046052364,
"Metal Baby Steel Bottle, Capacity: 200 mL",https://www.indiamart.com/proddetail/baby-steel-bottle-2855096282630.html?pos=195&kwd=stainless steel feeding bottle&tags=BA||||8752.144|Price|product|||NA|rsf:gd-|-stype:attr=1|qr_nm:gd|res:RC4|com-cf:nl|ptrs:na|ktp:N0|mc:217154|mtp:S|qry_typ:P|lang:en|wc:4|cs:8886|v=4,Moonlab Technologies Private Limited,https://www.indiamart.com/moonlab-technologies-private-limited/?pos=195&kwd=stainless steel feeding bottle&tags=BA||||8752.144|Price|product|||NA|rsf:gd-|-stype:attr=1|qr_nm:gd|res:RC4|com-cf:nl|ptrs:na|ktp:N0|mc:217154|mtp:S|qry_typ:P|lang:en|wc:4|cs:8886|v=4,False,LADO SARAI,New Delhi,"2/27 W.h.s. Kirti Nagar South, LADO SARAI, New Delhi - 110015, Dist.Delhi, Delhi",8069033738,135
"Stainless Steel Silver Bluefly Bebo Feeding Bottle, Capacity: 150 ml",https://www.indiamart.com/proddetail/bluefly-bebo-feeding-bottle-24021456297.html?pos=196&kwd=stainless steel feeding bottle&tags=BB||||8954.051|Price|product|||NA|rsf:gd-|-stype:attr=1|qr_nm:gd|res:RC4|com-cf:nl|ptrs:na|ktp:N0|mc:217154|mtp:S|qry_typ:P|lang:en|wc:4|cs:8886|v=4,R.K. Steelex,https://www.indiamart.com/rk-steelex/?pos=196&kwd=stainless steel feeding bottle&tags=BB||||8954.051|Price|product|||NA|rsf:gd-|-stype:attr=1|qr_nm:gd|res:RC4|com-cf:nl|ptrs:na|ktp:N0|mc:217154|mtp:S|qry_typ:P|lang:en|wc:4|cs:8886|v=4,False,,Chennai,"No. 26 Kesava Iyer Street Park Town, Chennai - 600003, Dist.Chennai, Tamil Nadu",8046043319,
Steebo Crescent SS Baby Spout Sipper 240 ML,https://www.indiamart.com/proddetail/steebo-crescent-ss-baby-spout-sipper-240-ml-2851751640973.html?pos=197&kwd=stainless steel feeding bottle&tags=BA||||8612.732|Price|product|||NA|rsf:gd-|-stype:attr=1|qr_nm:gd|res:RC4|com-cf:nl|ptrs:na|ktp:N0|mc:217154|mtp:S|qry_typ:P|lang:en|wc:4|cs:8886|v=4,Swift Healthcare & Hygiene Private Limited,https://www.indiamart.com/swift-healthcare-hygiene-private-limited-srinagar/?pos=197&kwd=stainless steel feeding bottle&tags=BA||||8612.732|Price|product|||NA|rsf:gd-|-stype:attr=1|qr_nm:gd|res:RC4|com-cf:nl|ptrs:na|ktp:N0|mc:217154|mtp:S|qry_typ:P|lang:en|wc:4|cs:8886|v=4,False,Pampore,Srinagar,"1 1 Shiraz Road Srinagar Srinagar, Pampore, Srinagar - 190003, Dist.Srinagar, Jammu & Kashmir",,
silver SS Feeding Bottle,https://www.indiamart.com/proddetail/ss-feeding-bottle-25164054048.html?pos=198&kwd=stainless steel feeding bottle&tags=BA||||8228.275|Price|product|||NA|rsf:gd-|-stype:attr=1|qr_nm:gd|res:RC4|com-cf:nl|ptrs:na|ktp:N0|mc:217154|mtp:S|qry_typ:P|lang:en|wc:4|cs:8886|v=4,New Krishna Traders,https://www.indiamart.com/newkrishnatradersahmedabad/?pos=198&kwd=stainless steel feeding bottle&tags=BA||||8228.275|Price|product|||NA|rsf:gd-|-stype:attr=1|qr_nm:gd|res:RC4|com-cf:nl|ptrs:na|ktp:N0|mc:217154|mtp:S|qry_typ:P|lang:en|wc:4|cs:8886|v=4,False,Saijpur Bogha,Ahmedabad,"Shop Number 12 Saijpur Bhoga Near Kuberdas Ni Chali, Saijpur Bogha, Ahmedabad - 382345, Dist.Ahmedabad, Gujarat",8048615352,
Baby Stainless Steel Milk Bottlel,,Smt. Ganga Trading,https://www.indiamart.com/smt-ganga-trading/?pos=199&kwd=stainless steel feeding bottle&tags=BA||||8861.147|Price|product|||NA|rsf:gd-|-stype:attr=1|qr_nm:gd|res:RC4|com-cf:nl|ptrs:na|ktp:N0|mc:217154|mtp:S|qry_typ:P|lang:en|wc:4|cs:8886|v=4,False,North Vibhav Nagar,Firozabad,"Jai Nagar Vibhav Nagar Jalesar Road Smt. Ganga Trading Jalesar Road, Firozabad, North Vibhav Nagar, Firozabad - 283203, Dist.Firozabad, Uttar Pradesh",8048370719,9644
Feeding Bottle,https://www.indiamart.com/proddetail/feeding-bottle-2852549562155.html?pos=200&kwd=stainless steel feeding bottle&tags=BA||||9520.041|Price|product|||NA|rsf:gd-|-stype:attr=1|qr_nm:gd|res:RC4|com-cf:nl|ptrs:na|ktp:N0|mc:217154|mtp:S|qry_typ:P|lang:en|wc:4|cs:8886|v=4,Kamal Steel,https://www.indiamart.com/kamalsteel-patna/?pos=200&kwd=stainless steel feeding bottle&tags=BA||||9520.041|Price|product|||NA|rsf:gd-|-stype:attr=1|qr_nm:gd|res:RC4|com-cf:nl|ptrs:na|ktp:N0|mc:217154|mtp:S|qry_typ:P|lang:en|wc:4|cs:8886|v=4,False,Kadamkuan,Patna,"B Block, Shop No-1, Mahavira Appartment, Jahaji Kothi, Kadamkuan, Patna - 800003, Dist.Patna, Bihar",8047659026,
Transparent Plastic 3 In 1 Baby Feeding Steel Bottle 125 ML,https://www.indiamart.com/proddetail/3-in-1-baby-feeding-steel-bottle-125-ml-2853995342797.html?pos=201&kwd=stainless steel feeding bottle&tags=BA||||8234.203|Price|product|||NA|rsf:gd-|-stype:attr=1|qr_nm:gd|res:RC4|com-cf:nl|ptrs:na|ktp:N0|mc:217154|mtp:S|qry_typ:P|lang:en|wc:4|cs:8886|v=4,Inspire Hype,https://www.indiamart.com/inspirehype/?pos=201&kwd=stainless steel feeding bottle&tags=BA||||8234.203|Price|product|||NA|rsf:gd-|-stype:attr=1|qr_nm:gd|res:RC4|com-cf:nl|ptrs:na|ktp:N0|mc:217154|mtp:S|qry_typ:P|lang:en|wc:4|cs:8886|v=4,False,Denap,Visnagar,"4-B, C H Complex, Denap Tran Rasta Mahesana, Denap, Visnagar - 384315, Dist.Mehsana, Gujarat",7949224033,
"Budds Buddy Transparent Baby Feeding Bottle, Newly Born",https://www.indiamart.com/proddetail/baby-feeding-bottle-23331223991.html?pos=202&kwd=stainless steel feeding bottle&tags=BB||||8954.051|Price|product|||NA|rsf:gd-|-stype:attr=1|qr_nm:gd|res:RC4|com-cf:nl|ptrs:na|ktp:N0|mc:217154|mtp:S|qry_typ:P|lang:en|wc:4|cs:8886|v=4,DJP Trading Company,https://www.indiamart.com/djp-trading-company/?pos=202&kwd=stainless steel feeding bottle&tags=BB||||8954.051|Price|product|||NA|rsf:gd-|-stype:attr=1|qr_nm:gd|res:RC4|com-cf:nl|ptrs:na|ktp:N0|mc:217154|mtp:S|qry_typ:P|lang:en|wc:4|cs:8886|v=4,False,,Chennai,"7/132, Ayodhya Nagar, Triplicane, Chennai - 600005, Dist.Chennai, Tamil Nadu",8048976947,
Stainless Steel Feeding Bottle,,Neelam Home Appliances,https://www.indiamart.com/nirman-home-appliances/?pos=203&kwd=stainless steel feeding bottle&tags=BB||||8211.142||product|||NA|rsf:gd-|-stype:attr=1|qr_nm:gd|res:RC4|com-cf:nl|ptrs:na|ktp:N0|mc:217154|mtp:S|qry_typ:P|lang:en|wc:4|cs:8886|v=4,False,Andheri East,Mumbai,"A12, Ground floor, Gopal Sadan Building jijamata road, pump house, Andheri East, Mumbai - 400093, Dist.Mumbai, Maharashtra",8069857303,440
Stainless Steel Baby Feeding Bottle,,Rajendra Toys,https://www.indiamart.com/rajendra-toys/?pos=204&kwd=stainless steel feeding bottle&tags=BA||||8663.873||product|||NA|rsf:gd-|-stype:attr=1|qr_nm:gd|res:RC4|com-cf:nl|ptrs:na|ktp:N0|mc:217154|mtp:S|qry_typ:P|lang:en|wc:4|cs:8886|v=4,False,Chickpet,Bengaluru,"NO.102/40 Mamulpet Banglore , 560053 Karnatka, Chickpet, Bengaluru - 560053, Dist.Bengaluru, Karnataka",7949374608,
Steel Feeding Bottle,,New Awadh Pharmacy,https://www.indiamart.com/new-awadh-pharmacy/?pos=205&kwd=stainless steel feeding bottle&tags=B||||9110.092||product|||NA|rsf:gd-|-stype:attr=1|qr_nm:gd|res:RC4|com-cf:nl|ptrs:na|ktp:N0|mc:217154|mtp:S|qry_typ:P|lang:en|wc:4|cs:8886|v=4,False,,Lucknow,"Ground Floor 194/77 Iqbaal Manzil,aminabad Shop No-, Lucknow - 226018, Dist.Lucknow, Uttar Pradesh",8045374956,5815
Steel Feeding Bottle,,Janki Jiyana House,https://www.indiamart.com/jankijiyana-house/?pos=206&kwd=stainless steel feeding bottle&tags=BA||||8230.883|Price|product|||NA|rsf:gd-|-stype:attr=1|qr_nm:gd|res:RC4|com-cf:nl|ptrs:na|ktp:N0|mc:217154|mtp:S|qry_typ:P|lang:en|wc:4|cs:8886|v=4,False,,Surat,"Shop No 10, 1st Floor, Sahyog Park, Opp. Mansarovar Circle, Amroli,, Surat - 394107, Dist.Surat, Gujarat",7942803964,
Baby Steel Feeding Bottle,,Nikhil Trading Co.,https://www.indiamart.com/nikhil-trading-co-punjab/?pos=207&kwd=stainless steel feeding bottle&tags=BA||||8661.854|Price|product|||NA|rsf:gd-|-stype:attr=1|qr_nm:gd|res:RC4|com-cf:nl|ptrs:na|ktp:N0|mc:217154|mtp:S|qry_typ:P|lang:en|wc:4|cs:8886|v=4,False,Chaura Bazar,Ludhiana,"1973, Basati Bazar,, Chaura Bazar, Ludhiana - 141001, Dist.Ludhiana, Punjab",8047695585,
Stainless Steel Baby Feeder Bottle,,Kumar Medicos,https://www.indiamart.com/kumarmedicos-kanpur/?pos=208&kwd=stainless steel feeding bottle&tags=BB||||9045.955||product|||NA|rsf:gd-|-stype:attr=1|qr_nm:gd|res:RC4|com-cf:nl|ptrs:na|ktp:N0|mc:217154|mtp:S|qry_typ:P|lang:en|wc:4|cs:8886|v=4,False,,Kanpur,"No. 79, Express Road, Kanpur Nagar, Kanpur - 208001, Uttar Pradesh",8043824080,
Stainless Steel Baby Feeder Bottle,,Ramit Traders,https://www.indiamart.com/ramit-traders/?pos=209&kwd=stainless steel feeding bottle&tags=BB||||8781.797|Price|product|||NA|rsf:gd-|-stype:attr=1|qr_nm:gd|res:RC4|com-cf:nl|ptrs:na|ktp:N0|mc:217154|mtp:S|qry_typ:P|lang:en|wc:4|cs:8886|v=4,False,,Shamli,"0 Bada Bazar Shamli Shamli, Shamli - 247776, Dist.Muzaffarnagar, Uttar Pradesh",8069728238,235
Steel Feeding Bottle For Baby,,Suresh General Stores,https://www.indiamart.com/suresh-general-stores-katni/?pos=210&kwd=stainless steel feeding bottle&tags=BB||||9032.581||product|||NA|rsf:gd-|-stype:attr=1|qr_nm:gd|res:RC4|com-cf:nl|ptrs:na|ktp:N0|mc:217154|mtp:S|qry_typ:P|lang:en|wc:4|cs:8886|v=4,False,,Katni,"main bazar Madhav nagar, Katni - 483501, Dist.Katni, Madhya Pradesh",8048247140,5932
