product_title,product_link,company_name,company_link,is_verified_exporter,city_region,city,address_details,phone_number,phone_number_extension
"Anti Mark Cream, 15gm",https://www.indiamart.com/proddetail/stretch-mark-removal-cream-2854310190991.html?pos=1&kwd=stretch marks cream&tags=A||||8741.812|Price|product|||TS|rsf:gd-|-stype:attr=1|qr_nm:gd|res:RC4|com-cf:nl|ptrs:na|ktp:SA1|mc:187301|mtp:S|qry_typ:P|lang:en|wc:3|flavl:0|cs:9719|v=4,7 Days Organic Private Limited,https://www.7daysnatural.net/?pos=1&kwd=stretch marks cream&tags=A||||8741.812|Price|product|||TS|rsf:gd-|-stype:attr=1|qr_nm:gd|res:RC4|com-cf:nl|ptrs:na|ktp:SA1|mc:187301|mtp:S|qry_typ:P|lang:en|wc:3|flavl:0|cs:9719|v=4,False,,Gurugram,"Plot No.394, Udyog Vihar Phase 4, Gurugram - 122016, Dist.Gurgaon, Haryana",8045730641,
KeloKlin Stretch Marks Cream 20 gm,https://www.indiamart.com/proddetail/keloklin-stretch-marks-cream-20-gm-2854986790697.html?pos=2&kwd=stretch marks cream&tags=A||||8510.978|Price|product|||MDC|rsf:gd-|-stype:attr=1|qr_nm:gd|res:RC4|com-cf:nl|ptrs:na|ktp:SA1|mc:187301|mtp:S|qry_typ:P|lang:en|wc:3|flavl:0|cs:9719|v=4,DR. Mandoras Pharma,https://www.indiamart.com/dr-mandoras-pharma/?pos=2&kwd=stretch marks cream&tags=A||||8510.978|Price|product|||MDC|rsf:gd-|-stype:attr=1|qr_nm:gd|res:RC4|com-cf:nl|ptrs:na|ktp:SA1|mc:187301|mtp:S|qry_typ:P|lang:en|wc:3|flavl:0|cs:9719|v=4,False,,Jalgaon,"Mandora Chambers,190,Navi Peth,Tower Chowk, Jalgaon - 425001, Dist.Jalgaon, Maharashtra",8043856704,
Stretch Marks Creams,https://www.indiamart.com/proddetail/stretch-marks-creams-2854211107533.html?pos=3&kwd=stretch marks cream&tags=A||||8734.695|Price|product|||TS|rsf:gd-|-stype:attr=1|qr_nm:gd|res:RC4|com-cf:nl|ptrs:na|ktp:SA1|mc:187301|mtp:S|qry_typ:P|lang:en|wc:3|flavl:0|cs:9719|v=4,L.S. Health Care,https://www.lshealthcare.co.in/?pos=3&kwd=stretch marks cream&tags=A||||8734.695|Price|product|||TS|rsf:gd-|-stype:attr=1|qr_nm:gd|res:RC4|com-cf:nl|ptrs:na|ktp:SA1|mc:187301|mtp:S|qry_typ:P|lang:en|wc:3|flavl:0|cs:9719|v=4,False,Killa Mohalla,Bahadurgarh,"109/14,Gali No 3,Ranjit Colony,bahadurgarh, Killa Mohalla, Bahadurgarh - 124507, Dist.Jhajjar, Haryana",7942540846,
75ml StretchX Stretch Mark Cream,https://www.indiamart.com/proddetail/75ml-stretchx-stretch-mark-cream-2854084066491.html?pos=4&kwd=stretch marks cream&tags=A||||8752.144|Price|product|||TS|rsf:gd-|-stype:attr=1|qr_nm:gd|res:RC4|com-cf:nl|ptrs:na|ktp:SA1|mc:187301|mtp:S|qry_typ:P|lang:en|wc:3|flavl:0|cs:9719|v=4,Biumark Dermaceuticals Private Limited,https://www.indiamart.com/biumarkdermaceuticals/?pos=4&kwd=stretch marks cream&tags=A||||8752.144|Price|product|||TS|rsf:gd-|-stype:attr=1|qr_nm:gd|res:RC4|com-cf:nl|ptrs:na|ktp:SA1|mc:187301|mtp:S|qry_typ:P|lang:en|wc:3|flavl:0|cs:9719|v=4,False,Patparganj,New Delhi,"A-9, 1st Floor, Patparganj Industrial Area, Patparganj, New Delhi - 110015, Dist.Delhi, Delhi",8047680563,
"Stretch Marks Cream, Packaging Size: 100 mL",https://www.indiamart.com/proddetail/stretch-marks-cream-2852855070497.html?pos=5&kwd=stretch marks cream&tags=BA||||8230.883|Price|product|||TS|rsf:gd-|-stype:attr=1|qr_nm:gd|res:RC4|com-cf:nl|ptrs:na|ktp:SA1|mc:187301|mtp:S|qry_typ:P|lang:en|wc:3|flavl:0|cs:9719|v=4,Aspar Nature Care,https://www.indiamart.com/aspar-nature-care/?pos=5&kwd=stretch marks cream&tags=BA||||8230.883|Price|product|||TS|rsf:gd-|-stype:attr=1|qr_nm:gd|res:RC4|com-cf:nl|ptrs:na|ktp:SA1|mc:187301|mtp:S|qry_typ:P|lang:en|wc:3|flavl:0|cs:9719|v=4,False,,Surat,"B-1, Ground Floor,, Surat - 395006, Dist.Surat, Gujarat",8048955186,
Stretch Marks Cream Third Party Manufacturing,https://www.indiamart.com/proddetail/stretch-marks-cream-third-party-manufacturing-2853735129912.html?pos=6&kwd=stretch marks cream&tags=BA||||8785.791|Price|product|||TS|rsf:gd-|-stype:attr=1|qr_nm:gd|res:RC4|com-cf:nl|ptrs:na|ktp:SA1|mc:187301|mtp:S|qry_typ:P|lang:en|wc:3|flavl:0|cs:9719|v=4,Aarnav Global Exports,https://www.aarnavglobal.com/?pos=6&kwd=stretch marks cream&tags=BA||||8785.791|Price|product|||TS|rsf:gd-|-stype:attr=1|qr_nm:gd|res:RC4|com-cf:nl|ptrs:na|ktp:SA1|mc:187301|mtp:S|qry_typ:P|lang:en|wc:3|flavl:0|cs:9719|v=4,True,Jhandapur,Ghaziabad,"Basement, Plot No 51/1/6, Site-4 Industrial Area, Sahibabad, Jhandapur, Ghaziabad - 201010, Dist.Ghaziabad, Uttar Pradesh",8047637465,
"Liquid Stretch Marks Removal Oil Third Party Manufacturing, Normal Skin, Packaging Size: 50 ml 100 ml",https://www.indiamart.com/proddetail/stretch-marks-removal-oil-third-party-manufacturing-2849750382062.html?pos=7&kwd=stretch marks cream&tags=BA||||8741.987|Price|product|||TS|rsf:gd-|-stype:attr=1|qr_nm:gd|res:RC4|com-cf:nl|ptrs:na|ktp:SA1|mc:187301|mtp:S|qry_typ:P|lang:en|wc:3|flavl:0|cs:9719|v=4,Harrods Health Private Limited,https://www.indiamart.com/harrods-health/?pos=7&kwd=stretch marks cream&tags=BA||||8741.987|Price|product|||TS|rsf:gd-|-stype:attr=1|qr_nm:gd|res:RC4|com-cf:nl|ptrs:na|ktp:SA1|mc:187301|mtp:S|qry_typ:P|lang:en|wc:3|flavl:0|cs:9719|v=4,False,Baldev Nagar,Ambala,"237/6 Sultanpur Chowk Jadot Road,Sultanpur Chowk Jadot Road Ambala City,237/6 Sultan Pur Chowk Jadot Road, Baldev Nagar, Ambala - 134007, Dist.Ambala, Haryana",8048979184,
"Stretch Mark Removal Cream, 60ML",https://www.indiamart.com/proddetail/stretch-mark-removal-cream-25513662773.html?pos=8&kwd=stretch marks cream&tags=A||||8754.115|Price|product|||TS|rsf:gd-|-stype:attr=1|qr_nm:gd|res:RC4|com-cf:nl|ptrs:na|ktp:SA1|mc:187301|mtp:S|qry_typ:P|lang:en|wc:3|flavl:0|cs:9719|v=4,Stenhil Labs,https://www.indiamart.com/stenhillabs/?pos=8&kwd=stretch marks cream&tags=A||||8754.115|Price|product|||TS|rsf:gd-|-stype:attr=1|qr_nm:gd|res:RC4|com-cf:nl|ptrs:na|ktp:SA1|mc:187301|mtp:S|qry_typ:P|lang:en|wc:3|flavl:0|cs:9719|v=4,False,Sector 5,Panchkula,"Plot No. 463, Industrial Area, Phase-1, Sector 5, Panchkula - 134109, Dist.Panchkula, Haryana",8048965683,
Stretch Mark Removal Cream,https://www.indiamart.com/proddetail/stretch-mark-removal-cream-2854461005055.html?pos=9&kwd=stretch marks cream&tags=A||||8723.301|Price|product|||TS|rsf:gd-|-stype:attr=1|qr_nm:gd|res:RC4|com-cf:nl|ptrs:na|ktp:SA1|mc:187301|mtp:S|qry_typ:P|lang:en|wc:3|flavl:0|cs:9719|v=4,BTV Media Network,https://www.indiamart.com/btvmedianetwork/?pos=9&kwd=stretch marks cream&tags=A||||8723.301|Price|product|||TS|rsf:gd-|-stype:attr=1|qr_nm:gd|res:RC4|com-cf:nl|ptrs:na|ktp:SA1|mc:187301|mtp:S|qry_typ:P|lang:en|wc:3|flavl:0|cs:9719|v=4,False,Aadharshila,Bhopal,"H.No.516, Aadharshila, Awadhpuri,, Aadharshila, Bhopal - 462021, Dist.Bhopal, Madhya Pradesh",8043834187,
"Sea Buckthorn Oil,Lactic Acid Anti Stretch Mark Cream",https://www.indiamart.com/proddetail/anti-stretch-mark-cream-2853444511433.html?pos=10&kwd=stretch marks cream&tags=BB||||8237.554|Price|product|||TS|rsf:gd-|-stype:attr=1|qr_nm:gd|res:RC4|com-cf:nl|ptrs:na|ktp:SA1|mc:187301|mtp:S|qry_typ:P|lang:en|wc:3|flavl:0|cs:9719|v=4,Acticon Life Sciences,https://www.flocarecosmetics.com/?pos=10&kwd=stretch marks cream&tags=BB||||8237.554|Price|product|||TS|rsf:gd-|-stype:attr=1|qr_nm:gd|res:RC4|com-cf:nl|ptrs:na|ktp:SA1|mc:187301|mtp:S|qry_typ:P|lang:en|wc:3|flavl:0|cs:9719|v=4,True,Sector 24,Gandhinagar,"B1,2,3/14,Electronics Estate,GIDC, Sector - 25,Gandhinagar, Sector 24, Gandhinagar - 382024, Gujarat",8046057185,
"STRETCH GO CREAM, 30 m",https://www.indiamart.com/proddetail/stretch-go-cream-2851125610973.html?pos=11&kwd=stretch marks cream&tags=A||||8228.275|Price|product|||TS|rsf:gd-|-stype:attr=1|qr_nm:gd|res:RC4|com-cf:nl|ptrs:na|ktp:SA1|mc:187301|mtp:S|qry_typ:P|lang:en|wc:3|flavl:0|cs:9719|v=4,DR Arvind Life Science Private Limited,https://www.indiamart.com/drarvindlifescience/?pos=11&kwd=stretch marks cream&tags=A||||8228.275|Price|product|||TS|rsf:gd-|-stype:attr=1|qr_nm:gd|res:RC4|com-cf:nl|ptrs:na|ktp:SA1|mc:187301|mtp:S|qry_typ:P|lang:en|wc:3|flavl:0|cs:9719|v=4,False,Makarba,Ahmedabad,"703, Swagat Building, Zaveri & Co. Showroom, Lal Bunglow,, Makarba, Ahmedabad - 380051, Dist.Ahmedabad, Gujarat",8047633123,
Stretch Marks Cream,,Pooran Life Sciences Private Limited,https://www.pooranlifesciences.com/?pos=12&kwd=stretch marks cream&tags=A||||8749.33|Price|product|||TS|rsf:gd-|-stype:attr=1|qr_nm:gd|res:RC4|com-cf:nl|ptrs:na|ktp:SA1|mc:187301|mtp:S|qry_typ:P|lang:en|wc:3|flavl:0|cs:9719|v=4,False,SUNAM,Zirakpur,"14th Floor, Block D And E Office No. 1407 Chandigarh Citi center (CCC) Vip road, SUNAM, Zirakpur - 140306, Dist.Mohali, Punjab",7942718042,
Anti Stretch Mark Serum,https://www.indiamart.com/proddetail/anti-stretch-mark-serum-2854379883648.html?pos=13&kwd=stretch marks cream&tags=A||||8752.144|Price|product|||TS|rsf:gd-|-stype:attr=1|qr_nm:gd|res:RC4|com-cf:nl|ptrs:na|ktp:SA1|mc:187301|mtp:S|qry_typ:P|lang:en|wc:3|flavl:0|cs:9719|v=4,VCos Cosmetics Pvt Ltd,https://www.vcoscosmetics.in/?pos=13&kwd=stretch marks cream&tags=A||||8752.144|Price|product|||TS|rsf:gd-|-stype:attr=1|qr_nm:gd|res:RC4|com-cf:nl|ptrs:na|ktp:SA1|mc:187301|mtp:S|qry_typ:P|lang:en|wc:3|flavl:0|cs:9719|v=4,False,Harkesh Nagar,New Delhi,"S 67, Okhla Industrial Area, Phase 2, Harkesh Nagar, New Delhi - 110020, Dist.Delhi, Delhi",7942548316,
MARKVIN ANTI STRETCH MARK CREAM,https://www.indiamart.com/proddetail/markvin-anti-stretch-mark-cream-2853072135912.html?pos=14&kwd=stretch marks cream&tags=A||||8228.275|Price|product|||MDC|rsf:gd-|-stype:attr=1|qr_nm:gd|res:RC4|com-cf:nl|ptrs:na|ktp:SA1|mc:187301|mtp:S|qry_typ:P|lang:en|wc:3|flavl:0|cs:9719|v=4,Harvin Pharmaceuticals,https://www.indiamart.com/harvinpharmaceuticals-ahmedabad/?pos=14&kwd=stretch marks cream&tags=A||||8228.275|Price|product|||MDC|rsf:gd-|-stype:attr=1|qr_nm:gd|res:RC4|com-cf:nl|ptrs:na|ktp:SA1|mc:187301|mtp:S|qry_typ:P|lang:en|wc:3|flavl:0|cs:9719|v=4,False,Gota,Ahmedabad,"H/52, Prarthana Bunglows, Vasantnagar Township, Gota - Ognaj Road, Gota, Ahmedabad - 380060, Dist.Ahmedabad, Gujarat",8046073301,
Stretch Mark Removal Cream,https://www.indiamart.com/proddetail/stretch-mark-removal-cream-2854304483573.html?pos=15&kwd=stretch marks cream&tags=BA||||8230.883|Price|product|||TS|rsf:gd-|-stype:attr=1|qr_nm:gd|res:RC4|com-cf:nl|ptrs:na|ktp:SA1|mc:187301|mtp:S|qry_typ:P|lang:en|wc:3|cs:8956|v=4,Little Drop Store,https://www.littledropstore.com/?pos=15&kwd=stretch marks cream&tags=BA||||8230.883|Price|product|||TS|rsf:gd-|-stype:attr=1|qr_nm:gd|res:RC4|com-cf:nl|ptrs:na|ktp:SA1|mc:187301|mtp:S|qry_typ:P|lang:en|wc:3|cs:8956|v=4,False,Antroli,Surat,"Ground Floor, 153, Nilkanth Varni Society, Velanja Gam,, Antroli, Surat - 394150, Dist.Surat, Gujarat",7942839486,
"Stretch Marks cream, Stretch marks removal cream, Stretch marks removal, Anti stretch marks cream",https://www.indiamart.com/proddetail/stretch-marks-cream-stretch-marks-removal-cream-stretch-marks-removal-anti-stretch-marks-cream-2853640227862.html?pos=16&kwd=stretch marks cream&tags=A||||8752.144|Price|product|||TS|rsf:gd-|-stype:attr=1|qr_nm:gd|res:RC4|com-cf:nl|ptrs:na|ktp:SA1|mc:187301|mtp:S|qry_typ:P|lang:en|wc:3|cs:8956|v=4,Zenius India,https://www.zeniusindia.in/?pos=16&kwd=stretch marks cream&tags=A||||8752.144|Price|product|||TS|rsf:gd-|-stype:attr=1|qr_nm:gd|res:RC4|com-cf:nl|ptrs:na|ktp:SA1|mc:187301|mtp:S|qry_typ:P|lang:en|wc:3|cs:8956|v=4,False,Mehrauli,New Delhi,"Ground Floor Property No. 1043/m18 Mehta Chowk Ward No. 8, Mehrauli, New Delhi - 110030, Dist.Delhi, Delhi",8048265033,
Dr James Natural Stretch Marks Removal Cream,https://www.indiamart.com/proddetail/dr-james-natural-stretch-marks-removal-cream-2853475443591.html?pos=17&kwd=stretch marks cream&tags=BB||||8752.144|Price|product|||MDC|rsf:gd-|-stype:attr=1|qr_nm:gd|res:RC4|com-cf:nl|ptrs:na|ktp:SA1|mc:187301|mtp:S|qry_typ:P|lang:en|wc:3|cs:8956|v=4,Shiv Trading,https://www.indiamart.com/shivtrading-northdelhi/?pos=17&kwd=stretch marks cream&tags=BB||||8752.144|Price|product|||MDC|rsf:gd-|-stype:attr=1|qr_nm:gd|res:RC4|com-cf:nl|ptrs:na|ktp:SA1|mc:187301|mtp:S|qry_typ:P|lang:en|wc:3|cs:8956|v=4,False,Mukundpur,New Delhi,"H.No. 675, Block -A, Gali No. 14, Mukandpur Road, Mukundpur, Mukundpur, New Delhi - 110042, Dist.Delhi, Delhi",7948548694,
KURAIY Remove Pregnancy Scars Acne Cream Stretch Marks Treatment Maternity Repair Anti-Aging Anti-Winkles Firming Body Creams,https://www.indiamart.com/proddetail/kuraiy-remove-pregnancy-scars-acne-cream-stretch-marks-treatment-maternity-repair-anti-aging-anti-winkles-firming-body-creams-2853522236962.html?pos=18&kwd=stretch marks cream&tags=A||||8557.848|Price|product|||TS|rsf:gd-|-stype:attr=1|qr_nm:gd|res:RC4|com-cf:nl|ptrs:na|ktp:SA1|mc:187301|mtp:S|qry_typ:P|lang:en|wc:3|cs:8956|v=4,Store Apt,https://www.indiamart.com/beauty-bot/?pos=18&kwd=stretch marks cream&tags=A||||8557.848|Price|product|||TS|rsf:gd-|-stype:attr=1|qr_nm:gd|res:RC4|com-cf:nl|ptrs:na|ktp:SA1|mc:187301|mtp:S|qry_typ:P|lang:en|wc:3|cs:8956|v=4,False,,Pathanamthitta,"16/589,,KALANJOOR,Kalanjoor Nandanam Variam, Kalanjoor, Pathanakthitta,689694,, Pathanamthitta - 689694, Dist.Pathanamthitta, Kerala",,
"Stretch Mark Cream, Dry Skin",https://www.indiamart.com/proddetail/stretch-mark-cream-2854798618630.html?pos=19&kwd=stretch marks cream&tags=A||||9110.092|Price|product|||TS|rsf:gd-|-stype:attr=1|qr_nm:gd|res:RC4|com-cf:nl|ptrs:na|ktp:SA1|mc:187301|mtp:S|qry_typ:P|lang:en|wc:3|cs:8956|v=4,Savicosmo Pharma Private Limited,https://www.indiamart.com/savi-cosmo-pharma/?pos=19&kwd=stretch marks cream&tags=A||||9110.092|Price|product|||TS|rsf:gd-|-stype:attr=1|qr_nm:gd|res:RC4|com-cf:nl|ptrs:na|ktp:SA1|mc:187301|mtp:S|qry_typ:P|lang:en|wc:3|cs:8956|v=4,False,,Lucknow,"Sr/103-C, Saraswati Apartment, Gomti Nagar Extn, Lucknow - 226010, Dist.Lucknow, Uttar Pradesh",7942789505,
"Intensive Stretch Mark And Skin Flaming Cream, For Hospital, Packaging Size: 50gm",https://www.indiamart.com/proddetail/intensive-stretch-mark-and-skin-flaming-cream-27086050912.html?pos=20&kwd=stretch marks cream&tags=A||||8954.051|Price|product|||TS|rsf:gd-|-stype:attr=1|qr_nm:gd|res:RC4|com-cf:nl|ptrs:na|ktp:SA1|mc:187301|mtp:S|qry_typ:P|lang:en|wc:3|cs:8956|v=4,Vikas Pharma,https://www.vikaspharma.co.in/?pos=20&kwd=stretch marks cream&tags=A||||8954.051|Price|product|||TS|rsf:gd-|-stype:attr=1|qr_nm:gd|res:RC4|com-cf:nl|ptrs:na|ktp:SA1|mc:187301|mtp:S|qry_typ:P|lang:en|wc:3|cs:8956|v=4,False,Sowcarpet,Chennai,"No. 5, Nammalwar Street Sowcarpet, Sowcarpet, Chennai - 600001, Dist.Chennai, Tamil Nadu",7942556293,
"Natural Essential Stretch Mark Oil, For Cosmetic, Packaging Size: 50 ml - 1 Litre",https://www.indiamart.com/proddetail/natural-essential-stretch-mark-oil-21455934762.html?pos=21&kwd=stretch marks cream&tags=A||||8876.815|Price|product|||TS|rsf:gd-|-stype:attr=1|qr_nm:gd|res:RC4|com-cf:nl|ptrs:na|ktp:SA1|mc:187301|mtp:S|qry_typ:P|lang:en|wc:3|cs:8956|v=4,Mangalam Agro,https://www.citspray.in/?pos=21&kwd=stretch marks cream&tags=A||||8876.815|Price|product|||TS|rsf:gd-|-stype:attr=1|qr_nm:gd|res:RC4|com-cf:nl|ptrs:na|ktp:SA1|mc:187301|mtp:S|qry_typ:P|lang:en|wc:3|cs:8956|v=4,False,New Sneh Nagar,Nagpur,"B 101, Poonam Heights, Pande Layout, Khamla, New Sneh Nagar, Nagpur - 440025, Dist.Nagpur, Maharashtra",8048609072,
50 G Codesoftclear Stretch Mark Clearing Cream,https://www.indiamart.com/proddetail/50-g-codesoftclear-stretch-mark-clearing-cream-2854977396388.html?pos=22&kwd=stretch marks cream&tags=A||||9618.383|Price|product|||MDC|rsf:gd-|-stype:attr=1|qr_nm:gd|res:RC4|com-cf:nl|ptrs:na|ktp:SA1|mc:187301|mtp:S|qry_typ:P|lang:en|wc:3|cs:8956|v=4,Discount Medicine Mart,https://www.indiamart.com/discount-medicine-mart/?pos=22&kwd=stretch marks cream&tags=A||||9618.383|Price|product|||MDC|rsf:gd-|-stype:attr=1|qr_nm:gd|res:RC4|com-cf:nl|ptrs:na|ktp:SA1|mc:187301|mtp:S|qry_typ:P|lang:en|wc:3|cs:8956|v=4,False,,Jamshedpur,"0, Azad Naga, Mango, Jamshedpur, Pardih Main Road, Near-Akka Garden, Chepapul, Jamshedpur - 832110, Dist.East Singhbhum, Jharkhand",7949346205,
"Anti-Stretch Marks Cream for Personal, Packaging Size: 80 gm",https://www.indiamart.com/proddetail/anti-stretch-marks-cream-22117791355.html?pos=23&kwd=stretch marks cream&tags=BA||||8740.707|Price|product|||TS|rsf:gd-|-stype:attr=1|qr_nm:gd|res:RC4|com-cf:nl|ptrs:na|ktp:SA1|mc:187301|mtp:S|qry_typ:P|lang:en|wc:3|cs:8956|v=4,Biozoc INC,https://www.indiamart.com/zocveda/?pos=23&kwd=stretch marks cream&tags=BA||||8740.707|Price|product|||TS|rsf:gd-|-stype:attr=1|qr_nm:gd|res:RC4|com-cf:nl|ptrs:na|ktp:SA1|mc:187301|mtp:S|qry_typ:P|lang:en|wc:3|cs:8956|v=4,False,JLPL Industrial Area,Sas Nagar,"Plot No. 203, Sector-82, JLPL Industrial Estate, Sas Nagar, JLPL Industrial Area, Sas Nagar - 160055, Dist.Mohali, Punjab",7942538589,
Anti Stretch Mark Cream,https://www.indiamart.com/proddetail/anti-stretch-mark-cream-2853058228573.html?pos=24&kwd=stretch marks cream&tags=BA||||8778.123|Price|product|||TS|rsf:gd-|-stype:attr=1|qr_nm:gd|res:RC4|com-cf:nl|ptrs:na|ktp:SA1|mc:187301|mtp:S|qry_typ:P|lang:en|wc:3|cs:8956|v=4,TRASSALLY (A Unit Of Marvel Bellezza),https://www.trassally.in/?pos=24&kwd=stretch marks cream&tags=BA||||8778.123|Price|product|||TS|rsf:gd-|-stype:attr=1|qr_nm:gd|res:RC4|com-cf:nl|ptrs:na|ktp:SA1|mc:187301|mtp:S|qry_typ:P|lang:en|wc:3|cs:8956|v=4,False,Sector 11,Noida,"Commercial Shop No. 29, Ground Floor, VDS Market, Sector 110, Gautam Buddha Nagar, Sector 11, Noida - 201301, Dist.Gautam Budh Nagar, Uttar Pradesh",7942790271,
JMD Arthorex Cream,https://www.indiamart.com/proddetail/jmd-arthorex-cream-2854791655533.html?pos=25&kwd=stretch marks cream&tags=A||||9839.57|Price|product|||MDC|rsf:gd-|-stype:attr=1|qr_nm:gd|res:RC4|com-cf:nl|ptrs:na|ktp:SA1|mc:187301|mtp:S|qry_typ:P|lang:en|wc:3|cs:8956|v=4,JMD Medico Services Limited,https://www.indiamart.com/jmdmedicoservices/?pos=25&kwd=stretch marks cream&tags=A||||9839.57|Price|product|||MDC|rsf:gd-|-stype:attr=1|qr_nm:gd|res:RC4|com-cf:nl|ptrs:na|ktp:SA1|mc:187301|mtp:S|qry_typ:P|lang:en|wc:3|cs:8956|v=4,False,,Kolkata,"2nd Floor, 90A, S.P. Mukherjee Road, Kalighat,, Kolkata - 700026, Dist.Kolkata, West Bengal",7949328993,
Stretch Mark Removal Cream,https://www.indiamart.com/proddetail/stretch-mark-removal-cream-2853668763330.html?pos=26&kwd=stretch marks cream&tags=BA||||8224.965|Price|product|||MDC|rsf:gd-|-stype:attr=1|qr_nm:gd|res:RC4|com-cf:nl|ptrs:na|ktp:SA1|mc:187301|mtp:S|qry_typ:P|lang:en|wc:3|cs:8956|v=4,Sifora Life Science,https://www.indiamart.com/sifora-life-science/?pos=26&kwd=stretch marks cream&tags=BA||||8224.965|Price|product|||MDC|rsf:gd-|-stype:attr=1|qr_nm:gd|res:RC4|com-cf:nl|ptrs:na|ktp:SA1|mc:187301|mtp:S|qry_typ:P|lang:en|wc:3|cs:8956|v=4,False,Khatraj Cross Road Kalol Road,Kalol,"Plot No. 7, Parishram Industrial Estate, OPP. Arvind Mill, Near Indian Oil Petrol Pump Gandhinagar, Khatraj Cross Road Kalol Road, Kalol - 382721, Dist.Gandhi Nagar, Gujarat",8045168154,
Anti Stretch Mark Oil,https://www.indiamart.com/proddetail/anti-stretch-mark-oil-25490149833.html?pos=27&kwd=stretch marks cream&tags=BA||||8752.144|Price|product|||TS|rsf:gd-|-stype:attr=1|qr_nm:gd|res:RC4|com-cf:nl|ptrs:na|ktp:SA1|mc:187301|mtp:S|qry_typ:P|lang:en|wc:3|cs:8956|v=4,AMBROSIA HERBALS,https://www.indiamart.com/ambrosia-herbals/?pos=27&kwd=stretch marks cream&tags=BA||||8752.144|Price|product|||TS|rsf:gd-|-stype:attr=1|qr_nm:gd|res:RC4|com-cf:nl|ptrs:na|ktp:SA1|mc:187301|mtp:S|qry_typ:P|lang:en|wc:3|cs:8956|v=4,False,,New Delhi,"B-18/5, B-Block, Jhilmil Industrial Area, Shahdara, New Delhi - 110095, Dist.Delhi, Delhi",8048986694,
"Stretch Marks Cream , INTIMIFY Stretch Mark Removal Cream , Healofy Naturals Stretch Marks Cream",https://www.indiamart.com/proddetail/stretch-marks-cream-intimify-stretch-mark-removal-cream-healofy-naturals-stretch-marks-cream-2853052437148.html?pos=28&kwd=stretch marks cream&tags=BA||||8741.812|Price|product|||MDC|rsf:gd-|-stype:attr=1|qr_nm:gd|res:RC4|com-cf:nl|ptrs:na|ktp:SA1|mc:187301|mtp:S|qry_typ:P|lang:en|wc:3|cs:8956|v=4,Navya Protein Planet,https://www.indiamart.com/navya-protein-planet/?pos=28&kwd=stretch marks cream&tags=BA||||8741.812|Price|product|||MDC|rsf:gd-|-stype:attr=1|qr_nm:gd|res:RC4|com-cf:nl|ptrs:na|ktp:SA1|mc:187301|mtp:S|qry_typ:P|lang:en|wc:3|cs:8956|v=4,False,,Gurugram,"Shop No.40,sector-21 C,Faridabad, Gurugram - 122001, Dist.Gurgaon, Haryana",7942968454,
"Stretch Marks Cream, For Third Party or private Label",https://www.indiamart.com/proddetail/stretch-marks-cream-19188244097.html?pos=29&kwd=stretch marks cream&tags=BA||||8741.812|Price|product|||TS|rsf:gd-|-stype:attr=1|qr_nm:gd|res:RC4|com-cf:nl|ptrs:na|ktp:SA1|mc:187301|mtp:S|qry_typ:P|lang:en|wc:3|cs:8956|v=4,Bo International,https://www.boessentialoil.com/?pos=29&kwd=stretch marks cream&tags=BA||||8741.812|Price|product|||TS|rsf:gd-|-stype:attr=1|qr_nm:gd|res:RC4|com-cf:nl|ptrs:na|ktp:SA1|mc:187301|mtp:S|qry_typ:P|lang:en|wc:3|cs:8956|v=4,True,Udyog Vihar Phase 5,Gurugram,"884, Udyog Vihar, Sector 19, Udyog Vihar Phase 5, Udyog Vihar Phase 5, Gurugram - 122016, Dist.Gurgaon, Haryana",8048960874,
"Herbal Stretch Marks Cream, For Personal, Packaging Size: 100 mL",https://www.indiamart.com/proddetail/stretch-marks-cream-2852910184773.html?pos=30&kwd=stretch marks cream&tags=BA||||8778.123|Price|product|||TS|rsf:gd-|-stype:attr=1|qr_nm:gd|res:RC4|com-cf:nl|ptrs:na|ktp:SA1|mc:187301|mtp:S|qry_typ:P|lang:en|wc:3|cs:8956|v=4,A.G Industries,https://www.agindustries.net/?pos=30&kwd=stretch marks cream&tags=BA||||8778.123|Price|product|||TS|rsf:gd-|-stype:attr=1|qr_nm:gd|res:RC4|com-cf:nl|ptrs:na|ktp:SA1|mc:187301|mtp:S|qry_typ:P|lang:en|wc:3|cs:8956|v=4,True,Sector 85,Noida,"Ground, C 11 Sector 85, Sector 85, Noida - 201305, Dist.Gautam Budh Nagar, Uttar Pradesh",8046035112,
Stretch Marks Cream,https://www.indiamart.com/proddetail/stretch-marks-cream-2853141522891.html?pos=31&kwd=stretch marks cream&tags=BA||||8740.707|Price|product|||TS|rsf:gd-|-stype:attr=1|qr_nm:gd|res:RC4|com-cf:nl|ptrs:na|ktp:SA1|mc:187301|mtp:S|qry_typ:P|lang:en|wc:3|cs:8956|v=4,Vive Cosmetics,https://www.vivecosmetic.in/?pos=31&kwd=stretch marks cream&tags=BA||||8740.707|Price|product|||TS|rsf:gd-|-stype:attr=1|qr_nm:gd|res:RC4|com-cf:nl|ptrs:na|ktp:SA1|mc:187301|mtp:S|qry_typ:P|lang:en|wc:3|cs:8956|v=4,False,Sector 82,Sas Nagar,"Plot No. 773, Sector 82, JLPL, Sas Nagar, Sector 82, Sas Nagar - 160055, Dist.Mohali, Punjab",7942541977,
"75 gm Stretch Mark Cream, For Women",https://www.indiamart.com/proddetail/75-gm-stretch-mark-cream-2851942300748.html?pos=32&kwd=stretch marks cream&tags=BA||||8788.382|Price|product|||TS|rsf:gd-|-stype:attr=1|qr_nm:gd|res:RC4|com-cf:nl|ptrs:na|ktp:SA1|mc:187301|mtp:S|qry_typ:P|lang:en|wc:3|cs:8956|v=4,Nutriglow Cosmetics Private Limited,https://www.nutriglowprivatelabel.in/?pos=32&kwd=stretch marks cream&tags=BA||||8788.382|Price|product|||TS|rsf:gd-|-stype:attr=1|qr_nm:gd|res:RC4|com-cf:nl|ptrs:na|ktp:SA1|mc:187301|mtp:S|qry_typ:P|lang:en|wc:3|cs:8956|v=4,False,Kasna,Greater Noida,"i-71/04 Kasna Industrial Area Site V Greater Noida Gautam Buddha Nagar, Kasna, Greater Noida - 201310, Dist.Gautam Budh Nagar, Uttar Pradesh",7942872885,
"Stretch Marks Cream, Packaging Size: 100 mL",https://www.indiamart.com/proddetail/stretch-marks-cream-2851228488412.html?pos=33&kwd=stretch marks cream&tags=BA||||8228.275||product|||TS|rsf:gd-|-stype:attr=1|qr_nm:gd|res:RC4|com-cf:nl|ptrs:na|ktp:SA1|mc:187301|mtp:S|qry_typ:P|lang:en|wc:3|cs:8956|v=4,Orchid Lifesciences,https://www.orchidlifesciences.in/?pos=33&kwd=stretch marks cream&tags=BA||||8228.275||product|||TS|rsf:gd-|-stype:attr=1|qr_nm:gd|res:RC4|com-cf:nl|ptrs:na|ktp:SA1|mc:187301|mtp:S|qry_typ:P|lang:en|wc:3|cs:8956|v=4,False,Industrial Estate,Ahmedabad,"68-72, Tribhuvan Industrial Estate, Road No. 11, Nr. Kathwada GIDC, Kathwada, Industrial Estate, Ahmedabad - 382430, Dist.Ahmedabad, Gujarat",8047794905,
Glosby Stretch Marks Cream,https://www.indiamart.com/proddetail/glosby-stretch-marks-cream-26893725362.html?pos=34&kwd=stretch marks cream&tags=BA||||8228.275|Price|product|||TS|rsf:gd-|-stype:attr=1|qr_nm:gd|res:RC4|com-cf:nl|ptrs:na|ktp:SA1|mc:187301|mtp:S|qry_typ:P|lang:en|wc:3|cs:8956|v=4,Prominence Healthcare Private Limited,https://www.prominencehpl.com/?pos=34&kwd=stretch marks cream&tags=BA||||8228.275|Price|product|||TS|rsf:gd-|-stype:attr=1|qr_nm:gd|res:RC4|com-cf:nl|ptrs:na|ktp:SA1|mc:187301|mtp:S|qry_typ:P|lang:en|wc:3|cs:8956|v=4,True,Changodar,Ahmedabad,"C/42, Arvind Mega Park, Parikh Packaging Road Opp. Sarvoday Hotel, Changodar, Ahmedabad - 380015, Dist.Ahmedabad, Gujarat",7942538212,
"Paste Motherhood Stretch Marks Cream, Type Of Packaging: Tube, Packaging Size: 100gm",https://www.indiamart.com/proddetail/motherhood-stretch-marks-cream-2849536496112.html?pos=35&kwd=stretch marks cream&tags=BA||||8741.987|Price|product|||TS|rsf:gd-|-stype:attr=1|qr_nm:gd|res:RC4|com-cf:nl|ptrs:na|ktp:SA1|mc:187301|mtp:S|qry_typ:P|lang:en|wc:3|cs:8956|v=4,Tres Manos India Private Limited,https://www.indiamart.com/tresmanosindia/?pos=35&kwd=stretch marks cream&tags=BA||||8741.987|Price|product|||TS|rsf:gd-|-stype:attr=1|qr_nm:gd|res:RC4|com-cf:nl|ptrs:na|ktp:SA1|mc:187301|mtp:S|qry_typ:P|lang:en|wc:3|cs:8956|v=4,False,Kuldeep Nagar,Ambala,"Po Kuldeep Nagar Nanhera, Kuldeep Nagar, Ambala - 133004, Dist.Ambala, Haryana",7942548451,
"stretch marks lotion, Packaging Size: 100 mL",https://www.indiamart.com/proddetail/stretch-marks-lotion-2852055749797.html?pos=36&kwd=stretch marks cream&tags=BA||||8741.987|Price|product|||TS|rsf:gd-|-stype:attr=1|qr_nm:gd|res:RC4|com-cf:nl|ptrs:na|ktp:SA1|mc:187301|mtp:S|qry_typ:P|lang:en|wc:3|cs:8956|v=4,Croodle Care,https://www.indiamart.com/crodle-care-ambala/?pos=36&kwd=stretch marks cream&tags=BA||||8741.987|Price|product|||TS|rsf:gd-|-stype:attr=1|qr_nm:gd|res:RC4|com-cf:nl|ptrs:na|ktp:SA1|mc:187301|mtp:S|qry_typ:P|lang:en|wc:3|cs:8956|v=4,False,Mahavir Nagar,Ambala,"4 Khasra No.15-15/3/3 Rajendra Nagar, Mahavir Nagar, Ambala - 133004, Dist.Ambala, Haryana",7942816764,
"Anti Stretch Marks, Packaging Size: 50-100gm",https://www.indiamart.com/proddetail/anti-stretch-marks-25463691533.html?pos=37&kwd=stretch marks cream&tags=BA||||8752.144|Price|product|||TS|rsf:gd-|-stype:attr=1|qr_nm:gd|res:RC4|com-cf:nl|ptrs:na|ktp:SA1|mc:187301|mtp:S|qry_typ:P|lang:en|wc:3|cs:8956|v=4,Balson Laboratories,https://www.balsonlab.in/?pos=37&kwd=stretch marks cream&tags=BA||||8752.144|Price|product|||TS|rsf:gd-|-stype:attr=1|qr_nm:gd|res:RC4|com-cf:nl|ptrs:na|ktp:SA1|mc:187301|mtp:S|qry_typ:P|lang:en|wc:3|cs:8956|v=4,False,Naraina,New Delhi,"A9, Naraina Industrial Area, Phase 1, Naraina, New Delhi - 110028, Dist.Delhi, Delhi",7942544976,
"Narica Anti Stretch Marks Cream, Tube, 100gm",https://www.indiamart.com/proddetail/narica-anti-stretch-marks-cream-2850516653097.html?pos=38&kwd=stretch marks cream&tags=BA||||8785.791|Price|product|||TS|rsf:gd-|-stype:attr=1|qr_nm:gd|res:RC4|com-cf:nl|ptrs:na|ktp:SA1|mc:187301|mtp:S|qry_typ:P|lang:en|wc:3|cs:8956|v=4,Exsan Healthcare,https://www.indiamart.com/exsanhealthcare/?pos=38&kwd=stretch marks cream&tags=BA||||8785.791|Price|product|||TS|rsf:gd-|-stype:attr=1|qr_nm:gd|res:RC4|com-cf:nl|ptrs:na|ktp:SA1|mc:187301|mtp:S|qry_typ:P|lang:en|wc:3|cs:8956|v=4,False,Nehru Nagar,Ghaziabad,"III - M -30/B, Nehru Nagar, Nehru Nagar, Ghaziabad - 201001, Dist.Ghaziabad, Uttar Pradesh",7942823488,
Cream To Cure Stretch Marks,https://www.indiamart.com/proddetail/cream-to-cure-stretch-marks-2853594479262.html?pos=39&kwd=stretch marks cream&tags=BA||||8860.933|Price|product|||TS|rsf:gd-|-stype:attr=1|qr_nm:gd|res:RC4|com-cf:nl|ptrs:na|ktp:SA1|mc:187301|mtp:S|qry_typ:P|lang:en|wc:3|cs:8956|v=4,Viviano Healthcare Private Limited,https://www.indiamart.com/viviano-healthcare-private-limited/?pos=39&kwd=stretch marks cream&tags=BA||||8860.933|Price|product|||TS|rsf:gd-|-stype:attr=1|qr_nm:gd|res:RC4|com-cf:nl|ptrs:na|ktp:SA1|mc:187301|mtp:S|qry_typ:P|lang:en|wc:3|cs:8956|v=4,False,Ekta Vihar,Dehradun,"0, Sahastradhara Road, Near Bachpan School, Ekta Vihar, Ekta Vihar, Dehradun - 248001, Dist.Dehradun, Uttarakhand",8046077253,
"Luciara Cream For Stretch Marks, For Anti Mark, Packaging Size: 200 mL",https://www.indiamart.com/proddetail/luciara-cream-for-stretch-marks-22469114112.html?pos=40&kwd=stretch marks cream&tags=BA||||8581.569|Price|product|||TS|rsf:gd-|-stype:attr=1|qr_nm:gd|res:RC4|com-cf:nl|ptrs:na|ktp:SA1|mc:187301|mtp:S|qry_typ:P|lang:en|wc:3|cs:8956|v=4,Sewa Medical Stores,https://www.indiamart.com/sewamedicalstores/?pos=40&kwd=stretch marks cream&tags=BA||||8581.569|Price|product|||TS|rsf:gd-|-stype:attr=1|qr_nm:gd|res:RC4|com-cf:nl|ptrs:na|ktp:SA1|mc:187301|mtp:S|qry_typ:P|lang:en|wc:3|cs:8956|v=4,False,Moti Bunglow,Dewas,"45, Main Road, Moti Bunglow, Dewas - 455001, Dist.Dewas, Madhya Pradesh",7942540513,
"organic greens Cream Stretch Marks Removal Serum, Type Of Packaging: Bottle, Packaging Size: 100ml",https://www.indiamart.com/proddetail/stretch-marks-removal-serum-26865925288.html?pos=41&kwd=stretch marks cream&tags=BA||||9110.092|Price|product|||TS|rsf:gd-|-stype:attr=1|qr_nm:gd|res:RC4|com-cf:nl|ptrs:na|ktp:SA1|mc:187301|mtp:S|qry_typ:P|lang:en|wc:3|cs:8956|v=4,Tejaswini Enterprises,https://www.organicgreens.in.net/?pos=41&kwd=stretch marks cream&tags=BA||||9110.092|Price|product|||TS|rsf:gd-|-stype:attr=1|qr_nm:gd|res:RC4|com-cf:nl|ptrs:na|ktp:SA1|mc:187301|mtp:S|qry_typ:P|lang:en|wc:3|cs:8956|v=4,False,Bagiamau,Lucknow,"B/04/07, Block-B, Fourth Floor Of Santushti Enclave, Sector-B Sushant Golf City,, Bagiamau, Lucknow - 226030, Dist.Lucknow, Uttar Pradesh",8043861496,
Stretch Marks Removal Oil,https://www.indiamart.com/proddetail/stretch-marks-removal-oil-27551281048.html?pos=42&kwd=stretch marks cream&tags=BA||||8752.144||product|||TS|rsf:gd-|-stype:attr=1|qr_nm:gd|res:RC4|com-cf:nl|ptrs:na|ktp:SA1|mc:187301|mtp:S|qry_typ:P|lang:en|wc:3|cs:8956|v=4,Fine Pack,https://www.indiamart.com/fine-pack-delhi/?pos=42&kwd=stretch marks cream&tags=BA||||8752.144||product|||TS|rsf:gd-|-stype:attr=1|qr_nm:gd|res:RC4|com-cf:nl|ptrs:na|ktp:SA1|mc:187301|mtp:S|qry_typ:P|lang:en|wc:3|cs:8956|v=4,False,Bawana,New Delhi,"Plot No.149, G/F PKT M Sec-1, Bawana DSIDC Landmark, Near Service Road New Delhi, Bawana, New Delhi - 110039, Dist.Delhi, Delhi",8047625776,
Stretch Marks Removal Oil,https://www.indiamart.com/proddetail/stretch-marks-removal-oil-27551281048.html?pos=43&kwd=stretch marks cream&tags=BA||||8752.144||product|||TS|rsf:gd-|-stype:attr=1|qr_nm:gd|res:RC4|com-cf:nl|ptrs:na|ktp:SA1|mc:187301|mtp:S|qry_typ:P|lang:en|wc:3|cs:8956|v=4,Fine Pack,https://www.indiamart.com/fine-pack-delhi/?pos=43&kwd=stretch marks cream&tags=BA||||8752.144||product|||TS|rsf:gd-|-stype:attr=1|qr_nm:gd|res:RC4|com-cf:nl|ptrs:na|ktp:SA1|mc:187301|mtp:S|qry_typ:P|lang:en|wc:3|cs:8956|v=4,False,Bawana,New Delhi,"Plot No.149, G/F PKT M Sec-1, Bawana DSIDC Landmark, Near Service Road New Delhi, Bawana, New Delhi - 110039, Dist.Delhi, Delhi",8047625776,
"Kokum And Shea butter Stretch Marks Cream, Packaging Size: 100 mL",https://www.indiamart.com/proddetail/kokum-and-shea-butter-stretch-marks-cream-2853045373473.html?pos=44&kwd=stretch marks cream&tags=BA||||8791.36|Price|product|||TS|rsf:gd-|-stype:attr=1|qr_nm:gd|res:RC4|com-cf:nl|ptrs:na|ktp:SA1|mc:187301|mtp:S|qry_typ:P|lang:en|wc:3|cs:8956|v=4,Royal Industries,https://www.royalindustries.in.net/?pos=44&kwd=stretch marks cream&tags=BA||||8791.36|Price|product|||TS|rsf:gd-|-stype:attr=1|qr_nm:gd|res:RC4|com-cf:nl|ptrs:na|ktp:SA1|mc:187301|mtp:S|qry_typ:P|lang:en|wc:3|cs:8956|v=4,False,Rawli Road,Muradnagar,"Khasra No - 103,,Krishna Sagar Hotel, MURAD NAGAR,Ghaziabad, Rawli Road, Muradnagar - 201206, Dist.Ghaziabad, Uttar Pradesh",8048272564,
250ml Stretch Marks Cream (BULK ORDERS ONLY),https://www.indiamart.com/proddetail/250ml-stretch-marks-cream-bulk-orders-only-2853042843988.html?pos=45&kwd=stretch marks cream&tags=BA||||8769.508|Price|product|||TS|rsf:gd-|-stype:attr=1|qr_nm:gd|res:RC4|com-cf:nl|ptrs:na|ktp:SA1|mc:187301|mtp:S|qry_typ:P|lang:en|wc:3|cs:8956|v=4,Babi Beauty Cosmetics,https://www.indiamart.com/babi-beauty-cosmetics/?pos=45&kwd=stretch marks cream&tags=BA||||8769.508|Price|product|||TS|rsf:gd-|-stype:attr=1|qr_nm:gd|res:RC4|com-cf:nl|ptrs:na|ktp:SA1|mc:187301|mtp:S|qry_typ:P|lang:en|wc:3|cs:8956|v=4,False,Tilpat,Faridabad,"Floor 3, Plot No 2, 14/3, Mathura Road, Tilpat, Faridabad - 121003, Dist.Faridabad, Haryana",7942964701,
"Aethon Liquid Anti Stretch Marks Extract- Oil, Type Of Packaging: Packet, Packaging Size: 1 Kg",https://www.indiamart.com/proddetail/anti-stretch-marks-extract-oil-26470044212.html?pos=46&kwd=stretch marks cream&tags=BA||||8778.123|Price|product|||TS|rsf:gd-|-stype:attr=1|qr_nm:gd|res:RC4|com-cf:nl|ptrs:na|ktp:SA1|mc:187301|mtp:S|qry_typ:P|lang:en|wc:3|cs:8956|v=4,Aethon International LLP,https://www.aethoninternational.in/?pos=46&kwd=stretch marks cream&tags=BA||||8778.123|Price|product|||TS|rsf:gd-|-stype:attr=1|qr_nm:gd|res:RC4|com-cf:nl|ptrs:na|ktp:SA1|mc:187301|mtp:S|qry_typ:P|lang:en|wc:3|cs:8956|v=4,True,Sector 5,Noida,"A-54 , Sector 57, Sector 5, Noida - 201301, Dist.Gautam Budh Nagar, Uttar Pradesh",8048612368,
"Enrich + Herbal Stretch Marks Reduction Cream 50gm, Packaging Size: 100 mL",https://www.indiamart.com/proddetail/enrich-herbal-stretch-marks-reduction-cream-50gm-27619585091.html?pos=47&kwd=stretch marks cream&tags=BA||||8601.347|Price|product|||TS|rsf:gd-|-stype:attr=1|qr_nm:gd|res:RC4|com-cf:nl|ptrs:na|ktp:SA1|mc:187301|mtp:S|qry_typ:P|lang:en|wc:3|cs:8956|v=4,Mahesh Sales Corporation,https://www.maheshsales.com/?pos=47&kwd=stretch marks cream&tags=BA||||8601.347|Price|product|||TS|rsf:gd-|-stype:attr=1|qr_nm:gd|res:RC4|com-cf:nl|ptrs:na|ktp:SA1|mc:187301|mtp:S|qry_typ:P|lang:en|wc:3|cs:8956|v=4,False,Murlipura,Jaipur,"A-51, Shankar Vihar Extn., Road No.-1, Sikar Road, Murlipura, Jaipur - 302039, Dist.Jaipur, Rajasthan",8047675907,
"Anti Stretch Marks Lotion , ESMAK",https://www.indiamart.com/proddetail/anti-stretch-marks-lotion-esmak-2853697203773.html?pos=48&kwd=stretch marks cream&tags=BA||||8204.559|Price|product|||TS|rsf:gd-|-stype:attr=1|qr_nm:gd|res:RC4|com-cf:nl|ptrs:na|ktp:SA1|mc:187301|mtp:S|qry_typ:P|lang:en|wc:3|cs:8956|v=4,Royal Lifecure Private Limited,https://www.indiamart.com/royallifecure/?pos=48&kwd=stretch marks cream&tags=BA||||8204.559|Price|product|||TS|rsf:gd-|-stype:attr=1|qr_nm:gd|res:RC4|com-cf:nl|ptrs:na|ktp:SA1|mc:187301|mtp:S|qry_typ:P|lang:en|wc:3|cs:8956|v=4,True,Navrangpura,Bavla,"Shed No 48, Skyline Infra Hub, B/h Intas At Cha, Vasana Chacharavadi, Sanand, Navrangpura, Bavla - 382220, Dist.Ahmedabad, Gujarat",8047629811,
"Mint Leaf And Neem Extract Stretch Mark Cream, For Personal",https://www.indiamart.com/proddetail/stretch-mark-cream-25905039791.html?pos=49&kwd=stretch marks cream&tags=BA||||8741.987|Price|product|||TS|rsf:gd-|-stype:attr=1|qr_nm:gd|res:RC4|com-cf:nl|ptrs:na|ktp:SA1|mc:187301|mtp:S|qry_typ:P|lang:en|wc:3|cs:8956|v=4,Medfe,https://www.indiamart.com/medfeambala/?pos=49&kwd=stretch marks cream&tags=BA||||8741.987|Price|product|||TS|rsf:gd-|-stype:attr=1|qr_nm:gd|res:RC4|com-cf:nl|ptrs:na|ktp:SA1|mc:187301|mtp:S|qry_typ:P|lang:en|wc:3|cs:8956|v=4,False,Dhulkot,Ambala,"AMC No-1907-C/10 Plot No,29 A , Bulding Hall Chandigarh Road Ambala, Dhulkot, Ambala - 133001, Dist.Ambala, Haryana",8048618757,
"Stretch Mark Cream, For Personal & Parlour, Packaging Size: 100 Ml",https://www.indiamart.com/proddetail/stretch-mark-cream-20929520991.html?pos=50&kwd=stretch marks cream&tags=BB||||8747.223|Price|product|||TS|rsf:gd-|-stype:attr=1|qr_nm:gd|res:RC4|com-cf:nl|ptrs:na|ktp:SA1|mc:187301|mtp:S|qry_typ:P|lang:en|wc:3|cs:8956|v=4,Aura Herbal Private Limited,https://www.auraherbals.in/?pos=50&kwd=stretch marks cream&tags=BB||||8747.223|Price|product|||TS|rsf:gd-|-stype:attr=1|qr_nm:gd|res:RC4|com-cf:nl|ptrs:na|ktp:SA1|mc:187301|mtp:S|qry_typ:P|lang:en|wc:3|cs:8956|v=4,False,Vikaspuri,Sonipat,"Khasra No 6/6, 7, 7//8/2, MIN 9, MIN 10, Village Safiabad Safiabad Road, Vikaspuri, Sonipat - 131029, Dist.Sonipat, Haryana",8046072794,
Stretch Mark Cream,https://www.indiamart.com/proddetail/stretch-mark-cream-2851945836630.html?pos=51&kwd=stretch marks cream&tags=BA||||8230.883||product|||TS|rsf:gd-|-stype:attr=1|qr_nm:gd|res:RC4|com-cf:nl|ptrs:na|ktp:SA1|mc:187301|mtp:S|qry_typ:P|lang:en|wc:3|cs:8956|v=4,Panth Enterprise,https://www.indiamart.com/parthenterprise-surat-india/?pos=51&kwd=stretch marks cream&tags=BA||||8230.883||product|||TS|rsf:gd-|-stype:attr=1|qr_nm:gd|res:RC4|com-cf:nl|ptrs:na|ktp:SA1|mc:187301|mtp:S|qry_typ:P|lang:en|wc:3|cs:8956|v=4,False,Varachha Road,Surat,"hirabag Varachha Road surat, Varachha Road, Surat - 395006, Dist.Surat, Gujarat",7942869736,
Anti-Stretch Marks Cream,https://www.indiamart.com/proddetail/anti-stretch-marks-cream-23103015948.html?pos=52&kwd=stretch marks cream&tags=BA||||8230.883|Price|product|||TS|rsf:gd-|-stype:attr=1|qr_nm:gd|res:RC4|com-cf:nl|ptrs:na|ktp:SA1|mc:187301|mtp:S|qry_typ:P|lang:en|wc:3|cs:8956|v=4,Rangrejs Aromatherapy,https://www.rangrejsaromatherapy.com/?pos=52&kwd=stretch marks cream&tags=BA||||8230.883|Price|product|||TS|rsf:gd-|-stype:attr=1|qr_nm:gd|res:RC4|com-cf:nl|ptrs:na|ktp:SA1|mc:187301|mtp:S|qry_typ:P|lang:en|wc:3|cs:8956|v=4,False,Saroli,Surat,"C-9, Rajpurohit Transport Nagar, Behind Bharat Cancer Hospital Poona-Kadodara Road, Saroli, Saroli, Surat - 395010, Dist.Surat, Gujarat",8048964370,
"STRCH NILL Ayurvedic Strech Marks Cream, Type Of Packaging: Box, Packaging Size: 100 Gm",https://www.indiamart.com/proddetail/strech-marks-cream-2849892543155.html?pos=53&kwd=stretch marks cream&tags=BA||||8786.56|Price|product|||LSnp|rsf:gd-|-stype:attr=1|qr_nm:gd|res:RC4|com-cf:nl|ptrs:na|ktp:SA1|mc:187301|mtp:S|qry_typ:P|lang:en|wc:3|cs:8956|v=4,Ayur Gen Herbals,https://www.ayurgenherbals.co.in/?pos=53&kwd=stretch marks cream&tags=BA||||8786.56|Price|product|||LSnp|rsf:gd-|-stype:attr=1|qr_nm:gd|res:RC4|com-cf:nl|ptrs:na|ktp:SA1|mc:187301|mtp:S|qry_typ:P|lang:en|wc:3|cs:8956|v=4,False,Kukatpally,Hyderabad,"5-5-35/218, Prashanthi Nagar, Kukatpally, Kukatpally, Hyderabad - 500072, Dist.Hyderabad, Telangana",8048959137,
"Strech Marks Cream, Normal Skin",https://www.indiamart.com/proddetail/strech-marks-cream-26981752988.html?pos=54&kwd=stretch marks cream&tags=BA||||8038.093|Price|product|||TS|rsf:gd-|-stype:attr=1|qr_nm:gd|res:RC4|com-cf:nl|ptrs:na|ktp:SA1|mc:187301|mtp:S|qry_typ:P|lang:en|wc:3|cs:8956|v=4,Herb Elementz Natureceuticals Private Limited,https://www.indiamart.com/herbelementznatureceuticals/?pos=54&kwd=stretch marks cream&tags=BA||||8038.093|Price|product|||TS|rsf:gd-|-stype:attr=1|qr_nm:gd|res:RC4|com-cf:nl|ptrs:na|ktp:SA1|mc:187301|mtp:S|qry_typ:P|lang:en|wc:3|cs:8956|v=4,True,Vavdi,Rajkot,"Krishna Park Resort, Gondal Road Circle, Vavdi, Rajkot - 360004, Dist.Rajkot, Gujarat",8047630413,
"Third Party Manufacturing Anti Stretch Mark Cream, Plastic Bottle, 100 Gm",https://www.indiamart.com/proddetail/third-party-manufacturing-anti-stretch-mark-cream-2850347234248.html?pos=55&kwd=stretch marks cream&tags=BA||||8740.707|Price|product|||TS|rsf:gd-|-stype:attr=1|qr_nm:gd|res:RC4|com-cf:nl|ptrs:na|ktp:SA1|mc:187301|mtp:S|qry_typ:P|lang:en|wc:3|cs:8956|v=4,Zoic Pharmaceuticals,https://www.zoiccosmetic.in/?pos=55&kwd=stretch marks cream&tags=BA||||8740.707|Price|product|||TS|rsf:gd-|-stype:attr=1|qr_nm:gd|res:RC4|com-cf:nl|ptrs:na|ktp:SA1|mc:187301|mtp:S|qry_typ:P|lang:en|wc:3|cs:8956|v=4,False,Jhungiyan,Sas Nagar,"plot no 194, sector - 82, JLPL, INDUSTRIAL AREA, Jhungiyan, Sas Nagar - 160055, Dist.Mohali, Punjab",7942821041,
"Stretch Mark Removal Cream, 50 gm",https://www.indiamart.com/proddetail/stretch-mark-removal-cream-25674731573.html?pos=56&kwd=stretch marks cream&tags=BB||||8601.347|Price|product|||TS|rsf:gd-|-stype:attr=1|qr_nm:gd|res:RC4|com-cf:nl|ptrs:na|ktp:SA1|mc:187301|mtp:S|qry_typ:P|lang:en|wc:3|cs:8956|v=4,Ayubal Wellness Private Limited,https://www.ayubalherbal.com/?pos=56&kwd=stretch marks cream&tags=BB||||8601.347|Price|product|||TS|rsf:gd-|-stype:attr=1|qr_nm:gd|res:RC4|com-cf:nl|ptrs:na|ktp:SA1|mc:187301|mtp:S|qry_typ:P|lang:en|wc:3|cs:8956|v=4,False,jaipur,Jaipur,"H-1-896, Phase Third Riico Ind. Sitapura, jaipur, Jaipur - 302022, Dist.Jaipur, Rajasthan",8048603534,
Anti Stretch Mark Cream,https://www.indiamart.com/proddetail/anti-stretch-mark-cream-2854695466730.html?pos=57&kwd=stretch marks cream&tags=BB||||8734.695|Price|product|||TS|rsf:gd-|-stype:attr=1|qr_nm:gd|res:RC4|com-cf:nl|ptrs:na|ktp:SA1|mc:187301|mtp:S|qry_typ:P|lang:en|wc:3|cs:8956|v=4,S.R.D. Biotech,https://www.indiamart.com/srdbiotech-bahadurgarh/?pos=57&kwd=stretch marks cream&tags=BB||||8734.695|Price|product|||TS|rsf:gd-|-stype:attr=1|qr_nm:gd|res:RC4|com-cf:nl|ptrs:na|ktp:SA1|mc:187301|mtp:S|qry_typ:P|lang:en|wc:3|cs:8956|v=4,False,MIE Part-B,Bahadurgarh,"Khasra No 1671-1672, First Floor, Near Plot No 1315, M.I.E. Part 2, Bahadurgarh Distt, MIE Part-B, Bahadurgarh - 124507, Dist.Jhajjar, Haryana",8043837721,
"Natural StretchMark Cream For Unisex, Type Of Packaging: Regular Packaging Type, Packaging Size: Regular Packaging Size",https://www.indiamart.com/proddetail/stretchmark-cream-for-unisex-25446042291.html?pos=58&kwd=stretch marks cream&tags=BA||||8752.144|Price|product|||TS|rsf:gd-|-stype:attr=1|qr_nm:gd|res:RC4|com-cf:nl|ptrs:na|ktp:SA1|mc:187301|mtp:S|qry_typ:P|lang:en|wc:3|cs:8956|v=4,V R Health Science OPC Private Limited,https://www.indiamart.com/vrhealthscience/?pos=58&kwd=stretch marks cream&tags=BA||||8752.144|Price|product|||TS|rsf:gd-|-stype:attr=1|qr_nm:gd|res:RC4|com-cf:nl|ptrs:na|ktp:SA1|mc:187301|mtp:S|qry_typ:P|lang:en|wc:3|cs:8956|v=4,True,Mayapuri,New Delhi,"WH 71, First Floor, Mayapuri, Phase 1, Mayapuri, New Delhi - 110064, Dist.Delhi, Delhi",8047640403,
"Tube Femilite Stretch Mark Cream, Packing Size: 50 Gm",https://www.indiamart.com/proddetail/femilite-stretch-mark-cream-10273631788.html?pos=59&kwd=stretch marks cream&tags=BA||||8038.093|Price|product|||TS|rsf:gd-|-stype:attr=1|qr_nm:gd|res:RC4|com-cf:nl|ptrs:na|ktp:SA1|mc:187301|mtp:S|qry_typ:P|lang:en|wc:3|cs:8956|v=4,Elegant Cosmed Private Limited,https://www.elegantcosmed.co.in/?pos=59&kwd=stretch marks cream&tags=BA||||8038.093|Price|product|||TS|rsf:gd-|-stype:attr=1|qr_nm:gd|res:RC4|com-cf:nl|ptrs:na|ktp:SA1|mc:187301|mtp:S|qry_typ:P|lang:en|wc:3|cs:8956|v=4,False,Kuvadava,Rajkot,"Plot No. 32 & 33, G. I. D. C. Estate Kuvadava, Kuvadava, Rajkot - 360023, Dist.Rajkot, Gujarat",8046059176,
Anti Stretch Mark Cream,https://www.indiamart.com/proddetail/anti-stretch-mark-cream-2851277946533.html?pos=60&kwd=stretch marks cream&tags=BA||||8228.275||product|||TS|rsf:gd-|-stype:attr=1|qr_nm:gd|res:RC4|com-cf:nl|ptrs:na|ktp:SA1|mc:187301|mtp:S|qry_typ:P|lang:en|wc:3|cs:8956|v=4,HNCO Organics Private Limited,https://www.hncoorganics.com/?pos=60&kwd=stretch marks cream&tags=BA||||8228.275||product|||TS|rsf:gd-|-stype:attr=1|qr_nm:gd|res:RC4|com-cf:nl|ptrs:na|ktp:SA1|mc:187301|mtp:S|qry_typ:P|lang:en|wc:3|cs:8956|v=4,False,Chamanpura,Ahmedabad,"PLOT NO: 16, JAGANNATH INDUSTRIAL PARK PALDI-KANKAJ, TA. DASKROI, Chamanpura, Ahmedabad - 380016, Dist.Ahmedabad, Gujarat",8048973196,
"Anti Stretch Mark Cream, Packaging Size: 50 g",https://www.indiamart.com/proddetail/anti-stretch-mark-cream-23621400497.html?pos=61&kwd=stretch marks cream&tags=BA||||8754.115|Price|product|||TS|rsf:gd-|-stype:attr=1|qr_nm:gd|res:RC4|com-cf:nl|ptrs:na|ktp:SA1|mc:187301|mtp:S|qry_typ:P|lang:en|wc:3|cs:8956|v=4,M/S Slash Life Vision,https://www.indiamart.com/slashlifevision/?pos=61&kwd=stretch marks cream&tags=BA||||8754.115|Price|product|||TS|rsf:gd-|-stype:attr=1|qr_nm:gd|res:RC4|com-cf:nl|ptrs:na|ktp:SA1|mc:187301|mtp:S|qry_typ:P|lang:en|wc:3|cs:8956|v=4,False,Panchkula Industrial Area Phase 2,Panchkula,"Ground Floor, Panchkula Industrial Area Phase 2, Plot No. 104, Industrial Area, Panchkula Industrial Area Phase 2, Panchkula - 134113, Dist.Panchkula, Haryana",8047630997,
"Centella Horsechestnut Stretch Care Cream, For Use For Remove Mark",https://www.indiamart.com/proddetail/centella-horsechestnut-stretch-care-cream-2852883331691.html?pos=62&kwd=stretch marks cream&tags=BA||||8663.873|Price|product|||TS|rsf:gd-|-stype:attr=1|qr_nm:gd|res:RC4|com-cf:nl|ptrs:na|ktp:SA1|mc:187301|mtp:S|qry_typ:P|lang:en|wc:3|cs:8956|v=4,Sririshya Naturals,https://www.indiamart.com/sririshya-naturals-bengaluru/?pos=62&kwd=stretch marks cream&tags=BA||||8663.873|Price|product|||TS|rsf:gd-|-stype:attr=1|qr_nm:gd|res:RC4|com-cf:nl|ptrs:na|ktp:SA1|mc:187301|mtp:S|qry_typ:P|lang:en|wc:3|cs:8956|v=4,False,Mico Layout,Bengaluru,"B3-604, L & T South City, Bannerghatta Road, Arekere, Mico Layout, Urban,, Mico Layout, Bengaluru - 560076, Dist.Bengaluru, Karnataka",7942962540,
Stretch Mark Oil,https://www.indiamart.com/proddetail/stretch-mark-oil-2853874445362.html?pos=63&kwd=stretch marks cream&tags=BA||||8230.883|Price|product|||TS|rsf:gd-|-stype:attr=1|qr_nm:gd|res:RC4|com-cf:nl|ptrs:na|ktp:SA1|mc:187301|mtp:S|qry_typ:P|lang:en|wc:3|cs:8956|v=4,Jiya Enterprise,https://www.indiamart.com/jiyaenterprisegujarat/?pos=63&kwd=stretch marks cream&tags=BA||||8230.883|Price|product|||TS|rsf:gd-|-stype:attr=1|qr_nm:gd|res:RC4|com-cf:nl|ptrs:na|ktp:SA1|mc:187301|mtp:S|qry_typ:P|lang:en|wc:3|cs:8956|v=4,False,Varachha Road,Surat,"1st Floor, 47, Laxminagar Society - 2, Varachha Road, Sarthana Jakatnaka, Varachha Road, Surat - 395006, Dist.Surat, Gujarat",8044011304,
Anti Stretch Mark Oil,https://www.indiamart.com/proddetail/anti-stretch-mark-oil-2854882501212.html?pos=64&kwd=stretch marks cream&tags=BB||||8651.144|Price|product|||TS|rsf:gd-|-stype:attr=1|qr_nm:gd|res:RC4|com-cf:nl|ptrs:na|ktp:SA1|mc:187301|mtp:S|qry_typ:P|lang:en|wc:3|cs:8956|v=4,Vaid Dhanvantari Ayurveda,https://www.vaiddhanvantariayurveda.com/?pos=64&kwd=stretch marks cream&tags=BB||||8651.144|Price|product|||TS|rsf:gd-|-stype:attr=1|qr_nm:gd|res:RC4|com-cf:nl|ptrs:na|ktp:SA1|mc:187301|mtp:S|qry_typ:P|lang:en|wc:3|cs:8956|v=4,False,Sangrur,Sangrur,"Sangrur Road, Sangrur, Sangrur - 148001, Dist.Sangrur, Punjab",8047638276,
Stretch Marks Cream,https://www.indiamart.com/proddetail/stretch-marks-cream-23622976233.html?pos=65&kwd=stretch marks cream&tags=BA||||8228.275|Price|product|||TS|rsf:gd-|-stype:attr=1|qr_nm:gd|res:RC4|com-cf:nl|ptrs:na|ktp:SA1|mc:187301|mtp:S|qry_typ:P|lang:en|wc:3|cs:8956|v=4,Spatz Cosmeceutical Inc.,https://www.spatzcosmetics.com/?pos=65&kwd=stretch marks cream&tags=BA||||8228.275|Price|product|||TS|rsf:gd-|-stype:attr=1|qr_nm:gd|res:RC4|com-cf:nl|ptrs:na|ktp:SA1|mc:187301|mtp:S|qry_typ:P|lang:en|wc:3|cs:8956|v=4,False,Kathwada,Ahmedabad,"Plot No. 8, Satellite Estate, Kathwada, Singarva Village Road, Road No. 8, Kathwada, Ahmedabad - 382430, Dist.Ahmedabad, Gujarat",8048607610,
MOFREE STRETCH MARK OIL,https://www.indiamart.com/proddetail/mofree-stretch-mark-oil-2853973248555.html?pos=66&kwd=stretch marks cream&tags=BA||||8740.707|Price|product|||TS|rsf:gd-|-stype:attr=1|qr_nm:gd|res:RC4|com-cf:nl|ptrs:na|ktp:SA1|mc:187301|mtp:S|qry_typ:P|lang:en|wc:3|cs:8956|v=4,Soigner Pharma (a Division Of Arlak Biotech Private Limited),https://www.indiamart.com/soignerpharma/?pos=66&kwd=stretch marks cream&tags=BA||||8740.707|Price|product|||TS|rsf:gd-|-stype:attr=1|qr_nm:gd|res:RC4|com-cf:nl|ptrs:na|ktp:SA1|mc:187301|mtp:S|qry_typ:P|lang:en|wc:3|cs:8956|v=4,False,Baltana,Sas Nagar,"SCO 6, Wadhwa Nagar, Baltana, Sas Nagar - 140603, Dist.Mohali, Punjab",8048986628,
Stretch Marks Cream,,Jodeera Enterprises,https://www.indiamart.com/jodeeraenterprises/?pos=67&kwd=stretch marks cream&tags=BA||||8331.224|Price|product|||MDC|rsf:gd-|-stype:attr=1|qr_nm:gd|res:RC4|com-cf:nl|ptrs:na|ktp:SA1|mc:187301|mtp:S|qry_typ:P|lang:en|wc:3|cs:8956|v=4,False,,Kolhapur,"Plot No 10, R.S.No.54/9, Samarth Nagari, Morewadi, Unit No.02,, Kolhapur - 416013, Dist.Kolhapur, Maharashtra",7949338299,
"Stretch Marks Cream, Dry Skin",https://www.indiamart.com/proddetail/stretch-marks-cream-2854269497912.html?pos=68&kwd=stretch marks cream&tags=BA||||8237.554|Price|product|||MDC|rsf:gd-|-stype:attr=1|qr_nm:gd|res:RC4|com-cf:nl|ptrs:na|ktp:SA1|mc:187301|mtp:S|qry_typ:P|lang:en|wc:3|cs:8956|v=4,Biocare Remedies Pvt.Ltd.,https://www.indiamart.com/biocareremedies/?pos=68&kwd=stretch marks cream&tags=BA||||8237.554|Price|product|||MDC|rsf:gd-|-stype:attr=1|qr_nm:gd|res:RC4|com-cf:nl|ptrs:na|ktp:SA1|mc:187301|mtp:S|qry_typ:P|lang:en|wc:3|cs:8956|v=4,False,,Gandhinagar,"Plot No.707, Biocare, GIDC, Sector-28, Gandhinagar - 382028, Gujarat",7942611541,
"Herbal Cream Herbal -ayurvedic Formulations Stretchil Cream( Anti Stretch Marks), For Pre And Post Pregnancy, Normal Skin",https://www.indiamart.com/proddetail/stretchil-cream-anti-stretch-marks-20705393673.html?pos=69&kwd=stretch marks cream&tags=BA||||8876.815|Price|product|||TS|rsf:gd-|-stype:attr=1|qr_nm:gd|res:RC4|com-cf:nl|ptrs:na|ktp:SA1|mc:187301|mtp:S|qry_typ:P|lang:en|wc:3|cs:8956|v=4,Niba Healthcare,https://www.nibahealthcare.com/?pos=69&kwd=stretch marks cream&tags=BA||||8876.815|Price|product|||TS|rsf:gd-|-stype:attr=1|qr_nm:gd|res:RC4|com-cf:nl|ptrs:na|ktp:SA1|mc:187301|mtp:S|qry_typ:P|lang:en|wc:3|cs:8956|v=4,True,Bokhara,Nagpur,"57,Near Morden School,Neshman,Bokhara, Bokhara, Nagpur - 441111, Dist.Nagpur, Maharashtra",8047634823,
"50gram Bello Stretch Mark Gel, For Personal, 50 gm",https://www.indiamart.com/proddetail/50gram-bello-stretch-mark-gel-10670395833.html?pos=70&kwd=stretch marks cream&tags=BA||||8786.56|Price|product|||TS|rsf:gd-|-stype:attr=1|qr_nm:gd|res:RC4|com-cf:nl|ptrs:na|ktp:SA1|mc:187301|mtp:S|qry_typ:P|lang:en|wc:3|cs:8956|v=4,Syndy Pharma,https://www.indiamart.com/syndypharma/?pos=70&kwd=stretch marks cream&tags=BA||||8786.56|Price|product|||TS|rsf:gd-|-stype:attr=1|qr_nm:gd|res:RC4|com-cf:nl|ptrs:na|ktp:SA1|mc:187301|mtp:S|qry_typ:P|lang:en|wc:3|cs:8956|v=4,False,,Hyderabad,"159/C, Syndy Pharma, Phase - II, IDA Cherlapally, Medchal Malkajgiri, Hyderabad - 500051, Dist.Hyderabad, Telangana",8046078274,
"EIBHC Stretch Marks Cream, 50 ml",https://www.indiamart.com/proddetail/eibhc-stretch-marks-cream-2854351692862.html?pos=71&kwd=stretch marks cream&tags=BA||||8984.809|Price|product|||MDC|rsf:gd-|-stype:attr=1|qr_nm:gd|res:RC4|com-cf:nl|ptrs:na|ktp:SA1|mc:187301|mtp:S|qry_typ:P|lang:en|wc:3|cs:8956|v=4,Extend India Buddy,https://www.indiamart.com/extendindiabuddy-jabalpur/?pos=71&kwd=stretch marks cream&tags=BA||||8984.809|Price|product|||MDC|rsf:gd-|-stype:attr=1|qr_nm:gd|res:RC4|com-cf:nl|ptrs:na|ktp:SA1|mc:187301|mtp:S|qry_typ:P|lang:en|wc:3|cs:8956|v=4,False,,Jabalpur,"JMC 1290, Krishna Colony Suhagi, Jabalpur - 482004, Dist.Jabalpur, Madhya Pradesh",7949093769,
"Stretch Marks Cream to Reduce Stretch Marks & Scars, Dry Skin",https://www.indiamart.com/proddetail/stretch-marks-cream-to-reduce-stretch-marks-scars-2851507032862.html?pos=72&kwd=stretch marks cream&tags=BA||||8230.883|Price|product|||MDC|rsf:gd-|-stype:attr=1|qr_nm:gd|res:RC4|com-cf:nl|ptrs:na|ktp:SA1|mc:187301|mtp:S|qry_typ:P|lang:en|wc:3|cs:8956|v=4,Krishna Deko,https://www.indiamart.com/krishna-deko/?pos=72&kwd=stretch marks cream&tags=BA||||8230.883|Price|product|||MDC|rsf:gd-|-stype:attr=1|qr_nm:gd|res:RC4|com-cf:nl|ptrs:na|ktp:SA1|mc:187301|mtp:S|qry_typ:P|lang:en|wc:3|cs:8956|v=4,False,Kosad,Surat,"Gr Floor, Plot No 33, Ambrotech Park, B/S Sai Embroidery, Sayan Amroli Road, Kosad 09,first floor, Radhika Shopping, Opp. Sangna raw house gate 1 ni same, shyamdham, nana varachha, Kosad, Surat - 394107, Dist.Surat, Gujarat",7942842903,
Mederma Stretch Marks Therapy Cream,https://www.indiamart.com/proddetail/mederma-stretch-marks-therapy-cream-2853404370791.html?pos=73&kwd=stretch marks cream&tags=BA||||8876.815|Price|product|||MDC|rsf:gd-|-stype:attr=1|qr_nm:gd|res:RC4|com-cf:nl|ptrs:na|ktp:SA1|mc:187301|mtp:S|qry_typ:P|lang:en|wc:3|cs:8956|v=4,Itwari Agencies,https://www.indiamart.com/itwariagencies/?pos=73&kwd=stretch marks cream&tags=BA||||8876.815|Price|product|||MDC|rsf:gd-|-stype:attr=1|qr_nm:gd|res:RC4|com-cf:nl|ptrs:na|ktp:SA1|mc:187301|mtp:S|qry_typ:P|lang:en|wc:3|cs:8956|v=4,False,Gandhibagh,Nagpur,"117A, General Merchant Market, Gandhibagh, Gandhibagh, Nagpur - 440002, Dist.Nagpur, Maharashtra",7949227950,
"Demi Lite Intensive Stretch Marks Cream, Packaging Size: 100 mL",https://www.indiamart.com/proddetail/demi-lite-intensive-stretch-marks-cream-2852902327062.html?pos=74&kwd=stretch marks cream&tags=BA||||8788.159|Price|product|||MDC|rsf:gd-|-stype:attr=1|qr_nm:gd|res:RC4|com-cf:nl|ptrs:na|ktp:SA1|mc:187301|mtp:S|qry_typ:P|lang:en|wc:3|cs:8956|v=4,3SG Life Sciences Private Limited,https://www.indiamart.com/3sglifescience/?pos=74&kwd=stretch marks cream&tags=BA||||8788.159|Price|product|||MDC|rsf:gd-|-stype:attr=1|qr_nm:gd|res:RC4|com-cf:nl|ptrs:na|ktp:SA1|mc:187301|mtp:S|qry_typ:P|lang:en|wc:3|cs:8956|v=4,False,Padmaraonagar,Secunderabad,"6-1-350, Opp. Metro Pillar No. 14, Padmaraonagar, Hyderabad, Padmaraonagar, Secunderabad - 500025, Dist.Hyderabad, Telangana",7942966322,
Scar Removal Serum,https://www.indiamart.com/proddetail/scar-removal-serum-2853272539397.html?pos=75&kwd=stretch marks cream&tags=BA||||8758.712|Price|product|||TS|rsf:gd-|-stype:attr=1|qr_nm:gd|res:RC4|com-cf:nl|ptrs:na|ktp:SA1|mc:187301|mtp:S|qry_typ:P|lang:en|wc:3|cs:8956|v=4,Mahadhyuta Herbals,https://www.indiamart.com/mahadhyuta-herbals/?pos=75&kwd=stretch marks cream&tags=BA||||8758.712|Price|product|||TS|rsf:gd-|-stype:attr=1|qr_nm:gd|res:RC4|com-cf:nl|ptrs:na|ktp:SA1|mc:187301|mtp:S|qry_typ:P|lang:en|wc:3|cs:8956|v=4,False,Patancheru Chitkul Sangareddy,Isnapur,"Third Floor, F. No. 304, Chitkul Road, Patancheru Chitkul Sangareddy, Isnapur - 502307, Dist.Medak, Telangana",8043864205,
100ml Stretchnil Lotion,https://www.indiamart.com/proddetail/100ml-stretchnil-lotion-23969052673.html?pos=76&kwd=stretch marks cream&tags=BB||||8659.139|Price|product|||TS|rsf:gd-|-stype:attr=1|qr_nm:gd|res:RC4|com-cf:nl|ptrs:na|ktp:SA1|mc:187301|mtp:S|qry_typ:P|lang:en|wc:3|cs:8956|v=4,Orion Pharma,https://www.orionpharmaindia.com/?pos=76&kwd=stretch marks cream&tags=BB||||8659.139|Price|product|||TS|rsf:gd-|-stype:attr=1|qr_nm:gd|res:RC4|com-cf:nl|ptrs:na|ktp:SA1|mc:187301|mtp:S|qry_typ:P|lang:en|wc:3|cs:8956|v=4,False,Bhandaraj Bk,Akola,"Huda Colony, Gut No 13/1 Sur No 1, Ground Floor, Washim Bypass Road, Bhandaraj Bk, Akola - 444001, Dist.Akola, Maharashtra",8048989171,
Herbal Body merry stretch marks & scars defense cream,https://www.indiamart.com/proddetail/body-merry-stretch-marks-scars-defense-cream-2851955539488.html?pos=77&kwd=stretch marks cream&tags=BA||||8754.115|Price|product|||MDC|rsf:gd-|-stype:attr=1|qr_nm:gd|res:RC4|com-cf:nl|ptrs:na|ktp:SA1|mc:187301|mtp:S|qry_typ:P|lang:en|wc:3|cs:8956|v=4,Brandz International,https://www.indiamart.com/brandz-international/?pos=77&kwd=stretch marks cream&tags=BA||||8754.115|Price|product|||MDC|rsf:gd-|-stype:attr=1|qr_nm:gd|res:RC4|com-cf:nl|ptrs:na|ktp:SA1|mc:187301|mtp:S|qry_typ:P|lang:en|wc:3|cs:8956|v=4,False,,Panchkula,"Second Floor, Sco. 53, Brandz International, Swastik Vihar, Sector-5, Panchkula - 134109, Dist.Panchkula, Haryana",7942871132,
Rosehip Oil And Liquorice Urbaano Stretch Mark Cream,https://www.indiamart.com/proddetail/urbaano-stretch-mark-cream-2853038186097.html?pos=78&kwd=stretch marks cream&tags=BA||||8752.144|Price|product|||MDC|rsf:gd-|-stype:attr=1|qr_nm:gd|res:RC4|com-cf:nl|ptrs:na|ktp:SA1|mc:187301|mtp:S|qry_typ:P|lang:en|wc:3|cs:8956|v=4,We Naturals,https://www.indiamart.com/we-naturals/?pos=78&kwd=stretch marks cream&tags=BA||||8752.144|Price|product|||MDC|rsf:gd-|-stype:attr=1|qr_nm:gd|res:RC4|com-cf:nl|ptrs:na|ktp:SA1|mc:187301|mtp:S|qry_typ:P|lang:en|wc:3|cs:8956|v=4,False,Gazipur,New Delhi,"First Floor, 540 Block C, Gazipur Paper Market, East,, Gazipur, New Delhi - 110096, Dist.Delhi, Delhi",7942962562,
"Suave Intensive Stretch Mark Cream, Type Of Packaging: Box, Packaging Size: 60 G",https://www.indiamart.com/proddetail/suave-intensive-stretch-mark-cream-27458937988.html?pos=79&kwd=stretch marks cream&tags=BB||||8752.144|Price|product|||MDC|rsf:gd-|-stype:attr=1|qr_nm:gd|res:RC4|com-cf:nl|ptrs:na|ktp:SA1|mc:187301|mtp:S|qry_typ:P|lang:en|wc:3|cs:8956|v=4,Lumaire Labs Private Limited,https://www.indiamart.com/lumairelabs/?pos=79&kwd=stretch marks cream&tags=BB||||8752.144|Price|product|||MDC|rsf:gd-|-stype:attr=1|qr_nm:gd|res:RC4|com-cf:nl|ptrs:na|ktp:SA1|mc:187301|mtp:S|qry_typ:P|lang:en|wc:3|cs:8956|v=4,False,Netaji Subhash Place,New Delhi,"1302, Best Sky Tower, F - 5, Netaji Subhash Place, North West Delhi, Netaji Subhash Place, New Delhi - 110034, Dist.Delhi, Delhi",7942672879,
Herbal Fat Removal Cream Manufacturer & Supplier(third party manufacturing),https://www.indiamart.com/proddetail/herbal-fat-removal-cream-manufacturer-supplier-third-party-manufacturing-2852142850855.html?pos=80&kwd=stretch marks cream&tags=BA||||8752.144|Price|product|||TS|rsf:gd-|-stype:attr=1|qr_nm:gd|res:RC4|com-cf:nl|ptrs:na|ktp:SA1|mc:187301|mtp:S|qry_typ:P|lang:en|wc:3|cs:8956|v=4,Aryavarta Ayurveda,https://www.aryavartaayurveda.com/?pos=80&kwd=stretch marks cream&tags=BA||||8752.144|Price|product|||TS|rsf:gd-|-stype:attr=1|qr_nm:gd|res:RC4|com-cf:nl|ptrs:na|ktp:SA1|mc:187301|mtp:S|qry_typ:P|lang:en|wc:3|cs:8956|v=4,False,Begampur,New Delhi,"Ground Floor H. No.31 Pocket-15, Begampur, New Delhi - 110086, Dist.Delhi, Delhi",7942868916,
Stretch Mark Oil,https://www.indiamart.com/proddetail/stretch-mark-oil-2852700073033.html?pos=81&kwd=stretch marks cream&tags=BA||||8230.883|Price|product|||MDC|rsf:gd-|-stype:attr=1|qr_nm:gd|res:RC4|com-cf:nl|ptrs:na|ktp:SA1|mc:187301|mtp:S|qry_typ:P|lang:en|wc:3|cs:8956|v=4,R K Brothers,https://www.indiamart.com/rkbrotherssurat/?pos=81&kwd=stretch marks cream&tags=BA||||8230.883|Price|product|||MDC|rsf:gd-|-stype:attr=1|qr_nm:gd|res:RC4|com-cf:nl|ptrs:na|ktp:SA1|mc:187301|mtp:S|qry_typ:P|lang:en|wc:3|cs:8956|v=4,False,Velanja,Surat,"GF,423, Nandini Residency Vibhag-3 , Unnamed Raod, Ram Vatika Park Velanja Gam , Sayan, Velanja, Surat - 394150, Dist.Surat, Gujarat",7949092247,
Klm Strianil Anti Stretch Mark Cream 50g,https://www.indiamart.com/proddetail/klm-strianil-anti-stretch-mark-cream-50g-2853295012691.html?pos=82&kwd=stretch marks cream&tags=BA||||8559.269|Price|product|||MDC|rsf:gd-|-stype:attr=1|qr_nm:gd|res:RC4|com-cf:nl|ptrs:na|ktp:SA1|mc:187301|mtp:S|qry_typ:P|lang:en|wc:3|cs:8956|v=4,Medizone Pharma,https://www.indiamart.com/medizonepharma-indore/?pos=82&kwd=stretch marks cream&tags=BA||||8559.269|Price|product|||MDC|rsf:gd-|-stype:attr=1|qr_nm:gd|res:RC4|com-cf:nl|ptrs:na|ktp:SA1|mc:187301|mtp:S|qry_typ:P|lang:en|wc:3|cs:8956|v=4,False,Jaora Compound,Indore,"13-14, 78, RNT Marg, Jaora Compound, Indore - 452001, Dist.Indore, Madhya Pradesh",8047838159,
"Stretch Mark Removel Cream Ayurveda,green parvat malam",https://www.indiamart.com/proddetail/stretch-mark-removel-cream-ayurveda-green-parvat-malam-2855057907788.html?pos=83&kwd=stretch marks cream&tags=BB||||8230.883|Price|product|||MDC|rsf:gd-|-stype:attr=1|qr_nm:gd|res:RC4|com-cf:nl|ptrs:na|ktp:SA1|mc:187301|mtp:S|qry_typ:P|lang:en|wc:3|cs:8956|v=4,Green Parvat Health Care,https://www.indiamart.com/green-parvat-healthcare/?pos=83&kwd=stretch marks cream&tags=BB||||8230.883|Price|product|||MDC|rsf:gd-|-stype:attr=1|qr_nm:gd|res:RC4|com-cf:nl|ptrs:na|ktp:SA1|mc:187301|mtp:S|qry_typ:P|lang:en|wc:3|cs:8956|v=4,False,Kadodara,Surat,"Ground Floor, Shop No. 16, Vashi Palace, Block-A, Kadodara Bardoli Road, Near Tantithaiya Village,, Kadodara, Surat - 394305, Dist.Surat, Gujarat",7949340100,
"GUANJING Anti Stretch Mark Cream 80ml for Women, For Stomach Skin, Normal Skin",https://www.indiamart.com/proddetail/guanjing-anti-stretch-mark-cream-80ml-for-women-27442758091.html?pos=84&kwd=stretch marks cream&tags=BB||||10296.036|Price|product|||MDC|rsf:gd-|-stype:attr=1|qr_nm:gd|res:RC4|com-cf:nl|ptrs:na|ktp:SA1|mc:187301|mtp:S|qry_typ:P|lang:en|wc:3|cs:8956|v=4,Delspeed,https://www.indiamart.com/delspeedassam/?pos=84&kwd=stretch marks cream&tags=BB||||10296.036|Price|product|||MDC|rsf:gd-|-stype:attr=1|qr_nm:gd|res:RC4|com-cf:nl|ptrs:na|ktp:SA1|mc:187301|mtp:S|qry_typ:P|lang:en|wc:3|cs:8956|v=4,False,Jirighat,Cachar,"2, 1, Cachar Lodge, Nh37, Jirighat, Jirighat, Cachar - 788104, Dist.Cachar, Assam",7948549164,
"Palmers Cocoa Butter Formula Tummy Butter For Stretch Marks, 4.4 Ounce, Dry Skin",https://www.indiamart.com/proddetail/palmers-cocoa-butter-formula-tummy-butter-for-stretch-marks-4-4-ounce-2852632710955.html?pos=85&kwd=stretch marks cream&tags=BA||||8752.144||product|||TS|rsf:gd-|-stype:attr=1|qr_nm:gd|res:RC4|com-cf:nl|ptrs:na|ktp:SA1|mc:187301|mtp:S|qry_typ:P|lang:en|wc:3|cs:8956|v=4,Pari International,https://www.deals999.net/?pos=85&kwd=stretch marks cream&tags=BA||||8752.144||product|||TS|rsf:gd-|-stype:attr=1|qr_nm:gd|res:RC4|com-cf:nl|ptrs:na|ktp:SA1|mc:187301|mtp:S|qry_typ:P|lang:en|wc:3|cs:8956|v=4,False,Tagore Garden Extension,New Delhi,"GB18, Shivaji Enclave, West Delhi, Tagore Garden Extension, New Delhi - 110027, Dist.Delhi, Delhi",8047643268,
"Derm Ease Female Mark Less Cream, Packaging Size: 60 ml",https://www.indiamart.com/proddetail/mark-less-cream-22107986662.html?pos=86&kwd=stretch marks cream&tags=BA||||8747.223|Price|product|||TS|rsf:gd-|-stype:attr=1|qr_nm:gd|res:RC4|com-cf:nl|ptrs:na|ktp:SA1|mc:187301|mtp:S|qry_typ:P|lang:en|wc:3|cs:8956|v=4,Yaxon Biocare Private Limited,https://www.indiamart.com/yaxonbiocare/?pos=86&kwd=stretch marks cream&tags=BA||||8747.223|Price|product|||TS|rsf:gd-|-stype:attr=1|qr_nm:gd|res:RC4|com-cf:nl|ptrs:na|ktp:SA1|mc:187301|mtp:S|qry_typ:P|lang:en|wc:3|cs:8956|v=4,False,Rai,Sonipat,"No. 7, HSIIDC, Rai Industrial Area, Rai, Sonipat - 131029, Dist.Sonipat, Haryana",8046031145,
Dr James Stretch Mark Cream 200 ml remove stretch marks permanently,,IR Beauty,https://www.indiamart.com/ir-beauty/?pos=87&kwd=stretch marks cream&tags=BB||||8663.873|Price|product|||TS|rsf:gd-|-stype:attr=1|qr_nm:gd|res:RC4|com-cf:nl|ptrs:na|ktp:SA1|mc:187301|mtp:S|qry_typ:P|lang:en|wc:3|cs:8956|v=4,False,Kaval Bairasandra,Bengaluru,"5/2 1st A Cross Karumariamman Nagar K G Halli, Kaval Bairasandra, Bengaluru - 560045, Dist.Bengaluru, Karnataka",8048614242,
Zenius stretch mark removal cream for adult,https://www.indiamart.com/proddetail/zenius-stretch-mark-removal-cream-for-adult-2849775609712.html?pos=88&kwd=stretch marks cream&tags=BB||||8752.144|Price|product|||NA|rsf:gd-|-stype:attr=1|qr_nm:gd|res:RC4|com-cf:nl|ptrs:na|ktp:SA1|mc:187301|mtp:S|qry_typ:P|lang:en|wc:3|cs:8956|v=4,Zenius Pharmaceuticals,https://www.indiamart.com/zeniuspharmaceuticals/?pos=88&kwd=stretch marks cream&tags=BB||||8752.144|Price|product|||NA|rsf:gd-|-stype:attr=1|qr_nm:gd|res:RC4|com-cf:nl|ptrs:na|ktp:SA1|mc:187301|mtp:S|qry_typ:P|lang:en|wc:3|cs:8956|v=4,False,Zenius Pharmaceuticals,New Delhi,"882/82 ward no.6 mahruli Zenius Pharmaceuticals, Zenius Pharmaceuticals, New Delhi - 110030, Dist.Delhi, Delhi",8048967915,
Stretch Marks,https://www.indiamart.com/proddetail/stretch-marks-8388977155.html?pos=89&kwd=stretch marks cream&tags=BA||||8746.929||product|||NA|rsf:gd-|-stype:attr=1|qr_nm:gd|res:RC4|com-cf:nl|ptrs:na|ktp:SA1|mc:187301|mtp:S|qry_typ:P|lang:en|wc:3|cs:8956|v=4,Body Sculpt India,https://www.indiamart.com/body-sculpt-india/?pos=89&kwd=stretch marks cream&tags=BA||||8746.929||product|||NA|rsf:gd-|-stype:attr=1|qr_nm:gd|res:RC4|com-cf:nl|ptrs:na|ktp:SA1|mc:187301|mtp:S|qry_typ:P|lang:en|wc:3|cs:8956|v=4,False,Sector 51,Chandigarh,"3010, Sector 51 D, IB Hospital, Sector 51, Chandigarh - 160047, Chandigarh",8048372762,907
stretch marks oil after pregnancy stretch mark removal cream stretch marks cream,https://www.indiamart.com/proddetail/stretch-marks-oil-after-pregnancy-stretch-mark-removal-cream-stretch-marks-cream-2852549265997.html?pos=90&kwd=stretch marks cream&tags=BA||||8741.812|Price|product|||NA|rsf:gd-|-stype:attr=1|qr_nm:gd|res:RC4|com-cf:nl|ptrs:na|ktp:SA1|mc:187301|mtp:S|qry_typ:P|lang:en|wc:3|cs:8956|v=4,Krishna Collections,https://www.indiamart.com/krishna-collectionsgurugram/?pos=90&kwd=stretch marks cream&tags=BA||||8741.812|Price|product|||NA|rsf:gd-|-stype:attr=1|qr_nm:gd|res:RC4|com-cf:nl|ptrs:na|ktp:SA1|mc:187301|mtp:S|qry_typ:P|lang:en|wc:3|cs:8956|v=4,False,,Gurugram,"107, 2nd Floor, Ashok Vihar, Phase 2, Near Dr. Kaul Clinic, Street No 14, Gurugram - 122006, Dist.Gurgaon, Haryana",8043843945,
Herbal Pregnancy Stretch Marks Cream,https://www.indiamart.com/proddetail/pregnancy-stretch-marks-cream-2851210248991.html?pos=91&kwd=stretch marks cream&tags=BB||||8383.764|Price|product|||NA|rsf:gd-|-stype:attr=1|qr_nm:gd|res:RC4|com-cf:nl|ptrs:na|ktp:SA1|mc:187301|mtp:S|qry_typ:P|lang:en|wc:3|cs:8956|v=4,Shree Technologies,https://www.indiamart.com/shreetechnologies-maharashtra/?pos=91&kwd=stretch marks cream&tags=BB||||8383.764|Price|product|||NA|rsf:gd-|-stype:attr=1|qr_nm:gd|res:RC4|com-cf:nl|ptrs:na|ktp:SA1|mc:187301|mtp:S|qry_typ:P|lang:en|wc:3|cs:8956|v=4,False,,Baramati,"C-6/1, MIDC, Rui, Baramati - 413133, Dist.Pune, Maharashtra",7942832822,
"Green Herbs Vitamin E Collagen And Elastin Stretch Marks Massage Cream, Normal Skin, Packaging Size: 100ml",https://www.indiamart.com/proddetail/stretch-marks-massage-cream-25916026773.html?pos=92&kwd=stretch marks cream&tags=BA||||9189.305|Price|product|||NA|rsf:gd-|-stype:attr=1|qr_nm:gd|res:RC4|com-cf:nl|ptrs:na|ktp:SA1|mc:187301|mtp:S|qry_typ:P|lang:en|wc:3|cs:8956|v=4,Agamya Trading,https://www.indiamart.com/agamyatrading-allahabad/?pos=92&kwd=stretch marks cream&tags=BA||||9189.305|Price|product|||NA|rsf:gd-|-stype:attr=1|qr_nm:gd|res:RC4|com-cf:nl|ptrs:na|ktp:SA1|mc:187301|mtp:S|qry_typ:P|lang:en|wc:3|cs:8956|v=4,False,,Prayagraj,"3/689, Ground Floor, LIG Awas, Vikash Colony, Yojna No III, Jhunsi, Prayagraj, Prayagraj - 211019, Dist.Allahabad, Uttar Pradesh",8047676802,
Chetna Naturals Chetna's Stretch Marks Cream,https://www.indiamart.com/proddetail/chetna-s-stretch-marks-cream-24182512673.html?pos=93&kwd=stretch marks cream&tags=BB||||8663.873|Price|product|||NA|rsf:gd-|-stype:attr=1|qr_nm:gd|res:RC4|com-cf:nl|ptrs:na|ktp:SA1|mc:187301|mtp:S|qry_typ:P|lang:en|wc:3|cs:8956|v=4,Chetna Naturals,https://www.indiamart.com/chetna-naturals/?pos=93&kwd=stretch marks cream&tags=BB||||8663.873|Price|product|||NA|rsf:gd-|-stype:attr=1|qr_nm:gd|res:RC4|com-cf:nl|ptrs:na|ktp:SA1|mc:187301|mtp:S|qry_typ:P|lang:en|wc:3|cs:8956|v=4,False,,Bengaluru,"S.F.S. 208 76 Yelahanka New Town, Opposit Mother Dairy,, Bengaluru - 560065, Dist.Bengaluru, Karnataka",8047634393,
Stretch Marks Free Cream,https://www.indiamart.com/proddetail/stretch-marks-free-cream-2853306938088.html?pos=94&kwd=stretch marks cream&tags=BA||||9544.876|Price|product|||NA|rsf:gd-|-stype:attr=1|qr_nm:gd|res:RC4|com-cf:nl|ptrs:na|ktp:SA1|mc:187301|mtp:S|qry_typ:P|lang:en|wc:3|cs:8956|v=4,PRS Enterprises,https://www.indiamart.com/prsenterprises-muzaffarpur/?pos=94&kwd=stretch marks cream&tags=BA||||9544.876|Price|product|||NA|rsf:gd-|-stype:attr=1|qr_nm:gd|res:RC4|com-cf:nl|ptrs:na|ktp:SA1|mc:187301|mtp:S|qry_typ:P|lang:en|wc:3|cs:8956|v=4,False,Musahri,Muzaffarpur,"Near Satsang Ashram, Satsang Gali, Aamgola, Musahri, Muzaffarpur - 842002, Dist.Muzaffarpur, Bihar",7949225184,
Mederma Stretch Marks Therapy Cream,https://www.indiamart.com/proddetail/mederma-stretch-marks-therapy-cream-2855007854055.html?pos=95&kwd=stretch marks cream&tags=BB||||8230.883|Price|product|||NA|rsf:gd-|-stype:attr=1|qr_nm:gd|res:RC4|com-cf:nl|ptrs:na|ktp:SA1|mc:187301|mtp:S|qry_typ:P|lang:en|wc:3|cs:8956|v=4,ELLYCON,https://www.indiamart.com/princepharmacy/?pos=95&kwd=stretch marks cream&tags=BB||||8230.883|Price|product|||NA|rsf:gd-|-stype:attr=1|qr_nm:gd|res:RC4|com-cf:nl|ptrs:na|ktp:SA1|mc:187301|mtp:S|qry_typ:P|lang:en|wc:3|cs:8956|v=4,False,,Surat,"Second Floor, Office No-208, New Escon Plaza Chhaprabhatha Road, Amroli, Surat - 394107, Dist.Surat, Gujarat",8048249689,3595
"Mix Of 12 Oils And Butters Babymama Stretch Marks Oil, Type Of Packaging: Bottle, Packaging Size: 75 ml",https://www.indiamart.com/proddetail/babymama-stretch-marks-oil-24001542748.html?pos=96&kwd=stretch marks cream&tags=BB||||8752.144|Price|product|||NA|rsf:gd-|-stype:attr=1|qr_nm:gd|res:RC4|com-cf:nl|ptrs:na|ktp:SA1|mc:187301|mtp:S|qry_typ:P|lang:en|wc:3|cs:8956|v=4,Babymama Consumer Care LLP,https://www.indiamart.com/babymama-consumercare-llp/?pos=96&kwd=stretch marks cream&tags=BB||||8752.144|Price|product|||NA|rsf:gd-|-stype:attr=1|qr_nm:gd|res:RC4|com-cf:nl|ptrs:na|ktp:SA1|mc:187301|mtp:S|qry_typ:P|lang:en|wc:3|cs:8956|v=4,False,,New Delhi,"55, S/F, Panchkuian Road, CP, Central, New Delhi - 110001, Dist.Delhi, Delhi",8047624934,
"Femixa Stretch Marks Removal Oil, Type Of Packaging: Bottle, Packaging Size: 100mL",https://www.indiamart.com/proddetail/stretch-marks-removal-oil-25220944612.html?pos=97&kwd=stretch marks cream&tags=BB||||8230.883|Price|product|||NA|rsf:gd-|-stype:attr=1|qr_nm:gd|res:RC4|com-cf:nl|ptrs:na|ktp:SA1|mc:187301|mtp:S|qry_typ:P|lang:en|wc:3|cs:8956|v=4,Shree Hari Enterprise,https://www.indiamart.com/shree-harienterprise-surat/?pos=97&kwd=stretch marks cream&tags=BB||||8230.883|Price|product|||NA|rsf:gd-|-stype:attr=1|qr_nm:gd|res:RC4|com-cf:nl|ptrs:na|ktp:SA1|mc:187301|mtp:S|qry_typ:P|lang:en|wc:3|cs:8956|v=4,False,,Surat,"314, Crystal Plaza, Near Devi Darshan, Puna Simada Road, Surat - 395010, Dist.Surat, Gujarat",8047310711,
Unistretch Stretch Marks lotion,https://www.indiamart.com/proddetail/unistretch-stretch-marks-lotion-2854245979612.html?pos=98&kwd=stretch marks cream&tags=BA||||8752.144|Price|product|||NA|rsf:gd-|-stype:attr=1|qr_nm:gd|res:RC4|com-cf:nl|ptrs:na|ktp:SA1|mc:187301|mtp:S|qry_typ:P|lang:en|wc:3|cs:8956|v=4,Unipath Health Care,https://www.indiamart.com/unipathhealthcare/?pos=98&kwd=stretch marks cream&tags=BA||||8752.144|Price|product|||NA|rsf:gd-|-stype:attr=1|qr_nm:gd|res:RC4|com-cf:nl|ptrs:na|ktp:SA1|mc:187301|mtp:S|qry_typ:P|lang:en|wc:3|cs:8956|v=4,False,,New Delhi,"3rd Floor, Shop No-352, Naharpur, Sector-7, Rohini, North West, New Delhi - 110085, Dist.Delhi, Delhi",8045737914,
Natural Stretch Marks Cream Third Party Manufacturing,https://www.indiamart.com/proddetail/stretch-marks-cream-third-party-manufacturing-2853449748855.html?pos=99&kwd=stretch marks cream&tags=BA||||8228.275|Price|product|||NA|rsf:gd-|-stype:attr=1|qr_nm:gd|res:RC4|com-cf:nl|ptrs:na|ktp:SA1|mc:187301|mtp:S|qry_typ:P|lang:en|wc:3|cs:8956|v=4,Prihan Life Science,https://www.indiamart.com/prihanlifescience/?pos=99&kwd=stretch marks cream&tags=BA||||8228.275|Price|product|||NA|rsf:gd-|-stype:attr=1|qr_nm:gd|res:RC4|com-cf:nl|ptrs:na|ktp:SA1|mc:187301|mtp:S|qry_typ:P|lang:en|wc:3|cs:8956|v=4,False,Kathwada,Ahmedabad,"203 Kathwada, Villag Singarva, Tal Daskroi Fortune Industrial Park, Kathwada, Ahmedabad - 382430, Dist.Ahmedabad, Gujarat",8048973871,
"Aichun Beauty Anti Stretch Mark Cream, Packaging Size: 100 mL",https://www.indiamart.com/proddetail/aichun-beauty-anti-stretch-mark-cream-2852142980491.html?pos=100&kwd=stretch marks cream&tags=BA||||8340.797|Price|product|||NA|rsf:gd-|-stype:attr=1|qr_nm:gd|res:RC4|com-cf:nl|ptrs:na|ktp:SA1|mc:187301|mtp:S|qry_typ:P|lang:en|wc:3|cs:8956|v=4,Indian Skin Care,https://www.indiamart.com/indianskincare/?pos=100&kwd=stretch marks cream&tags=BA||||8340.797|Price|product|||NA|rsf:gd-|-stype:attr=1|qr_nm:gd|res:RC4|com-cf:nl|ptrs:na|ktp:SA1|mc:187301|mtp:S|qry_typ:P|lang:en|wc:3|cs:8956|v=4,False,Hebbal,Bhatkal,"1642,JALI PANCHAYAT, BHATKAL,BHATKAL 669, 80 Feet Road, HBR Layout, Kalyan Nagar,560043,Bengaluru, Hebbal, Bhatkal - 581320, Dist.Uttara Kannada, Karnataka",8043844398,
"Centella And Hyaluronic Acid Omy Lady Stretch Marks Oil, Bottle, 50ml",https://www.indiamart.com/proddetail/omy-lady-stretch-marks-oil-2850388720730.html?pos=101&kwd=stretch marks cream&tags=BA||||8647.052|Price|product|||NA|rsf:gd-|-stype:attr=1|qr_nm:gd|res:RC4|com-cf:nl|ptrs:na|ktp:SA1|mc:187301|mtp:S|qry_typ:P|lang:en|wc:3|cs:8956|v=4,R S Traders,https://www.indiamart.com/rs-traders-hansi/?pos=101&kwd=stretch marks cream&tags=BA||||8647.052|Price|product|||NA|rsf:gd-|-stype:attr=1|qr_nm:gd|res:RC4|com-cf:nl|ptrs:na|ktp:SA1|mc:187301|mtp:S|qry_typ:P|lang:en|wc:3|cs:8956|v=4,False,,Hansi,"House No. 40, Shiv Nagar Colony, Uttam Nagar, Hisar, Hansi - 125033, Dist.Hisar, Haryana",7942819482,
"stretch mark cream, Dry Skin, Packaging Size: 100gm",https://www.indiamart.com/proddetail/stretch-mark-cream-27104315212.html?pos=102&kwd=stretch marks cream&tags=BA||||8753.51|Price|product|||NA|rsf:gd-|-stype:attr=1|qr_nm:gd|res:RC4|com-cf:nl|ptrs:na|ktp:SA1|mc:187301|mtp:S|qry_typ:P|lang:en|wc:3|cs:8956|v=4,Kozmekare Private Limited,https://www.indiamart.com/kozme-kare-private-limited/?pos=102&kwd=stretch marks cream&tags=BA||||8753.51|Price|product|||NA|rsf:gd-|-stype:attr=1|qr_nm:gd|res:RC4|com-cf:nl|ptrs:na|ktp:SA1|mc:187301|mtp:S|qry_typ:P|lang:en|wc:3|cs:8956|v=4,False,,Karnal,"Plot No.359, Ground Floor, HSIIDC, Sector-3, Industrial Estate, Karnal - 132001, Dist.Karnal, Haryana",8047676301,
100g Reduces stretch Marks Pregnancy Pregnacream,https://www.indiamart.com/proddetail/100g-reduces-stretch-marks-pregnancy-pregnacream-2852825015491.html?pos=103&kwd=stretch marks cream&tags=BA||||9782.501|Price|product|||NA|rsf:gd-|-stype:attr=1|qr_nm:gd|res:RC4|com-cf:nl|ptrs:na|ktp:SA1|mc:187301|mtp:S|qry_typ:P|lang:en|wc:3|cs:8956|v=4,Lokenath Pharmacy,https://www.indiamart.com/lokenath-pharmacy-rampurhat/?pos=103&kwd=stretch marks cream&tags=BA||||9782.501|Price|product|||NA|rsf:gd-|-stype:attr=1|qr_nm:gd|res:RC4|com-cf:nl|ptrs:na|ktp:SA1|mc:187301|mtp:S|qry_typ:P|lang:en|wc:3|cs:8956|v=4,False,Rampurhat,Rampurhat,"Ward No 6, 87/57/1, Vivekananda Road, Sahapara, Birbhum, Rampurhat, Rampurhat - 731224, Dist.Birbhum, West Bengal",7942967122,
"Liquid Dr.James Stretch Mark Cream, Type Of Packaging: Box, Packaging Size: 125g",https://www.indiamart.com/proddetail/dr-james-stretch-mark-cream-23892176173.html?pos=104&kwd=stretch marks cream&tags=BB||||8362.569|Price|product|||NA|rsf:gd-|-stype:attr=1|qr_nm:gd|res:RC4|com-cf:nl|ptrs:na|ktp:SA1|mc:187301|mtp:S|qry_typ:P|lang:en|wc:3|cs:8956|v=4,Angel cosmetics,https://www.indiamart.com/angel-cosmetics-karnataka/?pos=104&kwd=stretch marks cream&tags=BB||||8362.569|Price|product|||NA|rsf:gd-|-stype:attr=1|qr_nm:gd|res:RC4|com-cf:nl|ptrs:na|ktp:SA1|mc:187301|mtp:S|qry_typ:P|lang:en|wc:3|cs:8956|v=4,False,,Uttara Kannada,"1371, Azad Nagar - Jali, Bhatkal,, Uttara Kannada - 581320, Dist.Uttara Kannada, Karnataka",8046067461,
Strechmin Stretch Mark Cream,,Scorrt Pharma,https://www.indiamart.com/scorrt-pharma/?pos=105&kwd=stretch marks cream&tags=BA||||8230.883|Price|product|||NA|rsf:gd-|-stype:attr=1|qr_nm:gd|res:RC4|com-cf:nl|ptrs:na|ktp:SA1|mc:187301|mtp:S|qry_typ:P|lang:en|wc:3|cs:8956|v=4,False,,Surat,"1st Floor,Plot No 01/A,Sundaram Society, Singanpur Road, Near Raj Laxmi Heights, Singanpor, Surat - 395004, Dist.Surat, Gujarat",8069707417,212
Avhni Stretch Mark Cream,https://www.indiamart.com/proddetail/avhni-stretch-mark-cream-27163610930.html?pos=106&kwd=stretch marks cream&tags=BB||||8223.226||product|||NA|rsf:gd-|-stype:attr=1|qr_nm:gd|res:RC4|com-cf:nl|ptrs:na|ktp:SA1|mc:187301|mtp:S|qry_typ:P|lang:en|wc:3|cs:8956|v=4,Uno Care Skin Care,https://www.indiamart.com/uno-care-skin-care/?pos=106&kwd=stretch marks cream&tags=BB||||8223.226||product|||NA|rsf:gd-|-stype:attr=1|qr_nm:gd|res:RC4|com-cf:nl|ptrs:na|ktp:SA1|mc:187301|mtp:S|qry_typ:P|lang:en|wc:3|cs:8956|v=4,False,Thane West Thane,Thane,"Gladys Alwares Road, Off Pokhran Road no-2,, Thane West Thane, Thane - 400610, Dist.Thane, Maharashtra",8048372591,983
Strechmin Stretch Mark Cream,https://www.indiamart.com/proddetail/strechmin-stretch-mark-cream-2854035573955.html?pos=107&kwd=stretch marks cream&tags=BA||||8242.731|Price|product|||NA|rsf:gd-|-stype:attr=1|qr_nm:gd|res:RC4|com-cf:nl|ptrs:na|ktp:SA1|mc:187301|mtp:S|qry_typ:P|lang:en|wc:3|cs:8956|v=4,Gurprasad Agencies,https://www.indiamart.com/gurprasad-agencies/?pos=107&kwd=stretch marks cream&tags=BA||||8242.731|Price|product|||NA|rsf:gd-|-stype:attr=1|qr_nm:gd|res:RC4|com-cf:nl|ptrs:na|ktp:SA1|mc:187301|mtp:S|qry_typ:P|lang:en|wc:3|cs:8956|v=4,False,Shahad,Ulhasnagar,"Shop No 1,u.no 157/158, Shahad Fhatak Road,, Shahad, Ulhasnagar - 421001, Dist.Thane, Maharashtra",8044564840,
"Elastoderm Cream, For Removing Stretch Marks, 50 gm",https://www.indiamart.com/proddetail/elastoderm-cream-2852566180733.html?pos=108&kwd=stretch marks cream&tags=BA||||8786.56|Price|product|||NA|rsf:gd-|-stype:attr=1|qr_nm:gd|res:RC4|com-cf:nl|ptrs:na|ktp:SA1|mc:187301|mtp:S|qry_typ:P|lang:en|wc:3|cs:8956|v=4,Sonal Enterprises,https://www.indiamart.com/sonal-enterprises-hyderabad/?pos=108&kwd=stretch marks cream&tags=BA||||8786.56|Price|product|||NA|rsf:gd-|-stype:attr=1|qr_nm:gd|res:RC4|com-cf:nl|ptrs:na|ktp:SA1|mc:187301|mtp:S|qry_typ:P|lang:en|wc:3|cs:8956|v=4,False,Punjagutta,Hyderabad,"6-3/850/1/4,Sirisha Plaza,Opp,Sheeshmahal theatre,Ameerpet Panjagutta,500082,Hyderabad, Punjagutta, Hyderabad - 500016, Dist.Hyderabad, Telangana",7949085677,
Stretch Mark Repairing Cream,https://www.indiamart.com/proddetail/stretch-mark-repairing-cream-2853498303073.html?pos=109&kwd=stretch marks cream&tags=BA||||8223.226|Price|product|||NA|rsf:gd-|-stype:attr=1|qr_nm:gd|res:RC4|com-cf:nl|ptrs:na|ktp:SA1|mc:187301|mtp:S|qry_typ:P|lang:en|wc:3|cs:8956|v=4,Ronson Enterprises,https://www.indiamart.com/ronson-enterprises/?pos=109&kwd=stretch marks cream&tags=BA||||8223.226|Price|product|||NA|rsf:gd-|-stype:attr=1|qr_nm:gd|res:RC4|com-cf:nl|ptrs:na|ktp:SA1|mc:187301|mtp:S|qry_typ:P|lang:en|wc:3|cs:8956|v=4,False,Mumbra,Thane,"4th Floor 01/115 Sahyog Shopping Centre Mumbra Flyover Shailesh Nagar, Mumbra, Thane - 400612, Dist.Thane, Maharashtra",8045166295,
"Royalstar Derma15 stretch mark cream, Normal Skin, Packaging Size: 25gm",https://www.indiamart.com/proddetail/derma15-stretch-mark-cream-26176273791.html?pos=110&kwd=stretch marks cream&tags=BA||||8601.347|Price|product|||NA|rsf:gd-|-stype:attr=1|qr_nm:gd|res:RC4|com-cf:nl|ptrs:na|ktp:SA1|mc:187301|mtp:S|qry_typ:P|lang:en|wc:3|cs:8956|v=4,Drishti Traders,https://www.indiamart.com/kajal-vlcc-wellscince/?pos=110&kwd=stretch marks cream&tags=BA||||8601.347|Price|product|||NA|rsf:gd-|-stype:attr=1|qr_nm:gd|res:RC4|com-cf:nl|ptrs:na|ktp:SA1|mc:187301|mtp:S|qry_typ:P|lang:en|wc:3|cs:8956|v=4,False,Raja Park,Jaipur,"B-2 Salasar Complex Guru Nanakpura, Raja Park, Jaipur, Raja Park, Jaipur - 302004, Dist.Jaipur, Rajasthan",8048371744,934
30ml Home Made Mom Made Pregnancy Stretch Marks Oil,https://www.indiamart.com/proddetail/30ml-home-made-mom-made-pregnancy-stretch-marks-oil-2852003584897.html?pos=111&kwd=stretch marks cream&tags=BA||||8534.86|Price|product|||NA|rsf:gd-|-stype:attr=1|qr_nm:gd|res:RC4|com-cf:nl|ptrs:na|ktp:SA1|mc:187301|mtp:S|qry_typ:P|lang:en|wc:3|cs:8956|v=4,Home Made - Mom Made,https://www.indiamart.com/homemademommade/?pos=111&kwd=stretch marks cream&tags=BA||||8534.86|Price|product|||NA|rsf:gd-|-stype:attr=1|qr_nm:gd|res:RC4|com-cf:nl|ptrs:na|ktp:SA1|mc:187301|mtp:S|qry_typ:P|lang:en|wc:3|cs:8956|v=4,False,,Fatehpur,"Ram Prakash Chotia, Ward No- 25 Vijay Chouk Bhatra Ki Bagichi, Fatehpur Shekhawati, Fatehpur - 332301, Rajasthan",8047521853,
"Night Aleen Beauty Stretch Mark Cream, Dry Skin, Packaging Size: 40 G",https://www.indiamart.com/proddetail/aleen-beauty-stretch-mark-cream-22469763097.html?pos=112&kwd=stretch marks cream&tags=BB||||8211.142|Price|product|||NA|rsf:gd-|-stype:attr=1|qr_nm:gd|res:RC4|com-cf:nl|ptrs:na|ktp:SA1|mc:187301|mtp:S|qry_typ:P|lang:en|wc:3|cs:8956|v=4,Aleen Beauty And Health Collection,https://www.indiamart.com/aleen-beauty-health-collection/?pos=112&kwd=stretch marks cream&tags=BB||||8211.142|Price|product|||NA|rsf:gd-|-stype:attr=1|qr_nm:gd|res:RC4|com-cf:nl|ptrs:na|ktp:SA1|mc:187301|mtp:S|qry_typ:P|lang:en|wc:3|cs:8956|v=4,False,,Mumbai,"R No. 291, Behind Chawl No. 6, Nargis Dutt Nagar, Opp Aliyawar Jung Sanstha, KC Marg Bandra Reclamation, Bandra West, Mumbai Suburban, Mumbai - 400050, Dist.Mumbai, Maharashtra",8047834322,
"ThriveCo Stretch Mark Expert Serum Cream, For Skin Care",https://www.indiamart.com/proddetail/thriveco-stretch-mark-expert-serum-cream-2851485112655.html?pos=113&kwd=stretch marks cream&tags=BA||||8741.812|Price|product|||NA|rsf:gd-|-stype:attr=1|qr_nm:gd|res:RC4|com-cf:nl|ptrs:na|ktp:SA1|mc:187301|mtp:S|qry_typ:P|lang:en|wc:3|cs:8956|v=4,Anveya Living Private Limited,https://www.indiamart.com/anveya-living/?pos=113&kwd=stretch marks cream&tags=BA||||8741.812|Price|product|||NA|rsf:gd-|-stype:attr=1|qr_nm:gd|res:RC4|com-cf:nl|ptrs:na|ktp:SA1|mc:187301|mtp:S|qry_typ:P|lang:en|wc:3|cs:8956|v=4,False,,Gurugram,"Property No. 307 Sector-55, Gurugram - 122003, Dist.Gurgaon, Haryana",8047662798,
Herbal Bounty Bliss Stretch Mark Removal Cream,https://www.indiamart.com/proddetail/bounty-bliss-stretch-mark-removal-cream-2853492396791.html?pos=114&kwd=stretch marks cream&tags=BA||||8786.56|Price|product|||NA|rsf:gd-|-stype:attr=1|qr_nm:gd|res:RC4|com-cf:nl|ptrs:na|ktp:SA1|mc:187301|mtp:S|qry_typ:P|lang:en|wc:3|cs:8956|v=4,Pavan Medical & General Stores,https://www.indiamart.com/pavanmedical-telengana/?pos=114&kwd=stretch marks cream&tags=BA||||8786.56|Price|product|||NA|rsf:gd-|-stype:attr=1|qr_nm:gd|res:RC4|com-cf:nl|ptrs:na|ktp:SA1|mc:187301|mtp:S|qry_typ:P|lang:en|wc:3|cs:8956|v=4,False,,Hyderabad,"GP Complex 30 40 Market Road Shankarpally, Hyderabad - 501203, Dist.Hyderabad, Telangana",7942537452,
"Skin Setting Miracle Cream ( Pigmentation, Stretch Marks), 50 gm",https://www.indiamart.com/proddetail/skin-setting-miracle-cream-pigmentation-stretch-marks-2852838226697.html?pos=115&kwd=stretch marks cream&tags=BA||||8786.56|Price|product|||NA|rsf:gd-|-stype:attr=1|qr_nm:gd|res:RC4|com-cf:nl|ptrs:na|ktp:SA1|mc:187301|mtp:S|qry_typ:P|lang:en|wc:3|cs:8956|v=4,Vaishnavi Enterprises,https://www.indiamart.com/vaishnavienterprises-hyderabad/?pos=115&kwd=stretch marks cream&tags=BA||||8786.56|Price|product|||NA|rsf:gd-|-stype:attr=1|qr_nm:gd|res:RC4|com-cf:nl|ptrs:na|ktp:SA1|mc:187301|mtp:S|qry_typ:P|lang:en|wc:3|cs:8956|v=4,False,Kavadiguda,Hyderabad,"1-3-957/9 To 11, Kavadiguda, Kavadiguda, Hyderabad - 500080, Dist.Hyderabad, Telangana",7942561565,
Stretch Mark Oil,https://www.indiamart.com/proddetail/stretch-mark-oil-25858003433.html?pos=116&kwd=stretch marks cream&tags=BA||||8584.299|Price|product|||NA|rsf:gd-|-stype:attr=1|qr_nm:gd|res:RC4|com-cf:nl|ptrs:na|ktp:SA1|mc:187301|mtp:S|qry_typ:P|lang:en|wc:3|cs:8956|v=4,Sai Varti Ayurvedz Private Limited,https://www.indiamart.com/sai-varti-ayurvedz-private-limited/?pos=116&kwd=stretch marks cream&tags=BA||||8584.299|Price|product|||NA|rsf:gd-|-stype:attr=1|qr_nm:gd|res:RC4|com-cf:nl|ptrs:na|ktp:SA1|mc:187301|mtp:S|qry_typ:P|lang:en|wc:3|cs:8956|v=4,False,Sidco Post,Coimbatore,"Door No. 44B Kurichi Housing Unit Phase 2,, Sidco Post, Coimbatore - 641021, Dist.Coimbatore, Tamil Nadu",8048249683,8449
Zenius stretch mark removal cream for adult,https://www.indiamart.com/proddetail/zenius-stretch-mark-removal-cream-for-adult-2849775609712.html?pos=117&kwd=stretch marks cream&tags=BB||||8752.144|Price|product|||NA|rsf:gd-|-stype:attr=1|qr_nm:gd|res:RC4|com-cf:nl|ptrs:na|ktp:SA1|mc:187301|mtp:S|qry_typ:P|lang:en|wc:3|cs:8956|v=4,Zenius Pharmaceuticals,https://www.indiamart.com/zeniuspharmaceuticals/?pos=117&kwd=stretch marks cream&tags=BB||||8752.144|Price|product|||NA|rsf:gd-|-stype:attr=1|qr_nm:gd|res:RC4|com-cf:nl|ptrs:na|ktp:SA1|mc:187301|mtp:S|qry_typ:P|lang:en|wc:3|cs:8956|v=4,False,Zenius Pharmaceuticals,New Delhi,"882/82 ward no.6 mahruli Zenius Pharmaceuticals, Zenius Pharmaceuticals, New Delhi - 110030, Dist.Delhi, Delhi",8048967915,
"Mexmyfeeleighteen Organic Stretch Mark Removal Serum, Type Of Packaging: Glass Bottel, Packaging Size: 30ml",https://www.indiamart.com/proddetail/stretch-mark-removal-serum-25019662655.html?pos=118&kwd=stretch marks cream&tags=BB||||8230.883|Price|product|||NA|rsf:gd-|-stype:attr=1|qr_nm:gd|res:RC4|com-cf:nl|ptrs:na|ktp:SA1|mc:187301|mtp:S|qry_typ:P|lang:en|wc:3|cs:8956|v=4,Mexmy Feel Eighteen,https://www.indiamart.com/leafroots/?pos=118&kwd=stretch marks cream&tags=BB||||8230.883|Price|product|||NA|rsf:gd-|-stype:attr=1|qr_nm:gd|res:RC4|com-cf:nl|ptrs:na|ktp:SA1|mc:187301|mtp:S|qry_typ:P|lang:en|wc:3|cs:8956|v=4,False,,Surat,"Office No 104, 1 St Floor, Green Plaza, Near D-mart, Mota Varachha,, Surat - 395006, Dist.Surat, Gujarat",8046046626,
"Fawn Stretch Mark Oil, Packaging Size: 200 mL",https://www.indiamart.com/proddetail/fawn-stretch-mark-oil-23930647112.html?pos=119&kwd=stretch marks cream&tags=BB||||8754.115||product|||NA|rsf:gd-|-stype:attr=1|qr_nm:gd|res:RC4|com-cf:nl|ptrs:na|ktp:SA1|mc:187301|mtp:S|qry_typ:P|lang:en|wc:3|cs:8956|v=4,Fawn Incorporation,https://www.indiamart.com/fawnincorporation/?pos=119&kwd=stretch marks cream&tags=BB||||8754.115||product|||NA|rsf:gd-|-stype:attr=1|qr_nm:gd|res:RC4|com-cf:nl|ptrs:na|ktp:SA1|mc:187301|mtp:S|qry_typ:P|lang:en|wc:3|cs:8956|v=4,False,Budhanpur,Panchkula,"SCO 96, Sector 5, Budhanpur, Panchkula - 134113, Dist.Panchkula, Haryana",8046078911,
Basilque Organic Anti Stretch Masks,https://www.indiamart.com/proddetail/basilque-organic-anti-stretch-masks-2852178307273.html?pos=120&kwd=stretch marks cream&tags=BA||||8223.226|Price|product|||NA|rsf:gd-|-stype:attr=1|qr_nm:gd|res:RC4|com-cf:nl|ptrs:na|ktp:SA1|mc:187301|mtp:S|qry_typ:P|lang:en|wc:3|cs:8956|v=4,Heaven Beauty Center,https://www.indiamart.com/heaven-beauty-center/?pos=120&kwd=stretch marks cream&tags=BA||||8223.226|Price|product|||NA|rsf:gd-|-stype:attr=1|qr_nm:gd|res:RC4|com-cf:nl|ptrs:na|ktp:SA1|mc:187301|mtp:S|qry_typ:P|lang:en|wc:3|cs:8956|v=4,False,,Thane,"A-6/13 Silver Park Broadway Aveenue A5/A6 Chs Ltd Mira Bhayandar, Thane - 401107, Dist.Thane, Maharashtra",8048969438,
Organic anti stretch mark gel,https://www.indiamart.com/proddetail/organic-anti-stretch-mark-gel-2854688720888.html?pos=121&kwd=stretch marks cream&tags=BA||||8686.507|Price|product|||NA|rsf:gd-|-stype:attr=1|qr_nm:gd|res:RC4|com-cf:nl|ptrs:na|ktp:SA1|mc:187301|mtp:S|qry_typ:P|lang:en|wc:3|cs:8956|v=4,Nutan Organics And Herbs,https://www.indiamart.com/nutan-organics-and-herbs/?pos=121&kwd=stretch marks cream&tags=BA||||8686.507|Price|product|||NA|rsf:gd-|-stype:attr=1|qr_nm:gd|res:RC4|com-cf:nl|ptrs:na|ktp:SA1|mc:187301|mtp:S|qry_typ:P|lang:en|wc:3|cs:8956|v=4,False,Bhalke,Bidar,"4-1-315/2 Smt. Janabai W/o Madhav Rao Bhalke, Bhalke, Bidar - 585401, Dist.Bidar, Karnataka",8047308844,7706
100ml Stretch Mark Remilove Oil Silent Valley Organics,https://www.indiamart.com/proddetail/100ml-stretch-mark-remilove-oil-silent-valley-organics-2854358081048.html?pos=122&kwd=stretch marks cream&tags=BA||||8550.327|Price|product|||NA|rsf:gd-|-stype:attr=1|qr_nm:gd|res:RC4|com-cf:nl|ptrs:na|ktp:SA1|mc:187301|mtp:S|qry_typ:P|lang:en|wc:3|cs:8956|v=4,Spicy World,https://www.indiamart.com/spicy-world-palakkad/?pos=122&kwd=stretch marks cream&tags=BA||||8550.327|Price|product|||NA|rsf:gd-|-stype:attr=1|qr_nm:gd|res:RC4|com-cf:nl|ptrs:na|ktp:SA1|mc:187301|mtp:S|qry_typ:P|lang:en|wc:3|cs:8956|v=4,False,,Palakkad,"4/384 Spicy World Mukkali, Mannarkkad Circle, Palakkad - 678582, Dist.Palakkad, Kerala",8045737270,
"Amezia Strech Marks Cream - Goodness of Shea Butter, Aloe Vera, Chamomile and Vit E",https://www.indiamart.com/proddetail/amezia-strech-marks-cream-goodness-of-shea-butter-aloe-vera-chamomile-and-vit-e-2850806857991.html?pos=123&kwd=stretch marks cream&tags=BB||||8307.81|Price|product|||NA|rsf:gd-|-stype:attr=1|qr_nm:gd|res:RC4|com-cf:nl|ptrs:na|ktp:SA1|mc:187301|mtp:S|qry_typ:P|lang:en|wc:3|cs:8956|v=4,Amezia Pharmaceutical Private Limited,https://www.indiamart.com/amezia-pharmaceuticals/?pos=123&kwd=stretch marks cream&tags=BB||||8307.81|Price|product|||NA|rsf:gd-|-stype:attr=1|qr_nm:gd|res:RC4|com-cf:nl|ptrs:na|ktp:SA1|mc:187301|mtp:S|qry_typ:P|lang:en|wc:3|cs:8956|v=4,False,,Pune,"Shop No-2 Yashoda residency Sadashiv Dangat Nagar,Ambegaon BK Shop No-2 Yashoda residency Sadashiv Dangat Nagar,Ambegaon BK, Pune - 411046, Dist.Pune, Maharashtra",7949313244,
Stretch Mark & Scars Meso Cocktail 5ml x 10 Ampoules,https://www.indiamart.com/proddetail/stretch-mark-scars-meso-cocktail-5ml-x-10-ampoules-2854626068497.html?pos=124&kwd=stretch marks cream&tags=BB||||8954.051|Price|product|||NA|rsf:gd-|-stype:attr=1|qr_nm:gd|res:RC4|com-cf:nl|ptrs:na|ktp:SA1|mc:187301|mtp:S|qry_typ:P|lang:en|wc:3|cs:8956|v=4,Derma Aesthetic Kart,https://www.indiamart.com/derma-aesthetic-kart/?pos=124&kwd=stretch marks cream&tags=BB||||8954.051|Price|product|||NA|rsf:gd-|-stype:attr=1|qr_nm:gd|res:RC4|com-cf:nl|ptrs:na|ktp:SA1|mc:187301|mtp:S|qry_typ:P|lang:en|wc:3|cs:8956|v=4,False,Mount Road,Chennai,"BR Complex, Woods Road, Mount Road Royapettah, Chennai, Tamil Nadu 600002, Mount Road, Chennai - 600002, Dist.Chennai, Tamil Nadu",8044016584,
"Mom stretchmark remove oil, Packaging Size: 100 mL",https://www.indiamart.com/proddetail/mom-stretchmark-remove-oil-2852978510548.html?pos=125&kwd=stretch marks cream&tags=BA||||10107.619|Price|product|||NA|rsf:gd-|-stype:attr=1|qr_nm:gd|res:RC4|com-cf:nl|ptrs:na|ktp:SA1|mc:187301|mtp:S|qry_typ:P|lang:en|wc:3|cs:8956|v=4,Himalaya Drug House,https://www.indiamart.com/himalayadrughouse/?pos=125&kwd=stretch marks cream&tags=BA||||10107.619|Price|product|||NA|rsf:gd-|-stype:attr=1|qr_nm:gd|res:RC4|com-cf:nl|ptrs:na|ktp:SA1|mc:187301|mtp:S|qry_typ:P|lang:en|wc:3|cs:8956|v=4,False,,Barpeta,"MURI BAZAR, A.S.T.C BUS STAND, Barpeta - 781315, Dist.Barpeta, Assam",8048617237,
"No Strech F Gel, Packaging Size: 100gm",https://www.indiamart.com/proddetail/no-strech-f-gel-23165576262.html?pos=126&kwd=stretch marks cream&tags=BB||||8769.508|Price|product|||NA|rsf:gd-|-stype:attr=1|qr_nm:gd|res:RC4|com-cf:nl|ptrs:na|ktp:SA1|mc:187301|mtp:S|qry_typ:P|lang:en|wc:3|cs:8956|v=4,Panacea Ayubal India,https://www.indiamart.com/panaceaayubalindia/?pos=126&kwd=stretch marks cream&tags=BB||||8769.508|Price|product|||NA|rsf:gd-|-stype:attr=1|qr_nm:gd|res:RC4|com-cf:nl|ptrs:na|ktp:SA1|mc:187301|mtp:S|qry_typ:P|lang:en|wc:3|cs:8956|v=4,False,Sector 37,Faridabad,"Shop No.1/2 Gurukul Industrial Area, Anangpur Road, Sector 37, Faridabad - 121003, Dist.Faridabad, Haryana",8048372621,913
Manne Quin's Stretch Mark Preventing Skin Oil,https://www.indiamart.com/proddetail/stretch-mark-preventing-skin-oil-21185035391.html?pos=127&kwd=stretch marks cream&tags=BB||||8130.3813|Price|product|||NA|rsf:gd-|-stype:attr=1|qr_nm:gd|res:RC4|com-cf:nl|ptrs:na|ktp:SA1|mc:187301|mtp:S|qry_typ:P|lang:en|wc:3|cs:8956|v=4,Parshvanath Ayuvedic Agency,https://www.indiamart.com/parshvanathayuvedicagency/?pos=127&kwd=stretch marks cream&tags=BB||||8130.3813|Price|product|||NA|rsf:gd-|-stype:attr=1|qr_nm:gd|res:RC4|com-cf:nl|ptrs:na|ktp:SA1|mc:187301|mtp:S|qry_typ:P|lang:en|wc:3|cs:8956|v=4,False,Salapose Road Gheekanta,Surendranagar,"0,NILKANTH SOCIETY,OPP CHAMUNDA PARK,JORAVARNAGAR 409, 4th Floor, Ratnamani Complex,380001,Ahmedabad, Salapose Road Gheekanta, Surendranagar - 363020, Dist.Surendra Nagar, Gujarat",8048263949,
"Body Creams Multiple Problem Solving Products Available Like Stretch Mark Cream, Underarm Cream Etc.",https://www.indiamart.com/proddetail/body-creams-multiple-problem-solving-products-available-like-stretch-mark-cream-underarm-cream-etc-2850592638030.html?pos=128&kwd=stretch marks cream&tags=BB||||8661.854|Price|product|||NA|rsf:gd-|-stype:attr=1|qr_nm:gd|res:RC4|com-cf:nl|ptrs:na|ktp:SA1|mc:187301|mtp:S|qry_typ:P|lang:en|wc:3|cs:8956|v=4,Natures Boon,https://www.indiamart.com/naturesboon/?pos=128&kwd=stretch marks cream&tags=BB||||8661.854|Price|product|||NA|rsf:gd-|-stype:attr=1|qr_nm:gd|res:RC4|com-cf:nl|ptrs:na|ktp:SA1|mc:187301|mtp:S|qry_typ:P|lang:en|wc:3|cs:8956|v=4,False,,Ludhiana,"01, Adj Near Brittanica International School, Pakhowal Road, Ludhiana - 142022, Dist.Ludhiana, Punjab",8047802573,
"ANTI STRIA CREAM, Tube, 50 gm",https://www.indiamart.com/proddetail/anti-stria-cream-2854170059912.html?pos=129&kwd=stretch marks cream&tags=BA||||8778.123|Price|product|||NA|rsf:gd-|-stype:attr=1|qr_nm:gd|res:RC4|com-cf:nl|ptrs:na|ktp:SA1|mc:187301|mtp:S|qry_typ:P|lang:en|wc:3|cs:8956|v=4,Plusplus Lifesciences Llp,https://www.indiamart.com/plusplus-lifesciences-llp/?pos=129&kwd=stretch marks cream&tags=BA||||8778.123|Price|product|||NA|rsf:gd-|-stype:attr=1|qr_nm:gd|res:RC4|com-cf:nl|ptrs:na|ktp:SA1|mc:187301|mtp:S|qry_typ:P|lang:en|wc:3|cs:8956|v=4,False,,Noida,"309a Sector -15a, Noida - 201301, Dist.Gautam Budh Nagar, Uttar Pradesh",8048370718,2365
Stretch Marks Cream,,Mohan Medical And Provision Stores,https://www.indiamart.com/mohan-medical-and-provision-stores/?pos=130&kwd=stretch marks cream&tags=BB||||8224.965|Price|product|||NA|rsf:gd-|-stype:attr=1|qr_nm:gd|res:RC4|com-cf:nl|ptrs:na|ktp:SA1|mc:187301|mtp:S|qry_typ:P|lang:en|wc:3|cs:8956|v=4,False,,Kalol,"Station Road Station Road Kalol Gandhinagar, Kalol - 382721, Dist.Gandhi Nagar, Gujarat",8048370721,5229
Erase All Stretch Marks Stretch Marks Eraser,,Meru Bio Herb Private Limited,https://www.indiamart.com/meru-bio-herb-private-limited/?pos=131&kwd=stretch marks cream&tags=BB||||8769.508||product|||NA|rsf:gd-|-stype:attr=1|qr_nm:gd|res:RC4|com-cf:nl|ptrs:na|ktp:SA1|mc:187301|mtp:S|qry_typ:P|lang:en|wc:3|cs:8956|v=4,False,Sainik Colony,Faridabad,"2524 , Sector-49 Sainik Colony, Sainik Colony, Faridabad - 121001, Dist.Faridabad, Haryana",8069728309,789
Stretch Marks and scar gel,,BM Enterprises,https://www.indiamart.com/ms-bm-enterprises-bhubaneswar/?pos=132&kwd=stretch marks cream&tags=BA||||9572.14|Price|product|||NA|rsf:gd-|-stype:attr=1|qr_nm:gd|res:RC4|com-cf:nl|ptrs:na|ktp:SA1|mc:187301|mtp:S|qry_typ:P|lang:en|wc:3|cs:8956|v=4,False,,Bhubaneswar,"Ashok Nagar Plot No -16 Ashok Nagar Ashok Nagar Bhubaneswar, Bhubaneswar - 751009, Dist.Khorda, Odisha",8043892803,
Mederma Stretch Marks Therapy 25gm,,Aisha Enterprises,https://www.indiamart.com/win-medicare-mederma/?pos=133&kwd=stretch marks cream&tags=BA||||8752.144|Price|product|||NA|rsf:gd-|-stype:attr=1|qr_nm:gd|res:RC4|com-cf:nl|ptrs:na|ktp:SA1|mc:187301|mtp:S|qry_typ:P|lang:en|wc:3|cs:8956|v=4,False,,New Delhi,"B-538 Kirari Suleman Nagar Prem Nagar Anand Nagar North West B-538, Prem Nagar, Kirari Suleman Nagar, Anand Nagar, North West Delhi, Delhi, 110086, New Delhi - 110086, Dist.Delhi, Delhi",8041013629,
Mederma Stretch Mark Cream,,Kumar Medicos,https://www.indiamart.com/kumarmedicos-kanpur/?pos=134&kwd=stretch marks cream&tags=BB||||9045.955||product|||NA|rsf:gd-|-stype:attr=1|qr_nm:gd|res:RC4|com-cf:nl|ptrs:na|ktp:SA1|mc:187301|mtp:S|qry_typ:P|lang:en|wc:3|cs:8956|v=4,False,,Kanpur,"No. 79, Express Road, Kanpur Nagar, Kanpur - 208001, Uttar Pradesh",8043824080,
phade stretch mark cream,,Phade India Private Limited,https://www.indiamart.com/phade-india-private-limited/?pos=135&kwd=stretch marks cream&tags=BA||||8228.275||product|||NA|rsf:gd-|-stype:attr=1|qr_nm:gd|res:RC4|com-cf:nl|ptrs:na|ktp:SA1|mc:187301|mtp:S|qry_typ:P|lang:en|wc:3|cs:8956|v=4,False,Prahladnagar,Ahmedabad,"E-911 Near Sachin Tower,anand Nagar Road,100 Feet Road Titanium City Center Jodhpur, Prahladnagar, Ahmedabad - 380015, Dist.Ahmedabad, Gujarat",8069017233,545
Stretch Mark Removal Cream,,Parth Organic,https://www.indiamart.com/parth-organic-nashik/?pos=136&kwd=stretch marks cream&tags=BB||||8316.457|Price|product|||NA|rsf:gd-|-stype:attr=1|qr_nm:gd|res:RC4|com-cf:nl|ptrs:na|ktp:SA1|mc:187301|mtp:S|qry_typ:P|lang:en|wc:3|cs:8956|v=4,False,Dwarka,Nashik,"Nafis Apartme Plot No.1, Maniksha Nagar, Dwarka, Nashik - 422001, Dist.Nashik, Maharashtra",8047518899,
Shine Anti Stretch Mark Cream,,Shine Industries,https://www.indiamart.com/shine-industries-pimpri-chinchwad/?pos=137&kwd=stretch marks cream&tags=BB||||8291.839|Price|product|||NA|rsf:gd-|-stype:attr=1|qr_nm:gd|res:RC4|com-cf:nl|ptrs:na|ktp:SA1|mc:187301|mtp:S|qry_typ:P|lang:en|wc:3|cs:8956|v=4,False,,Talegaon Dabhade,"A-407,Happy City,dnyaneshwar Nagar,Talegaon Dabhade A-407,Happy City,dnyaneshwar Nagar,Talegaon Dabhade,410506,, Talegaon Dabhade - 410506, Dist.Pune, Maharashtra",8048372974,5128
Stretch Mark Oil,,HD Online Mart,https://www.indiamart.com/h-d-onlinemart/?pos=138&kwd=stretch marks cream&tags=BB||||8230.883|Price|product|||NA|rsf:gd-|-stype:attr=1|qr_nm:gd|res:RC4|com-cf:nl|ptrs:na|ktp:SA1|mc:187301|mtp:S|qry_typ:P|lang:en|wc:3|cs:8956|v=4,False,,Surat,"A 28, C H Park Society, Sarthana, Jakatnaka,, Surat - 395006, Dist.Surat, Gujarat",8043810235,
Anti Stretch Mark,,Orco Life Sciences,https://www.indiamart.com/orco-life-sciences-pvt-ltd/?pos=139&kwd=stretch marks cream&tags=BB||||8558.792||product|||NA|rsf:gd-|-stype:attr=1|qr_nm:gd|res:RC4|com-cf:nl|ptrs:na|ktp:SA1|mc:187301|mtp:S|qry_typ:P|lang:en|wc:3|cs:8956|v=4,False,Sanwer,Sanwer,"AJNOD ROAD,Reliance Tower,,SANWER Ajnod Road,452007,Indore, Sanwer, Sanwer - 453551, Dist.Indore, Madhya Pradesh",8062245089,438
NO STRETCH F GEL,,Panacea Ayubal India,https://www.indiamart.com/panacea-ayubal-india/?pos=140&kwd=stretch marks cream&tags=B||||8964.4795|Price|product|||NA|rsf:gd-|-stype:attr=1|qr_nm:gd|res:RC4|com-cf:nl|ptrs:na|ktp:SA1|mc:187301|mtp:S|qry_typ:P|lang:en|wc:3|cs:8956|v=4,False,Bhaesen,Auraiya,"H. No. 26 Near Lala Ki Dukan, Bhaesen, Auraiya - 206122, Dist.Auraiya, Uttar Pradesh",8048250561,725
Skaar Try SM,,Shree Enterprise,https://www.indiamart.com/shreeenterprises-20263239/?pos=141&kwd=stretch marks cream&tags=BB||||8038.093||product|||NA|rsf:gd-|-stype:attr=1|qr_nm:gd|res:RC4|com-cf:nl|ptrs:na|ktp:SA1|mc:187301|mtp:S|qry_typ:P|lang:en|wc:3|cs:8956|v=4,False,,Rajkot,"Shreeji Park, 1 St Floor, Nr. Vikram Marble, Raiya Road, Rajkot - 360005, Dist.Rajkot, Gujarat",8048372404,465
Stretch Marks Cream,,Marss Harbals(India),https://www.indiamart.com/aayurvedik-harbal/?pos=142&kwd=stretch marks cream&tags=BB||||8228.275|Price|product|||NA|rsf:gd-|-stype:attr=1|qr_nm:gd|res:RC4|com-cf:nl|ptrs:na|ktp:SA1|mc:187301|mtp:S|qry_typ:P|lang:en|wc:3|cs:8956|v=4,False,,Ahmedabad,"Verai Estate N.H.No.8 Verai Estate Nr.Basf Company,Aslali NR.BASF COMPANY, ASLALI,GUJARAT,, Ahmedabad - 382427, Dist.Ahmedabad, Gujarat",8048372565,824
Stretch Marks Cream,https://www.indiamart.com/proddetail/stretch-marks-cream-2852996265491.html?pos=143&kwd=stretch marks cream&tags=||||8732.092|Price|product|||MDC|rsf:gd-|-stype:attr=1|qr_nm:gd|res:RC4|com-cf:nl|ptrs:na|ktp:SA1|mc:187301|mtp:S|qry_typ:P|lang:en|wc:3|cs:8956|v=4,Ascennza Wellness Private Limited,https://www.indiamart.com/ascennza-wellness/?pos=143&kwd=stretch marks cream&tags=||||8732.092|Price|product|||MDC|rsf:gd-|-stype:attr=1|qr_nm:gd|res:RC4|com-cf:nl|ptrs:na|ktp:SA1|mc:187301|mtp:S|qry_typ:P|lang:en|wc:3|cs:8956|v=4,False,Imt Manesar,Manesar,"First Floor, Plot No. 103, Ascennza Wellness Private Limited, Sector 6, Imt Manesar, OPP. Geeken Company, Manesar, Gurugram,, Imt Manesar, Manesar - 122050, Dist.Gurgaon, Haryana",7942967189,
"Best Quality Stretch Marks Removal oil 15ml, For 1-2 Time Use Every Day",https://www.indiamart.com/proddetail/stretch-marks-removal-oil-15ml-2851860364830.html?pos=144&kwd=stretch marks cream&tags=CC||||8752.144|Price|product|||TS|rsf:gd-|-stype:attr=1|qr_nm:gd|res:RC4|com-cf:nl|ptrs:na|ktp:SA1|mc:187301|mtp:S|qry_typ:P|lang:en|wc:3|cs:8956|v=4,TKF Industries,https://www.tkfindustries.com/?pos=144&kwd=stretch marks cream&tags=CC||||8752.144|Price|product|||TS|rsf:gd-|-stype:attr=1|qr_nm:gd|res:RC4|com-cf:nl|ptrs:na|ktp:SA1|mc:187301|mtp:S|qry_typ:P|lang:en|wc:3|cs:8956|v=4,False,Patparganj,New Delhi,"B-71 Block B,, Patparganj, New Delhi - 110092, Dist.Delhi, Delhi",8043890723,
Young Chemist Herbal Stretch Mark Relief Massage Oil,https://www.indiamart.com/proddetail/stretch-mark-relief-massage-oil-26536577188.html?pos=145&kwd=stretch marks cream&tags=CC||||8228.275|Price|product|||TS|rsf:gd-|-stype:attr=1|qr_nm:gd|res:RC4|com-cf:nl|ptrs:na|ktp:SA1|mc:187301|mtp:S|qry_typ:P|lang:en|wc:3|cs:8956|v=4,Young Chemist Private Limited,https://www.indiamart.com/youngchemist/?pos=145&kwd=stretch marks cream&tags=CC||||8228.275|Price|product|||TS|rsf:gd-|-stype:attr=1|qr_nm:gd|res:RC4|com-cf:nl|ptrs:na|ktp:SA1|mc:187301|mtp:S|qry_typ:P|lang:en|wc:3|cs:8956|v=4,False,Moraiya,Ahmedabad,"Unit No.134,135,136,173 & 174, 8-A, Chacharvadi Gam Road, Shivam Industrial Park, Opp. Sarvoday Hotel, Moraiya National High-Way, Pharmez,, Moraiya, Ahmedabad - 382213, Dist.Ahmedabad, Gujarat",8043853366,
"Asclepius Exe Comfort Oil, Combination Skin",https://www.indiamart.com/proddetail/asclepius-exe-comfort-oil-2854534495962.html?pos=146&kwd=stretch marks cream&tags=CC||||8624.416|Price|product|||MDC|rsf:gd-|-stype:attr=1|qr_nm:gd|res:RC4|com-cf:nl|ptrs:na|ktp:SA1|mc:187301|mtp:S|qry_typ:P|lang:en|wc:3|cs:8956|v=4,Shree Krishna Health And Welness Kendra,https://www.indiamart.com/shreekrishnahealthwelnesskendra/?pos=146&kwd=stretch marks cream&tags=CC||||8624.416|Price|product|||MDC|rsf:gd-|-stype:attr=1|qr_nm:gd|res:RC4|com-cf:nl|ptrs:na|ktp:SA1|mc:187301|mtp:S|qry_typ:P|lang:en|wc:3|cs:8956|v=4,False,,Hisar,"941/1, Gali No 3, Near Chahal Bhawan, Mahavir Colony, Hisar - 125001, Dist.Hisar, Haryana",7949325325,
"Finished Product Liquid Stretch Marks Cream, For Personal",https://www.indiamart.com/proddetail/stretch-marks-cream-15997473712.html?pos=147&kwd=stretch marks cream&tags=CC||||8785.608|Price|product|||TS|rsf:gd-|-stype:attr=1|qr_nm:gd|res:RC4|com-cf:nl|ptrs:na|ktp:SA1|mc:187301|mtp:S|qry_typ:P|lang:en|wc:3|cs:8956|v=4,Biochemix Healthcare Private Limited,https://www.biochemix.net/?pos=147&kwd=stretch marks cream&tags=CC||||8785.608|Price|product|||TS|rsf:gd-|-stype:attr=1|qr_nm:gd|res:RC4|com-cf:nl|ptrs:na|ktp:SA1|mc:187301|mtp:S|qry_typ:P|lang:en|wc:3|cs:8956|v=4,False,Tilak Nagar,Yamuna Nagar,"SCO 54, Bank Colony, Tilak Nagar, Yamuna Nagar - 135001, Dist.Yamuna Nagar, Haryana",8047631721,
Women Brown STRETCH MARKS REMOVAL CREAM,https://www.indiamart.com/proddetail/stretch-marks-removal-cream-22879703297.html?pos=148&kwd=stretch marks cream&tags=CC||||8752.144|Price|product|||TS|rsf:gd-|-stype:attr=1|qr_nm:gd|res:RC4|com-cf:nl|ptrs:na|ktp:SA1|mc:187301|mtp:S|qry_typ:P|lang:en|wc:3|cs:8956|v=4,Akshay Enterprises,https://www.usayvhave.com/?pos=148&kwd=stretch marks cream&tags=CC||||8752.144|Price|product|||TS|rsf:gd-|-stype:attr=1|qr_nm:gd|res:RC4|com-cf:nl|ptrs:na|ktp:SA1|mc:187301|mtp:S|qry_typ:P|lang:en|wc:3|cs:8956|v=4,False,Chandni Chowk,New Delhi,"No. 1238, 2nd Floor, Rang Mahal, Near Novelty Cinema Old Delhi, Chandni Chowk, New Delhi - 110006, Dist.Delhi, Delhi",8048962327,
"Herbal Anti Stretch Marks, For 3 Times A Day, Normal Skin",https://www.indiamart.com/proddetail/anti-stretch-marks-25517264491.html?pos=149&kwd=stretch marks cream&tags=CC||||8752.144|Price|product|||TS|rsf:gd-|-stype:attr=1|qr_nm:gd|res:RC4|com-cf:nl|ptrs:na|ktp:SA1|mc:187301|mtp:S|qry_typ:P|lang:en|wc:3|cs:8956|v=4,Care Cart,https://www.ayudivaherbals.in/?pos=149&kwd=stretch marks cream&tags=CC||||8752.144|Price|product|||TS|rsf:gd-|-stype:attr=1|qr_nm:gd|res:RC4|com-cf:nl|ptrs:na|ktp:SA1|mc:187301|mtp:S|qry_typ:P|lang:en|wc:3|cs:8956|v=4,False,Kalkaji,New Delhi,"Flat No. J-1/5, Dda Flats, Kalkaji, Kalkaji, New Delhi - 110019, Dist.Delhi, Delhi",8046042040,
LipoCare B20 Anti Stretch Marks,https://www.indiamart.com/proddetail/lipocare-b20-anti-stretch-marks-22264089748.html?pos=150&kwd=stretch marks cream&tags=CC||||8752.144||product|||TS|rsf:gd-|-stype:attr=1|qr_nm:gd|res:RC4|com-cf:nl|ptrs:na|ktp:SA1|mc:187301|mtp:S|qry_typ:P|lang:en|wc:3|cs:8956|v=4,Baba Enterprises,https://www.babaenterprisesind.com/?pos=150&kwd=stretch marks cream&tags=CC||||8752.144||product|||TS|rsf:gd-|-stype:attr=1|qr_nm:gd|res:RC4|com-cf:nl|ptrs:na|ktp:SA1|mc:187301|mtp:S|qry_typ:P|lang:en|wc:3|cs:8956|v=4,False,Shalimar Bagh,New Delhi,"Bm- 30 West, Basement Floor, Shalimar Bagh, Shalimar Bagh, New Delhi - 110088, Dist.Delhi, Delhi",8048989896,
"Stretch Marks Relief Face Cream Third Party Manufacturing Service, Packaging Size: 50 Gm",https://www.indiamart.com/proddetail/stretch-marks-relief-face-cream-third-party-manufacturing-service-25566337091.html?pos=151&kwd=stretch marks cream&tags=CC||||8788.382|Price|product|||TS|rsf:gd-|-stype:attr=1|qr_nm:gd|res:RC4|com-cf:nl|ptrs:na|ktp:SA1|mc:187301|mtp:S|qry_typ:P|lang:en|wc:3|cs:8956|v=4,Vigsons Healthcare India LLP,https://www.vigsonshealthcare.com/?pos=151&kwd=stretch marks cream&tags=CC||||8788.382|Price|product|||TS|rsf:gd-|-stype:attr=1|qr_nm:gd|res:RC4|com-cf:nl|ptrs:na|ktp:SA1|mc:187301|mtp:S|qry_typ:P|lang:en|wc:3|cs:8956|v=4,False,Sector Swarn Nagri,Greater Noida,"H051, Site 5, Kasna Ind Area Greater Noida, Gautam Budh Nagar Greater Noida, Sector Swarn Nagri, Greater Noida - 201308, Dist.Gautam Budh Nagar, Uttar Pradesh",8047652030,
"Anti Stretch Mark Cream, Skin Type: Dry Skin",https://www.indiamart.com/proddetail/anti-stretch-mark-cream-2853951810130.html?pos=152&kwd=stretch marks cream&tags=CC||||8211.142|Price|product|||TS|rsf:gd-|-stype:attr=1|qr_nm:gd|res:RC4|com-cf:nl|ptrs:na|ktp:SA1|mc:187301|mtp:S|qry_typ:P|lang:en|wc:3|cs:8956|v=4,P.B.P Enterprises Private Limited,https://www.prakashbiopharma.org/?pos=152&kwd=stretch marks cream&tags=CC||||8211.142|Price|product|||TS|rsf:gd-|-stype:attr=1|qr_nm:gd|res:RC4|com-cf:nl|ptrs:na|ktp:SA1|mc:187301|mtp:S|qry_typ:P|lang:en|wc:3|cs:8956|v=4,True,Dadar,Mumbai,"GRD Floor, Plot-65, Shop No-10, Ganpati Bhuvan, B.J Devrukhkar Road, Mahatma Jyotiba Phule Road Dadar East, Dadar, Mumbai - 400014, Dist.Mumbai, Maharashtra",8046073881,
Strechmin Stretch Mark Cream,https://www.indiamart.com/proddetail/strechmin-stretch-mark-cream-2854407074091.html?pos=153&kwd=stretch marks cream&tags=CC||||8601.347|Price|product|||TS|rsf:gd-|-stype:attr=1|qr_nm:gd|res:RC4|com-cf:nl|ptrs:na|ktp:SA1|mc:187301|mtp:S|qry_typ:P|lang:en|wc:3|cs:8956|v=4,Ratnesh Medical Agency,https://www.ratneshmedical.in/?pos=153&kwd=stretch marks cream&tags=CC||||8601.347|Price|product|||TS|rsf:gd-|-stype:attr=1|qr_nm:gd|res:RC4|com-cf:nl|ptrs:na|ktp:SA1|mc:187301|mtp:S|qry_typ:P|lang:en|wc:3|cs:8956|v=4,False,Bavri,Jaipur,"Kalyan Mension Badwar Market, Chaura Rasta, Bavri, Jaipur - 302003, Dist.Jaipur, Rajasthan",8047637543,
"Dr james stretch mark cream, For Personal Use, Packaging Size: 200 mL",https://www.indiamart.com/proddetail/dr-james-stretch-mark-cream-2852954815112.html?pos=154&kwd=stretch marks cream&tags=CC||||8752.144|Price|product|||TS|rsf:gd-|-stype:attr=1|qr_nm:gd|res:RC4|com-cf:nl|ptrs:na|ktp:SA1|mc:187301|mtp:S|qry_typ:P|lang:en|wc:3|cs:8956|v=4,Instyle International,https://www.indiamart.com/instyle-international/?pos=154&kwd=stretch marks cream&tags=CC||||8752.144|Price|product|||TS|rsf:gd-|-stype:attr=1|qr_nm:gd|res:RC4|com-cf:nl|ptrs:na|ktp:SA1|mc:187301|mtp:S|qry_typ:P|lang:en|wc:3|cs:8956|v=4,False,Indraprastha Extension,New Delhi,"Third Floor, 9B, Office No. 301 C, Pandav Nagar, Pandav Nagar, Indraprastha Extension, New Delhi - 110092, Dist.Delhi, Delhi",7942844052,
Stretch Mark Cream Third Party Manufacturing,https://www.indiamart.com/proddetail/stretch-mark-cream-third-party-manufacturing-2854253205348.html?pos=155&kwd=stretch marks cream&tags=CC||||8744.016|Price|product|||TS|rsf:gd-|-stype:attr=1|qr_nm:gd|res:RC4|com-cf:nl|ptrs:na|ktp:SA1|mc:187301|mtp:S|qry_typ:P|lang:en|wc:3|cs:8956|v=4,Signze Healthcare,https://www.indiamart.com/signzehealthcare/?pos=155&kwd=stretch marks cream&tags=CC||||8744.016|Price|product|||TS|rsf:gd-|-stype:attr=1|qr_nm:gd|res:RC4|com-cf:nl|ptrs:na|ktp:SA1|mc:187301|mtp:S|qry_typ:P|lang:en|wc:3|cs:8956|v=4,False,Gorakh Nath,Nalagarh,"Aakash Nagarh Peersthan,Kalka Baddi Road,Nalagarh, Gorakh Nath, Nalagarh - 174101, Dist.Solan, Himachal Pradesh",8048600808,
Stretch Mark Removal Cream With Safe Formula,https://www.indiamart.com/proddetail/stretch-mark-removal-cream-with-safe-formula-2852487271197.html?pos=156&kwd=stretch marks cream&tags=CC||||8752.144|Price|product|||TS|rsf:gd-|-stype:attr=1|qr_nm:gd|res:RC4|com-cf:nl|ptrs:na|ktp:SA1|mc:187301|mtp:S|qry_typ:P|lang:en|wc:3|cs:8956|v=4,First Secret Private Limited,https://www.indiamart.com/first-secret/?pos=156&kwd=stretch marks cream&tags=CC||||8752.144|Price|product|||TS|rsf:gd-|-stype:attr=1|qr_nm:gd|res:RC4|com-cf:nl|ptrs:na|ktp:SA1|mc:187301|mtp:S|qry_typ:P|lang:en|wc:3|cs:8956|v=4,False,Kondli,New Delhi,"PKT-B Sec-G Flat No. 282 Mig Flat Mayur Vihar Ph-iii New Delhi East, Kondli, New Delhi - 110096, Dist.Delhi, Delhi",7942722991,
Ayurvedic stretch mark oil,https://www.indiamart.com/proddetail/ayurvedic-stretch-mark-oil-2852036732397.html?pos=157&kwd=stretch marks cream&tags=CC||||8725.757|Price|product|||TS|rsf:gd-|-stype:attr=1|qr_nm:gd|res:RC4|com-cf:nl|ptrs:na|ktp:SA1|mc:187301|mtp:S|qry_typ:P|lang:en|wc:3|cs:8956|v=4,Mefoh Healthcare,https://www.mefohhealthcare.co.in/?pos=157&kwd=stretch marks cream&tags=CC||||8725.757|Price|product|||TS|rsf:gd-|-stype:attr=1|qr_nm:gd|res:RC4|com-cf:nl|ptrs:na|ktp:SA1|mc:187301|mtp:S|qry_typ:P|lang:en|wc:3|cs:8956|v=4,False,Raipur Khurd,Rupnagar,"Plot No 779 JLPL, Raipur Khurd, Rupnagar - 140308, Dist.Rupnagar, Punjab",7942820359,
"Night Stretch Mark Removal Spray, For Personal, Packaging Size: 30 Ml",https://www.indiamart.com/proddetail/stretch-mark-removal-spray-6872707955.html?pos=158&kwd=stretch marks cream&tags=CC||||8988.045|Price|product|||TS|rsf:gd-|-stype:attr=1|qr_nm:gd|res:RC4|com-cf:nl|ptrs:na|ktp:SA1|mc:187301|mtp:S|qry_typ:P|lang:en|wc:3|cs:8956|v=4,Kripa Pharma,https://www.indiamart.com/kripapharma/?pos=158&kwd=stretch marks cream&tags=CC||||8988.045|Price|product|||TS|rsf:gd-|-stype:attr=1|qr_nm:gd|res:RC4|com-cf:nl|ptrs:na|ktp:SA1|mc:187301|mtp:S|qry_typ:P|lang:en|wc:3|cs:8956|v=4,False,MOTAHALDU,Nainital,"Mahaveer Industrial Estate, Village Padlipur, PO Motahaldu, MOTAHALDU, Nainital - 263144, Dist.Nainital, Uttarakhand",8046051518,
Stretch Marks Cream,https://www.indiamart.com/proddetail/stretch-marks-cream-2854753789273.html?pos=159&kwd=stretch marks cream&tags=CC||||8752.144||product|||MDC|rsf:gd-|-stype:attr=1|qr_nm:gd|res:RC4|com-cf:nl|ptrs:na|ktp:SA1|mc:187301|mtp:S|qry_typ:P|lang:en|wc:3|cs:8956|v=4,Arbro Pharmaceuticals Private Limited,https://www.indiamart.com/arbro-pharmaceuticalsnewdelhi/?pos=159&kwd=stretch marks cream&tags=CC||||8752.144||product|||MDC|rsf:gd-|-stype:attr=1|qr_nm:gd|res:RC4|com-cf:nl|ptrs:na|ktp:SA1|mc:187301|mtp:S|qry_typ:P|lang:en|wc:3|cs:8956|v=4,False,,New Delhi,"6/14, Kirti Nagar, Industrial Area,, New Delhi - 110015, Dist.Delhi, Delhi",8044457832,
Stretch Marks Cream,https://www.indiamart.com/proddetail/stretch-marks-cream-2854247740073.html?pos=160&kwd=stretch marks cream&tags=CC||||8741.987|Price|product|||MDC|rsf:gd-|-stype:attr=1|qr_nm:gd|res:RC4|com-cf:nl|ptrs:na|ktp:SA1|mc:187301|mtp:S|qry_typ:P|lang:en|wc:3|cs:8956|v=4,K.H Company,https://www.indiamart.com/kh-company/?pos=160&kwd=stretch marks cream&tags=CC||||8741.987|Price|product|||MDC|rsf:gd-|-stype:attr=1|qr_nm:gd|res:RC4|com-cf:nl|ptrs:na|ktp:SA1|mc:187301|mtp:S|qry_typ:P|lang:en|wc:3|cs:8956|v=4,False,Mahesh Nagar,Ambala,"505, Pooja Vihar, Cantt,, Mahesh Nagar, Ambala - 133001, Dist.Ambala, Haryana",7942842959,
"Aqua, Glycerin, Centella, Asiatica, Dimethcone HYPOSCAR STRETCH MARK CREAM",https://www.indiamart.com/proddetail/aqua-glycerin-centella-asiatica-dimethcone-hyposcar-stretch-mark-cream-2851898053591.html?pos=161&kwd=stretch marks cream&tags=CC||||8663.873|Price|product|||TS|rsf:gd-|-stype:attr=1|qr_nm:gd|res:RC4|com-cf:nl|ptrs:na|ktp:SA1|mc:187301|mtp:S|qry_typ:P|lang:en|wc:3|cs:8956|v=4,Intra Life Private Limited,https://www.intralifeindia.in/?pos=161&kwd=stretch marks cream&tags=CC||||8663.873|Price|product|||TS|rsf:gd-|-stype:attr=1|qr_nm:gd|res:RC4|com-cf:nl|ptrs:na|ktp:SA1|mc:187301|mtp:S|qry_typ:P|lang:en|wc:3|cs:8956|v=4,False,Banashankari Stage 3 Kaveri Nagar,Bengaluru,"61/c 7th Block, Bsk, 3rd Stage 6th Main Road, 4th Phase Bangalore Bengaluru Urban, Banashankari Stage 3 Kaveri Nagar, Bengaluru - 560085, Dist.Bengaluru, Karnataka",8043859511,
PREGNACREAM (Prevents & Reduces Stretch Marks),https://www.indiamart.com/proddetail/pregnacream-prevents-reduces-stretch-marks-2850042934462.html?pos=162&kwd=stretch marks cream&tags=CC||||8211.142|Price|product|||TS|rsf:gd-|-stype:attr=1|qr_nm:gd|res:RC4|com-cf:nl|ptrs:na|ktp:SA1|mc:187301|mtp:S|qry_typ:P|lang:en|wc:3|cs:8956|v=4,AMARI TRADE ALLIANCE LLP,https://www.indiamart.com/amari-trade-alliance/?pos=162&kwd=stretch marks cream&tags=CC||||8211.142|Price|product|||TS|rsf:gd-|-stype:attr=1|qr_nm:gd|res:RC4|com-cf:nl|ptrs:na|ktp:SA1|mc:187301|mtp:S|qry_typ:P|lang:en|wc:3|cs:8956|v=4,False,Lower Parel West,Mumbai,"206, Parvati Industrial Estate New Sun Mill Compund, Sitaram Jadhav Road, Lower Parel West, Mumbai - 400013, Dist.Mumbai, Maharashtra",8046039085,
silicone stretch mark remover stomach patches,https://www.indiamart.com/proddetail/silicone-stretch-mark-remover-stomach-patches-2854294479388.html?pos=163&kwd=stretch marks cream&tags=CC||||8624.416|Price|product|||TS|rsf:gd-|-stype:attr=1|qr_nm:gd|res:RC4|com-cf:nl|ptrs:na|ktp:SA1|mc:187301|mtp:S|qry_typ:P|lang:en|wc:3|cs:8956|v=4,Krishna Enterprises,https://www.krishna-enterprisesindia.com/?pos=163&kwd=stretch marks cream&tags=CC||||8624.416|Price|product|||TS|rsf:gd-|-stype:attr=1|qr_nm:gd|res:RC4|com-cf:nl|ptrs:na|ktp:SA1|mc:187301|mtp:S|qry_typ:P|lang:en|wc:3|cs:8956|v=4,False,Sector 13,Hisar,"H No 1607, Sector 13,, Sector 13, Hisar - 125001, Dist.Hisar, Haryana",8047676370,
"Pregnancy Stretch Marks Cream, For External Usage",https://www.indiamart.com/proddetail/pregnancy-stretch-marks-cream-2852994675988.html?pos=164&kwd=stretch marks cream&tags=CC||||8230.883|Price|product|||MDC|rsf:gd-|-stype:attr=1|qr_nm:gd|res:RC4|com-cf:nl|ptrs:na|ktp:SA1|mc:187301|mtp:S|qry_typ:P|lang:en|wc:3|cs:8956|v=4,Kaveer Enterprise,https://www.indiamart.com/kaveerenterprise/?pos=164&kwd=stretch marks cream&tags=CC||||8230.883|Price|product|||MDC|rsf:gd-|-stype:attr=1|qr_nm:gd|res:RC4|com-cf:nl|ptrs:na|ktp:SA1|mc:187301|mtp:S|qry_typ:P|lang:en|wc:3|cs:8956|v=4,False,Rustampura,Surat,"2/594, Rustampura Surmawad, Near Rathi Clinic, Udhna Darwaja, Rustampura, Surat - 395002, Dist.Surat, Gujarat",8048264132,
Mediderma Stretch Marks Cream,https://www.indiamart.com/proddetail/mediderma-stretch-marks-cream-2854492515162.html?pos=165&kwd=stretch marks cream&tags=CC||||8723.301|Price|product|||MDC|rsf:gd-|-stype:attr=1|qr_nm:gd|res:RC4|com-cf:nl|ptrs:na|ktp:SA1|mc:187301|mtp:S|qry_typ:P|lang:en|wc:3|cs:8956|v=4,Skin Kare Associates,https://www.indiamart.com/skin-kare-associates/?pos=165&kwd=stretch marks cream&tags=CC||||8723.301|Price|product|||MDC|rsf:gd-|-stype:attr=1|qr_nm:gd|res:RC4|com-cf:nl|ptrs:na|ktp:SA1|mc:187301|mtp:S|qry_typ:P|lang:en|wc:3|cs:8956|v=4,False,Hamidia Road,Bhopal,"Plot No 26 L-13 And 14 Lalwani Complex, Hamidia Road, Bhopal - 462001, Dist.Bhopal, Madhya Pradesh",7949324895,
"Stretch Marks Removal Cream , Stretch Mark Cream , Stretch Mark , Stretch Marks Oil",https://www.indiamart.com/proddetail/stretch-marks-removal-cream-stretch-mark-cream-stretch-mark-stretch-marks-oil-2854388550273.html?pos=166&kwd=stretch marks cream&tags=CC||||8752.144|Price|product|||MDC|rsf:gd-|-stype:attr=1|qr_nm:gd|res:RC4|com-cf:nl|ptrs:na|ktp:SA1|mc:187301|mtp:S|qry_typ:P|lang:en|wc:3|cs:8956|v=4,Rajni Enterprise,https://www.indiamart.com/rajni-enterprise-delhi/?pos=166&kwd=stretch marks cream&tags=CC||||8752.144|Price|product|||MDC|rsf:gd-|-stype:attr=1|qr_nm:gd|res:RC4|com-cf:nl|ptrs:na|ktp:SA1|mc:187301|mtp:S|qry_typ:P|lang:en|wc:3|cs:8956|v=4,False,,New Delhi,"Village-Rajokari, South West Delhi, New Delhi - 110037, Dist.Delhi, Delhi",8044560621,
Mederma Stretch Marks Therapy Cream,https://www.indiamart.com/proddetail/mederma-stretch-marks-therapy-cream-2853867186888.html?pos=167&kwd=stretch marks cream&tags=CC||||8752.144|Price|product|||MDC|rsf:gd-|-stype:attr=1|qr_nm:gd|res:RC4|com-cf:nl|ptrs:na|ktp:SA1|mc:187301|mtp:S|qry_typ:P|lang:en|wc:3|cs:8956|v=4,C.S. Pharma,https://www.indiamart.com/cs-pharma/?pos=167&kwd=stretch marks cream&tags=CC||||8752.144|Price|product|||MDC|rsf:gd-|-stype:attr=1|qr_nm:gd|res:RC4|com-cf:nl|ptrs:na|ktp:SA1|mc:187301|mtp:S|qry_typ:P|lang:en|wc:3|cs:8956|v=4,False,Haidarpur,New Delhi,"1, 34-A, Haidarpur Main Road, North West Delhi, Haidarpur, New Delhi - 110088, Dist.Delhi, Delhi",8044011639,
"Lexi Anti Mark Cream, For Personal, Pack Size: 30 Gm",https://www.indiamart.com/proddetail/lexi-anti-mark-cream-11676954030.html?pos=168&kwd=stretch marks cream&tags=CC||||8281.036||product|||TS|rsf:gd-|-stype:attr=1|qr_nm:gd|res:RC4|com-cf:nl|ptrs:na|ktp:SA1|mc:187301|mtp:S|qry_typ:P|lang:en|wc:3|cs:8956|v=4,Akhil Healthcare Private Limited,https://www.indiamart.com/akhilhealthcare/?pos=168&kwd=stretch marks cream&tags=CC||||8281.036||product|||TS|rsf:gd-|-stype:attr=1|qr_nm:gd|res:RC4|com-cf:nl|ptrs:na|ktp:SA1|mc:187301|mtp:S|qry_typ:P|lang:en|wc:3|cs:8956|v=4,True,Kadak Bazar,Vadodara,"No. 205/206, B. B. C. Tower, Kadak Bazar, Vadodara - 390005, Dist.Vadodara, Gujarat",8046060620,
"Liquid Palmer's Cocoa Butter Stretch Mark Cream, Type Of Packaging: Bottle, Packaging Size: 250 ml",https://www.indiamart.com/proddetail/palmer-s-cocoa-butter-stretch-mark-cream-25262050012.html?pos=169&kwd=stretch marks cream&tags=CC||||8741.812|Price|product|||MDC|rsf:gd-|-stype:attr=1|qr_nm:gd|res:RC4|com-cf:nl|ptrs:na|ktp:SA1|mc:187301|mtp:S|qry_typ:P|lang:en|wc:3|cs:8956|v=4,Aar Dee Distribution House,https://www.indiamart.com/aardee-distribution-house/?pos=169&kwd=stretch marks cream&tags=CC||||8741.812|Price|product|||MDC|rsf:gd-|-stype:attr=1|qr_nm:gd|res:RC4|com-cf:nl|ptrs:na|ktp:SA1|mc:187301|mtp:S|qry_typ:P|lang:en|wc:3|cs:8956|v=4,False,Moti Vihar,Gurgaon,"K-50, South City-1,, Moti Vihar, Gurgaon - 122001, Dist.Gurgaon, Haryana",8048264071,
Stretch Marks Removal Oil,https://www.indiamart.com/proddetail/stretch-marks-removal-oil-2853895840855.html?pos=170&kwd=stretch marks cream&tags=CC||||8230.883|Price|product|||MDC|rsf:gd-|-stype:attr=1|qr_nm:gd|res:RC4|com-cf:nl|ptrs:na|ktp:SA1|mc:187301|mtp:S|qry_typ:P|lang:en|wc:3|cs:8956|v=4,A M Sales,https://www.indiamart.com/am-sales-surat/?pos=170&kwd=stretch marks cream&tags=CC||||8230.883|Price|product|||MDC|rsf:gd-|-stype:attr=1|qr_nm:gd|res:RC4|com-cf:nl|ptrs:na|ktp:SA1|mc:187301|mtp:S|qry_typ:P|lang:en|wc:3|cs:8956|v=4,False,Ranchod Nagar,Surat,"Plot No. 74, Ground Floor, Ranchod Nagar, Near Kailash Chokdi, Bamroli, Ranchod Nagar, Surat - 395008, Dist.Surat, Gujarat",7942956130,
Herbal Stretch Mark Cream,https://www.indiamart.com/proddetail/stretch-mark-cream-13101187612.html?pos=171&kwd=stretch marks cream&tags=CC||||8954.051|Price|product|||MDC|rsf:gd-|-stype:attr=1|qr_nm:gd|res:RC4|com-cf:nl|ptrs:na|ktp:SA1|mc:187301|mtp:S|qry_typ:P|lang:en|wc:3|cs:8956|v=4,Nazma Exports,https://www.indiamart.com/nazmaexports/?pos=171&kwd=stretch marks cream&tags=CC||||8954.051|Price|product|||MDC|rsf:gd-|-stype:attr=1|qr_nm:gd|res:RC4|com-cf:nl|ptrs:na|ktp:SA1|mc:187301|mtp:S|qry_typ:P|lang:en|wc:3|cs:8956|v=4,False,Tiruvottiyur,Chennai,"No. 43/10, Malligapuram Kaladipet, Thiruvottriyur, Tiruvottiyur, Chennai - 600019, Dist.Chennai, Tamil Nadu",8046049027,
Stretch Rid Cream,https://www.indiamart.com/proddetail/stretch-rid-cream-2854335350955.html?pos=172&kwd=stretch marks cream&tags=CC||||8752.144|Price|product|||MDC|rsf:gd-|-stype:attr=1|qr_nm:gd|res:RC4|com-cf:nl|ptrs:na|ktp:SA1|mc:187301|mtp:S|qry_typ:P|lang:en|wc:3|cs:8956|v=4,KEGG Crispr Biotech,https://www.indiamart.com/keggcrisprbiotech/?pos=172&kwd=stretch marks cream&tags=CC||||8752.144|Price|product|||MDC|rsf:gd-|-stype:attr=1|qr_nm:gd|res:RC4|com-cf:nl|ptrs:na|ktp:SA1|mc:187301|mtp:S|qry_typ:P|lang:en|wc:3|cs:8956|v=4,False,Central Delhi,New Delhi,"Second Floor, Pvt No-06, Municipal No-1730, Ram Gali, Bhagirath Palace, Chandni Chowk Area,, Central Delhi, New Delhi - 110006, Dist.Delhi, Delhi",8044013248,
"White Night Biumark Stretch X (Stretch Marks Removal Cream), For Personal, Packaging Size: 75 Ml",https://www.indiamart.com/proddetail/biumark-stretch-x-stretch-marks-removal-cream-22294022988.html?pos=173&kwd=stretch marks cream&tags=CC||||8663.873|Price|product|||MDC|rsf:gd-|-stype:attr=1|qr_nm:gd|res:RC4|com-cf:nl|ptrs:na|ktp:SA1|mc:187301|mtp:S|qry_typ:P|lang:en|wc:3|cs:8956|v=4,Vaibhav Medical Systems,https://www.indiamart.com/vaibhav-medical-systems/?pos=173&kwd=stretch marks cream&tags=CC||||8663.873|Price|product|||MDC|rsf:gd-|-stype:attr=1|qr_nm:gd|res:RC4|com-cf:nl|ptrs:na|ktp:SA1|mc:187301|mtp:S|qry_typ:P|lang:en|wc:3|cs:8956|v=4,False,Ullal,Bengaluru,"20,21 Ground Floor Maganahalli Cross Ullal Post, Ullal, Bengaluru - 560056, Dist.Bengaluru, Karnataka",7942539762,
Strechio Anti Stretch Cream,https://www.indiamart.com/proddetail/strechio-anti-stretch-cream-2853876886788.html?pos=174&kwd=stretch marks cream&tags=CC||||8752.144|Price|product|||MDC|rsf:gd-|-stype:attr=1|qr_nm:gd|res:RC4|com-cf:nl|ptrs:na|ktp:SA1|mc:187301|mtp:S|qry_typ:P|lang:en|wc:3|cs:8956|v=4,Senechio Pharma Private Limited,https://www.indiamart.com/senechiopharma/?pos=174&kwd=stretch marks cream&tags=CC||||8752.144|Price|product|||MDC|rsf:gd-|-stype:attr=1|qr_nm:gd|res:RC4|com-cf:nl|ptrs:na|ktp:SA1|mc:187301|mtp:S|qry_typ:P|lang:en|wc:3|cs:8956|v=4,False,Connaught Place,New Delhi,"First Floor, F-89/16, Okhla Industrial Area, Phase I, Connaught Place, New Delhi - 110020, Dist.Delhi, Delhi",8044015897,
Hyposcar Stretch Mark Cream,https://www.indiamart.com/proddetail/hyposcar-stretch-mark-cream-2854780998773.html?pos=175&kwd=stretch marks cream&tags=CC||||9992.764|Price|product|||MDC|rsf:gd-|-stype:attr=1|qr_nm:gd|res:RC4|com-cf:nl|ptrs:na|ktp:SA1|mc:187301|mtp:S|qry_typ:P|lang:en|wc:3|cs:8956|v=4,Om Drug Distributor,https://www.indiamart.com/omdrugdistributor/?pos=175&kwd=stretch marks cream&tags=CC||||9992.764|Price|product|||MDC|rsf:gd-|-stype:attr=1|qr_nm:gd|res:RC4|com-cf:nl|ptrs:na|ktp:SA1|mc:187301|mtp:S|qry_typ:P|lang:en|wc:3|cs:8956|v=4,False,,Mahendraganj,"001, Majherchar - I, South West Garo Hills, Mahendraganj - 794106, Dist.West Garo Hills, Meghalaya",7949355016,
"Mederma Stretch Marks Therapy, 50g ( Free -beta Natural Intimate Wash ,100ml)",https://www.indiamart.com/proddetail/mederma-stretch-marks-therapy-50g-free-beta-natural-intimate-wash-100ml-2853996993512.html?pos=176&kwd=stretch marks cream&tags=CC||||8752.144|Price|product|||MDC|rsf:gd-|-stype:attr=1|qr_nm:gd|res:RC4|com-cf:nl|ptrs:na|ktp:SA1|mc:187301|mtp:S|qry_typ:P|lang:en|wc:3|cs:8956|v=4,Reet Varieties-LLP,https://www.indiamart.com/reet-varieties-newdelhi/?pos=176&kwd=stretch marks cream&tags=CC||||8752.144|Price|product|||MDC|rsf:gd-|-stype:attr=1|qr_nm:gd|res:RC4|com-cf:nl|ptrs:na|ktp:SA1|mc:187301|mtp:S|qry_typ:P|lang:en|wc:3|cs:8956|v=4,False,Yamuna Vihar,New Delhi,"Ground Floor, C-8/258, Yamuna Vihar, East, Yamuna Vihar, New Delhi - 110053, Dist.Delhi, Delhi",,
"Samaayu Stretch Nil Lotion, 100 ml",https://www.indiamart.com/proddetail/samaayu-stretch-nil-lotion-2853572368673.html?pos=177&kwd=stretch marks cream&tags=CC||||8876.815|Price|product|||MDC|rsf:gd-|-stype:attr=1|qr_nm:gd|res:RC4|com-cf:nl|ptrs:na|ktp:SA1|mc:187301|mtp:S|qry_typ:P|lang:en|wc:3|cs:8956|v=4,Shree Brahmachaitanya Ayurved Private Limited,https://www.indiamart.com/shree-brahmachaitanya-ayurved/?pos=177&kwd=stretch marks cream&tags=CC||||8876.815|Price|product|||MDC|rsf:gd-|-stype:attr=1|qr_nm:gd|res:RC4|com-cf:nl|ptrs:na|ktp:SA1|mc:187301|mtp:S|qry_typ:P|lang:en|wc:3|cs:8956|v=4,False,Gurudev Nagar,Nagpur,"Flat No. D-304, Anand Palace No. 5, 230, Nandanwan Layout,, Gurudev Nagar, Nagpur - 440024, Dist.Nagpur, Maharashtra",7949087225,
Herbal Ingredients Kayavedic Stretch Mark Oil,https://www.indiamart.com/proddetail/kayavedic-stretch-mark-oil-2853409380512.html?pos=178&kwd=stretch marks cream&tags=CC||||8692.544|Price|product|||MDC|rsf:gd-|-stype:attr=1|qr_nm:gd|res:RC4|com-cf:nl|ptrs:na|ktp:SA1|mc:187301|mtp:S|qry_typ:P|lang:en|wc:3|cs:8956|v=4,Mittal Industries,https://www.indiamart.com/mittalindustries-alwar/?pos=178&kwd=stretch marks cream&tags=CC||||8692.544|Price|product|||MDC|rsf:gd-|-stype:attr=1|qr_nm:gd|res:RC4|com-cf:nl|ptrs:na|ktp:SA1|mc:187301|mtp:S|qry_typ:P|lang:en|wc:3|cs:8956|v=4,False,Ram Nagar,Alwar,"81, Ram Nagar Colony, 60 Feet Road, Ram Nagar, Alwar - 301001, Dist.Alwar, Rajasthan",8047799571,
"Wool SHERRY STRETCH BY HOLLAND & SHERRY, 150-200",https://www.indiamart.com/proddetail/sherry-stretch-by-holland-sherry-2852584652073.html?pos=179&kwd=stretch marks cream&tags=CC||||8954.051||product|||MDC|rsf:gd-|-stype:attr=1|qr_nm:gd|res:RC4|com-cf:nl|ptrs:na|ktp:SA1|mc:187301|mtp:S|qry_typ:P|lang:en|wc:3|cs:8956|v=4,ATI Global,https://www.indiamart.com/atiglobal/?pos=179&kwd=stretch marks cream&tags=CC||||8954.051||product|||MDC|rsf:gd-|-stype:attr=1|qr_nm:gd|res:RC4|com-cf:nl|ptrs:na|ktp:SA1|mc:187301|mtp:S|qry_typ:P|lang:en|wc:3|cs:8956|v=4,False,Washermanpet,Chennai,"3rd Floor, 4/16, Narayanappa Naiken Garden 5th Lane, Washermanpet, Chennai - 600021, Dist.Chennai, Tamil Nadu",7942705393,
Intensive Streach Mark Skin Firming Cream,https://www.indiamart.com/proddetail/intensive-streach-mark-skin-firming-cream-2852996991312.html?pos=180&kwd=stretch marks cream&tags=CC||||8876.815|Price|product|||MDC|rsf:gd-|-stype:attr=1|qr_nm:gd|res:RC4|com-cf:nl|ptrs:na|ktp:SA1|mc:187301|mtp:S|qry_typ:P|lang:en|wc:3|cs:8956|v=4,Apple Healthcare,https://www.indiamart.com/applehealthcare/?pos=180&kwd=stretch marks cream&tags=CC||||8876.815|Price|product|||MDC|rsf:gd-|-stype:attr=1|qr_nm:gd|res:RC4|com-cf:nl|ptrs:na|ktp:SA1|mc:187301|mtp:S|qry_typ:P|lang:en|wc:3|cs:8956|v=4,False,Dattawadi,Nagpur,"1st Floor, Plot No. A/21, House No. 473, Block No. 103, Jasraj Complex, Sadachar Society Amravati Road, Seva Medicle, Dattawadi, Dattawadi, Nagpur - 440023, Dist.Nagpur, Maharashtra",7942720856,
"stretch mark Elastoderm Cream, Packaging Size: 50 gm",,Kapbro Pharma Pvt Ltd,https://www.indiamart.com/kapbropharma/?pos=181&kwd=stretch marks cream&tags=CC||||8752.144|Price|product|||MDC|rsf:gd-|-stype:attr=1|qr_nm:gd|res:RC4|com-cf:nl|ptrs:na|ktp:SA1|mc:187301|mtp:S|qry_typ:P|lang:en|wc:3|cs:8956|v=4,False,Lajpat Nagar,New Delhi,"O-46, First Floor, Lajpat Nagar-II, Lajpat Nagar, New Delhi - 110024, Dist.Delhi, Delhi",8047304497,
"Medicare Maternity Belt Support, For Clinical",https://www.indiamart.com/proddetail/medicare-maternity-belt-support-2853638707233.html?pos=182&kwd=stretch marks cream&tags=CC||||8584.299|Price|product|||MDC|rsf:gd-|-stype:attr=1|qr_nm:gd|res:RC4|com-cf:nl|ptrs:na|ktp:SA1|mc:187301|mtp:S|qry_typ:P|lang:en|wc:3|cs:8956|v=4,Wellness Health Care,https://www.indiamart.com/wellnesshealthcare-tamilnadu/?pos=182&kwd=stretch marks cream&tags=CC||||8584.299|Price|product|||MDC|rsf:gd-|-stype:attr=1|qr_nm:gd|res:RC4|com-cf:nl|ptrs:na|ktp:SA1|mc:187301|mtp:S|qry_typ:P|lang:en|wc:3|cs:8956|v=4,False,Podanur,Coimbatore,"9/27, Sri Ram Nagar, 7th Street East, Podanur,, Podanur, Coimbatore - 641023, Dist.Coimbatore, Tamil Nadu",8045165099,
50ml Hushpurr Stretch Mark Skin Serum,https://www.indiamart.com/proddetail/50ml-hushpurr-stretch-mark-skin-serum-2854613647373.html?pos=183&kwd=stretch marks cream&tags=||||8954.051|Price|product|||MDC|rsf:gd-|-stype:attr=1|qr_nm:gd|res:RC4|com-cf:nl|ptrs:na|ktp:SA1|mc:187301|mtp:S|qry_typ:P|lang:en|wc:3|cs:8956|v=4,Heravi Pink Store Private Limited,https://www.indiamart.com/heravi-pink-store/?pos=183&kwd=stretch marks cream&tags=||||8954.051|Price|product|||MDC|rsf:gd-|-stype:attr=1|qr_nm:gd|res:RC4|com-cf:nl|ptrs:na|ktp:SA1|mc:187301|mtp:S|qry_typ:P|lang:en|wc:3|cs:8956|v=4,False,,Chennai,"10 & 11 Dr.Radhakrishnan Nagar P.H.Road Arumbakkam, Chennai - 600106, Dist.Chennai, Tamil Nadu",7949322920,
Prescar cream,,Blessed Sellers,https://www.indiamart.com/blessed-sellers/?pos=184&kwd=stretch marks cream&tags=CC||||8752.144|Price|product|||MDC|rsf:gd-|-stype:attr=1|qr_nm:gd|res:RC4|com-cf:nl|ptrs:na|ktp:SA1|mc:187301|mtp:S|qry_typ:P|lang:en|wc:3|cs:8956|v=4,False,Najafgarh,New Delhi,"Plot No B-168, Indra Park, Near Sai Baba Enclave, Najafgarh, South West Delhi, Najafgarh, New Delhi - 110043, Dist.Delhi, Delhi",8046037319,
Stretch Marks Oil Contract Manufacturing,https://www.indiamart.com/proddetail/stretch-marks-oil-contract-manufacturing-2853360274448.html?pos=185&kwd=stretch marks cream&tags=||||8788.382|Price|product|||TS|rsf:gd-|-stype:attr=1|qr_nm:gd|res:RC4|com-cf:nl|ptrs:na|ktp:SA1|mc:187301|mtp:S|qry_typ:P|lang:en|wc:3|cs:8956|v=4,Earth'S Soul Ayurveda Private Limited,https://www.earthssoulayurveda.com/?pos=185&kwd=stretch marks cream&tags=||||8788.382|Price|product|||TS|rsf:gd-|-stype:attr=1|qr_nm:gd|res:RC4|com-cf:nl|ptrs:na|ktp:SA1|mc:187301|mtp:S|qry_typ:P|lang:en|wc:3|cs:8956|v=4,False,Surajpur Site V,Greater Noida,"K-322 Site 5, Ksana IND Area, Greater Noida, Gautam Buddha Nagar, Surajpur Site V, Greater Noida - 201310, Dist.Gautam Budh Nagar, Uttar Pradesh",7942824330,
"Tube Scar End Gel 15g, For Personal, Packaging Size: Ones",https://www.indiamart.com/proddetail/scar-end-gel-15g-24236205648.html?pos=186&kwd=stretch marks cream&tags=||||8706.587|Price|product|||TS|rsf:gd-|-stype:attr=1|qr_nm:gd|res:RC4|com-cf:nl|ptrs:na|ktp:SA1|mc:187301|mtp:S|qry_typ:P|lang:en|wc:3|cs:8956|v=4,Sri Vela Pharmacy,https://www.srivelapharmacy.in/?pos=186&kwd=stretch marks cream&tags=||||8706.587|Price|product|||TS|rsf:gd-|-stype:attr=1|qr_nm:gd|res:RC4|com-cf:nl|ptrs:na|ktp:SA1|mc:187301|mtp:S|qry_typ:P|lang:en|wc:3|cs:8956|v=4,False,Anna Nagar,Madurai,"HIG-28, 80 Feet, Main Road, Anna Nagar, Anna Nagar, Madurai - 625020, Dist.Madurai, Tamil Nadu",8048617702,
Anti Scar Cream (50 Ml),https://www.indiamart.com/proddetail/50-ml-anti-scar-cream-2854694110991.html?pos=187&kwd=stretch marks cream&tags=||||8810.737|Price|product|||TS|rsf:gd-|-stype:attr=1|qr_nm:gd|res:RC4|com-cf:nl|ptrs:na|ktp:SA1|mc:187301|mtp:S|qry_typ:P|lang:en|wc:3|cs:8956|v=4,Shreekul Herbal OPC Private Limited,https://www.shreekulherbal.com/?pos=187&kwd=stretch marks cream&tags=||||8810.737|Price|product|||TS|rsf:gd-|-stype:attr=1|qr_nm:gd|res:RC4|com-cf:nl|ptrs:na|ktp:SA1|mc:187301|mtp:S|qry_typ:P|lang:en|wc:3|cs:8956|v=4,False,,Saharanpur,"17 Pant Vihar Colony, Saharanpur - 247001, Dist.Saharanpur, Uttar Pradesh",8047635514,
"N.T. Marks Cream, Pack Size: 15-gm",https://www.indiamart.com/proddetail/n-t-marks-cream-15149884962.html?pos=188&kwd=stretch marks cream&tags=||||8651.868|Price|product|||TS|rsf:gd-|-stype:attr=1|qr_nm:gd|res:RC4|com-cf:nl|ptrs:na|ktp:SA1|mc:187301|mtp:S|qry_typ:P|lang:en|wc:3|cs:8956|v=4,Biosearch Organics,https://www.indiamart.com/biosearch-organics/?pos=188&kwd=stretch marks cream&tags=||||8651.868|Price|product|||TS|rsf:gd-|-stype:attr=1|qr_nm:gd|res:RC4|com-cf:nl|ptrs:na|ktp:SA1|mc:187301|mtp:S|qry_typ:P|lang:en|wc:3|cs:8956|v=4,False,Kathua,Kathua,"D. I. C. Industrial Estate, Govindsar Near Railway Station, Kathua, Kathua - 184104, Dist.Kathua, Jammu & Kashmir",8048987727,
Kaylite Cream Skin Care Anti Marks Cream,https://www.indiamart.com/proddetail/kaylite-cream-skin-care-anti-marks-cream-2853708843055.html?pos=189&kwd=stretch marks cream&tags=||||8230.883|Price|product|||TS|rsf:gd-|-stype:attr=1|qr_nm:gd|res:RC4|com-cf:nl|ptrs:na|ktp:SA1|mc:187301|mtp:S|qry_typ:P|lang:en|wc:3|cs:8956|v=4,Wellniv Pharma,https://www.wellnivpharma.com/?pos=189&kwd=stretch marks cream&tags=||||8230.883|Price|product|||TS|rsf:gd-|-stype:attr=1|qr_nm:gd|res:RC4|com-cf:nl|ptrs:na|ktp:SA1|mc:187301|mtp:S|qry_typ:P|lang:en|wc:3|cs:8956|v=4,True,Bombay Market,Surat,"First Floor, Plot No A 204, Santoshi Krupa Housing Society, Puna Bombay Market Road, Chorasi, Punagam, Bombay Market, Surat - 395010, Dist.Surat, Gujarat",7949082881,
"Herbal No Marks Cream, For Skin, Packaging Size: 25 gm",https://www.indiamart.com/proddetail/herbal-no-marks-cream-20823358330.html?pos=190&kwd=stretch marks cream&tags=||||8786.56|Price|product|||MDC|rsf:gd-|-stype:attr=1|qr_nm:gd|res:RC4|com-cf:nl|ptrs:na|ktp:SA1|mc:187301|mtp:S|qry_typ:P|lang:en|wc:3|cs:8956|v=4,GF Herbals,https://www.indiamart.com/gf-herbals-hyderabad/?pos=190&kwd=stretch marks cream&tags=||||8786.56|Price|product|||MDC|rsf:gd-|-stype:attr=1|qr_nm:gd|res:RC4|com-cf:nl|ptrs:na|ktp:SA1|mc:187301|mtp:S|qry_typ:P|lang:en|wc:3|cs:8956|v=4,False,Balapur,Hyderabad,"RCI Road, Airport Road, Mallapur, Balapur, Balapur, Hyderabad - 500005, Dist.Hyderabad, Telangana",8047639260,
Hapdco Marks Go Cream (25g),https://www.indiamart.com/proddetail/hapdco-marks-go-cream-25g-2852178401891.html?pos=191&kwd=stretch marks cream&tags=||||9600.935|Price|product|||MDC|rsf:gd-|-stype:attr=1|qr_nm:gd|res:RC4|com-cf:nl|ptrs:na|ktp:SA1|mc:187301|mtp:S|qry_typ:P|lang:en|wc:3|cs:8956|v=4,Golden-Patel Son,https://www.indiamart.com/goldenpatel-son-teghra/?pos=191&kwd=stretch marks cream&tags=||||9600.935|Price|product|||MDC|rsf:gd-|-stype:attr=1|qr_nm:gd|res:RC4|com-cf:nl|ptrs:na|ktp:SA1|mc:187301|mtp:S|qry_typ:P|lang:en|wc:3|cs:8956|v=4,False,Keshri Nagar,Teghra,"Bazidpur Jankiram, Ward No 8, Near Shiv Mandir, Begusarai, Keshri Nagar, Teghra - 851133, Dist.Begusarai, Bihar",,
Anti Marks Lotion,https://www.indiamart.com/proddetail/anti-marks-lotion-2854598625555.html?pos=192&kwd=stretch marks cream&tags=||||9289.285|Price|product|||MDC|rsf:gd-|-stype:attr=1|qr_nm:gd|res:RC4|com-cf:nl|ptrs:na|ktp:SA1|mc:187301|mtp:S|qry_typ:P|lang:en|wc:3|cs:8956|v=4,The Global Farming Inc.,https://www.indiamart.com/theglobalfarminginc/?pos=192&kwd=stretch marks cream&tags=||||9289.285|Price|product|||MDC|rsf:gd-|-stype:attr=1|qr_nm:gd|res:RC4|com-cf:nl|ptrs:na|ktp:SA1|mc:187301|mtp:S|qry_typ:P|lang:en|wc:3|cs:8956|v=4,False,,Visakhapatnam,"Vuda Colony, Plot no. E-36, Tarakarama Nagar, Gomata Goshala, Rushikonda, Visakhapatnam - 530045, Dist.Visakhapatnam, Andhra Pradesh",7949356295,
"Lexi Anti Mark Cream, Packaging Type: Box, Packaging Size: 30 gm",https://www.indiamart.com/proddetail/anti-mark-cream-21389899830.html?pos=193&kwd=stretch marks cream&tags=||||8281.036||product|||TS|rsf:gd-|-stype:attr=1|qr_nm:gd|res:RC4|com-cf:nl|ptrs:na|ktp:SA1|mc:187301|mtp:S|qry_typ:P|lang:en|wc:3|cs:8956|v=4,Lexine Technochem Private Limited,https://www.lexine.in/?pos=193&kwd=stretch marks cream&tags=||||8281.036||product|||TS|rsf:gd-|-stype:attr=1|qr_nm:gd|res:RC4|com-cf:nl|ptrs:na|ktp:SA1|mc:187301|mtp:S|qry_typ:P|lang:en|wc:3|cs:8956|v=4,True,Sayajigunj,Vadodara,"Opposite World Trade Center, 202, 2nd Flower, Sayajigunj, Sayajigunj, Vadodara - 390005, Dist.Vadodara, Gujarat",7942564658,
"FIX DERMA SKARFIX- TX CREAM, 30gm",https://www.indiamart.com/proddetail/fix-derma-skarfix-tx-cream-2854552349930.html?pos=194&kwd=stretch marks cream&tags=||||8307.81|Price|product|||TS|rsf:gd-|-stype:attr=1|qr_nm:gd|res:RC4|com-cf:nl|ptrs:na|ktp:SA1|mc:187301|mtp:S|qry_typ:P|lang:en|wc:3|cs:8956|v=4,Tricho Care Pharma LLP,https://www.indiamart.com/trichocare-pharma/?pos=194&kwd=stretch marks cream&tags=||||8307.81|Price|product|||TS|rsf:gd-|-stype:attr=1|qr_nm:gd|res:RC4|com-cf:nl|ptrs:na|ktp:SA1|mc:187301|mtp:S|qry_typ:P|lang:en|wc:3|cs:8956|v=4,False,,Pune,"Off- 4-a Sn 77/1 Baner Mahalunge Road Sun Flower Commercial Complex, Pune - 411045, Dist.Pune, Maharashtra",7949328345,
"Anti Scar Cream, Packaging Size: 25 gm",https://www.indiamart.com/proddetail/anti-scar-cream-23319398755.html?pos=195&kwd=stretch marks cream&tags=||||8754.115|Price|product|||MDC|rsf:gd-|-stype:attr=1|qr_nm:gd|res:RC4|com-cf:nl|ptrs:na|ktp:SA1|mc:187301|mtp:S|qry_typ:P|lang:en|wc:3|cs:8956|v=4,Alicanto Drugs Pvt. Ltd.,https://www.indiamart.com/alicantodrugs/?pos=195&kwd=stretch marks cream&tags=||||8754.115|Price|product|||MDC|rsf:gd-|-stype:attr=1|qr_nm:gd|res:RC4|com-cf:nl|ptrs:na|ktp:SA1|mc:187301|mtp:S|qry_typ:P|lang:en|wc:3|cs:8956|v=4,False,Industrial Estate Panchkula,Panchkula,"Plot No. 159, Industrial Area, Phase 2, Industrial Estate Panchkula, Panchkula - 134113, Dist.Panchkula, Haryana",8048264803,
"Hexilak Ultra Cream, 15gm",https://www.indiamart.com/proddetail/hexilak-ultra-cream-2854689409355.html?pos=196&kwd=stretch marks cream&tags=||||8723.301|Price|product|||MDC|rsf:gd-|-stype:attr=1|qr_nm:gd|res:RC4|com-cf:nl|ptrs:na|ktp:SA1|mc:187301|mtp:S|qry_typ:P|lang:en|wc:3|cs:8956|v=4,Omkar Pharma,https://www.indiamart.com/omkarpharma-bhopal/?pos=196&kwd=stretch marks cream&tags=||||8723.301|Price|product|||MDC|rsf:gd-|-stype:attr=1|qr_nm:gd|res:RC4|com-cf:nl|ptrs:na|ktp:SA1|mc:187301|mtp:S|qry_typ:P|lang:en|wc:3|cs:8956|v=4,False,,Bhopal,"Gali No -2, House No. 7, Ibrahim Ganj, Huzur Tehsil Office, Bhopal - 462001, Dist.Bhopal, Madhya Pradesh",7949323790,
Mederma Pm Intensive Overnight Scar Cream Reduces The Appearance Of Old,https://www.indiamart.com/proddetail/mederma-pm-intensive-overnight-scar-cream-reduces-the-appearance-of-old-2852088839233.html?pos=197&kwd=stretch marks cream&tags=||||8954.051|Price|product|||MDC|rsf:gd-|-stype:attr=1|qr_nm:gd|res:RC4|com-cf:nl|ptrs:na|ktp:SA1|mc:187301|mtp:S|qry_typ:P|lang:en|wc:3|cs:8956|v=4,Starmed Pharmacy,https://www.indiamart.com/starmedpharmacy-chennai/?pos=197&kwd=stretch marks cream&tags=||||8954.051|Price|product|||MDC|rsf:gd-|-stype:attr=1|qr_nm:gd|res:RC4|com-cf:nl|ptrs:na|ktp:SA1|mc:187301|mtp:S|qry_typ:P|lang:en|wc:3|cs:8956|v=4,False,Selaivayal,Chennai,"Plot No 52, Parthasarathy Street, KK Thazhai, MMC Post, Chennai, Selaivayal, Chennai - 600051, Dist.Chennai, Tamil Nadu",7942959094,
"Skin tone fairness face Cream Anti - marks, Packaging Size: 50 gm",https://www.indiamart.com/proddetail/skin-tone-fairness-face-cream-anti-marks-2852773940397.html?pos=198&kwd=stretch marks cream&tags=||||8228.275|Price|product|||TS|rsf:gd-|-stype:attr=1|qr_nm:gd|res:RC4|com-cf:nl|ptrs:na|ktp:SA1|mc:187301|mtp:S|qry_typ:P|lang:en|wc:3|cs:8956|v=4,Shree Maa Skin Care,https://www.shreemaaskincare.net/?pos=198&kwd=stretch marks cream&tags=||||8228.275|Price|product|||TS|rsf:gd-|-stype:attr=1|qr_nm:gd|res:RC4|com-cf:nl|ptrs:na|ktp:SA1|mc:187301|mtp:S|qry_typ:P|lang:en|wc:3|cs:8956|v=4,False,Naranpura,Ahmedabad,"I35,K-23/269, Shivshakti Aparment,Opp.Akhbarnagar,Nava Wadaj Road,Ahmedabad, Naranpura, Ahmedabad - 380013, Dist.Ahmedabad, Gujarat",8043855266,
"Tea Tree Oil Massage Cream, Packaging Size: 200 Gm",https://www.indiamart.com/proddetail/tea-tree-oil-massage-cream-22898553791.html?pos=199&kwd=stretch marks cream&tags=||||8223.226|Price|product|||TS|rsf:gd-|-stype:attr=1|qr_nm:gd|res:RC4|com-cf:nl|ptrs:na|ktp:SA1|mc:187301|mtp:S|qry_typ:P|lang:en|wc:3|cs:8956|v=4,Nikole Kozmetics Private Limited,https://www.indiamart.com/nikolekozmetics/?pos=199&kwd=stretch marks cream&tags=||||8223.226|Price|product|||TS|rsf:gd-|-stype:attr=1|qr_nm:gd|res:RC4|com-cf:nl|ptrs:na|ktp:SA1|mc:187301|mtp:S|qry_typ:P|lang:en|wc:3|cs:8956|v=4,False,,Thane,"Bunglow No 4, Landmark Complex, Service Road , Louiswadi, Thane - 400604, Dist.Thane, Maharashtra",8047631491,
"Anti spot cream, 30gm",https://www.indiamart.com/proddetail/anti-spot-cream-2854899724797.html?pos=200&kwd=stretch marks cream&tags=||||10383.09|Price|product|||TS|rsf:gd-|-stype:attr=1|qr_nm:gd|res:RC4|com-cf:nl|ptrs:na|ktp:SA1|mc:187301|mtp:S|qry_typ:P|lang:en|wc:3|cs:8956|v=4,Shan Collection,https://www.indiamart.com/shan-collection-nagaland/?pos=200&kwd=stretch marks cream&tags=||||10383.09|Price|product|||TS|rsf:gd-|-stype:attr=1|qr_nm:gd|res:RC4|com-cf:nl|ptrs:na|ktp:SA1|mc:187301|mtp:S|qry_typ:P|lang:en|wc:3|cs:8956|v=4,False,Seluophe,Dimapur,"Shop No. OV/64, New Market,, Seluophe, Dimapur - 797112, Nagaland",7942709802,
Breast Enlargment Oil,https://www.indiamart.com/proddetail/breast-enlargment-oil-2854793553333.html?pos=201&kwd=stretch marks cream&tags=||||8752.144|Price|product|||TS|rsf:gd-|-stype:attr=1|qr_nm:gd|res:RC4|com-cf:nl|ptrs:na|ktp:SA1|mc:187301|mtp:S|qry_typ:P|lang:en|wc:3|cs:8956|v=4,Savera Ayurved,https://www.indiamart.com/saveraayurved/?pos=201&kwd=stretch marks cream&tags=||||8752.144|Price|product|||TS|rsf:gd-|-stype:attr=1|qr_nm:gd|res:RC4|com-cf:nl|ptrs:na|ktp:SA1|mc:187301|mtp:S|qry_typ:P|lang:en|wc:3|cs:8956|v=4,False,Rohini,New Delhi,"E-51,Ground Floor,Inder Enclave, Phase-2,Delhi, Rohini, New Delhi - 110086, Dist.Delhi, Delhi",7942840095,
"42gm DE Tan Bleach Cream Kit, Oily Skin",https://www.indiamart.com/proddetail/42gm-de-tan-bleach-cream-kit-2854217888655.html?pos=202&kwd=stretch marks cream&tags=||||8706.508|Price|product|||MDC|rsf:gd-|-stype:attr=1|qr_nm:gd|res:RC4|com-cf:nl|ptrs:na|ktp:SA1|mc:187301|mtp:S|qry_typ:P|lang:en|wc:3|cs:8956|v=4,G.S.R.Enterprises,https://www.indiamart.com/gsrenterprises-rohtak/?pos=202&kwd=stretch marks cream&tags=||||8706.508|Price|product|||MDC|rsf:gd-|-stype:attr=1|qr_nm:gd|res:RC4|com-cf:nl|ptrs:na|ktp:SA1|mc:187301|mtp:S|qry_typ:P|lang:en|wc:3|cs:8956|v=4,False,,Rohtak,"293-294/06, Ist Floor, Chamli Market, Partap Mohalla, Rohtak - 124001, Dist.Rohtak, Haryana",8045735105,
No Scars Anti Marks Cream,https://www.indiamart.com/proddetail/no-scars-anti-marks-cream-2852182345112.html?pos=203&kwd=stretch marks cream&tags=||||8206.306|Price|product|||MDC|rsf:gd-|-stype:attr=1|qr_nm:gd|res:RC4|com-cf:nl|ptrs:na|ktp:SA1|mc:187301|mtp:S|qry_typ:P|lang:en|wc:3|cs:8956|v=4,Ashok Pharma,https://www.indiamart.com/ashokpharma/?pos=203&kwd=stretch marks cream&tags=||||8206.306|Price|product|||MDC|rsf:gd-|-stype:attr=1|qr_nm:gd|res:RC4|com-cf:nl|ptrs:na|ktp:SA1|mc:187301|mtp:S|qry_typ:P|lang:en|wc:3|cs:8956|v=4,False,Bhayandar West,Bhayander West,"Ground Floor Shop No 11 Ambemata Mandir Road Himparvati Bldg, Bhayandar West, Bhayander West - 401101, Maharashtra",7942816608,
30gm Ayouthveda Anti Marks Cream,https://www.indiamart.com/proddetail/30gm-ayouthveda-anti-marks-cream-2854875555455.html?pos=204&kwd=stretch marks cream&tags=||||8861.185|Price|product|||MDC|rsf:gd-|-stype:attr=1|qr_nm:gd|res:RC4|com-cf:nl|ptrs:na|ktp:SA1|mc:187301|mtp:S|qry_typ:P|lang:en|wc:3|cs:8956|v=4,Asha & Sons Pharma Agency,https://www.indiamart.com/ashasonspharmaagency/?pos=204&kwd=stretch marks cream&tags=||||8861.185|Price|product|||MDC|rsf:gd-|-stype:attr=1|qr_nm:gd|res:RC4|com-cf:nl|ptrs:na|ktp:SA1|mc:187301|mtp:S|qry_typ:P|lang:en|wc:3|cs:8956|v=4,False,,Jhansi,"00, Devlal Chauve LA Akhare, Jhansi - 284001, Dist.Jhansi, Uttar Pradesh",8044457813,
Herbal Body merry stretch marks & scars defense cream,https://www.indiamart.com/proddetail/body-merry-stretch-marks-scars-defense-cream-2851955539488.html?pos=205&kwd=stretch marks cream&tags=||||8754.115|Price|product|||MDC|rsf:gd-|-stype:attr=1|qr_nm:gd|res:RC4|com-cf:nl|ptrs:na|ktp:SA1|mc:187301|mtp:S|qry_typ:P|lang:en|wc:3|cs:8956|v=4,Brandz International,https://www.indiamart.com/brandz-international/?pos=205&kwd=stretch marks cream&tags=||||8754.115|Price|product|||MDC|rsf:gd-|-stype:attr=1|qr_nm:gd|res:RC4|com-cf:nl|ptrs:na|ktp:SA1|mc:187301|mtp:S|qry_typ:P|lang:en|wc:3|cs:8956|v=4,False,,Panchkula,"Second Floor, Sco. 53, Brandz International, Swastik Vihar, Sector-5, Panchkula - 134109, Dist.Panchkula, Haryana",7942871132,
Kaylite Cream Skin Care Anti Marks Cream,https://www.indiamart.com/proddetail/kaylite-cream-skin-care-anti-marks-cream-2853708843055.html?pos=206&kwd=stretch marks cream&tags=||||8230.883|Price|product|||TS|rsf:gd-|-stype:attr=1|qr_nm:gd|res:RC4|com-cf:nl|ptrs:na|ktp:SA1|mc:187301|mtp:S|qry_typ:P|lang:en|wc:3|cs:8956|v=4,Wellniv Pharma,https://www.wellnivpharma.com/?pos=206&kwd=stretch marks cream&tags=||||8230.883|Price|product|||TS|rsf:gd-|-stype:attr=1|qr_nm:gd|res:RC4|com-cf:nl|ptrs:na|ktp:SA1|mc:187301|mtp:S|qry_typ:P|lang:en|wc:3|cs:8956|v=4,True,Bombay Market,Surat,"First Floor, Plot No A 204, Santoshi Krupa Housing Society, Puna Bombay Market Road, Chorasi, Punagam, Bombay Market, Surat - 395010, Dist.Surat, Gujarat",7949082881,
Dorlene Herbal Firming Bust Cream For Women,https://www.indiamart.com/proddetail/dorlene-herbal-firming-bust-cream-for-women-23343282133.html?pos=207&kwd=stretch marks cream&tags=||||8663.873|Price|product|||TS|rsf:gd-|-stype:attr=1|qr_nm:gd|res:RC4|com-cf:nl|ptrs:na|ktp:SA1|mc:187301|mtp:S|qry_typ:P|lang:en|wc:3|cs:8956|v=4,Missha Enterprises,https://www.healthnglow.in/?pos=207&kwd=stretch marks cream&tags=||||8663.873|Price|product|||TS|rsf:gd-|-stype:attr=1|qr_nm:gd|res:RC4|com-cf:nl|ptrs:na|ktp:SA1|mc:187301|mtp:S|qry_typ:P|lang:en|wc:3|cs:8956|v=4,False,Frazer Town,Bengaluru,"NO 32,,Rathan Singh Road,Frazer Town, Frazer Town, Bengaluru - 560005, Dist.Bengaluru, Karnataka",8046034472,
"NT Marks Cream, 15 Gm",https://www.indiamart.com/proddetail/nt-marks-cream-20687814662.html?pos=208&kwd=stretch marks cream&tags=||||8661.854|Price|product|||TS|rsf:gd-|-stype:attr=1|qr_nm:gd|res:RC4|com-cf:nl|ptrs:na|ktp:SA1|mc:187301|mtp:S|qry_typ:P|lang:en|wc:3|cs:8956|v=4,Ultramark Health Care Private Ltd,https://www.indiamart.com/ultramarkhealthcare/?pos=208&kwd=stretch marks cream&tags=||||8661.854|Price|product|||TS|rsf:gd-|-stype:attr=1|qr_nm:gd|res:RC4|com-cf:nl|ptrs:na|ktp:SA1|mc:187301|mtp:S|qry_typ:P|lang:en|wc:3|cs:8956|v=4,False,Threeke,Ludhiana,"Ultramark House, Geeta Vihar, Threekay Lane, Ferozpur Road, Threeke, Ludhiana - 141021, Dist.Ludhiana, Punjab",8043840407,
"Anti Marks Cream, Packaging Size: 50 gm",https://www.indiamart.com/proddetail/anti-marks-cream-2852386836812.html?pos=209&kwd=stretch marks cream&tags=||||8741.987|Price|product|||TS|rsf:gd-|-stype:attr=1|qr_nm:gd|res:RC4|com-cf:nl|ptrs:na|ktp:SA1|mc:187301|mtp:S|qry_typ:P|lang:en|wc:3|cs:8956|v=4,Magic Of Herbs,https://www.indiamart.com/magicofherbs/?pos=209&kwd=stretch marks cream&tags=||||8741.987|Price|product|||TS|rsf:gd-|-stype:attr=1|qr_nm:gd|res:RC4|com-cf:nl|ptrs:na|ktp:SA1|mc:187301|mtp:S|qry_typ:P|lang:en|wc:3|cs:8956|v=4,False,Cantt,Ambala,"D-173,Defence Colony, Kalarheri Road, Ambala Cantt, Cantt, Ambala - 133001, Dist.Ambala, Haryana",8047647671,
"Anti Marks Face Cream, Packaging Size: 100 gm",https://www.indiamart.com/proddetail/anti-marks-face-cream-2854058460773.html?pos=210&kwd=stretch marks cream&tags=||||8601.347|Price|product|||TS|rsf:gd-|-stype:attr=1|qr_nm:gd|res:RC4|com-cf:nl|ptrs:na|ktp:SA1|mc:187301|mtp:S|qry_typ:P|lang:en|wc:3|cs:8956|v=4,Padmanabha Enterprises,https://www.padmanabhaenterprises.com/?pos=210&kwd=stretch marks cream&tags=||||8601.347|Price|product|||TS|rsf:gd-|-stype:attr=1|qr_nm:gd|res:RC4|com-cf:nl|ptrs:na|ktp:SA1|mc:187301|mtp:S|qry_typ:P|lang:en|wc:3|cs:8956|v=4,False,Jhotwara,Jaipur,"Plot No C-6, Jagdamba Nagar, Rawan Gate, Near Raghuraj Academy Vidhyala, Kalwar Road,, Jhotwara, Jaipur - 302012, Dist.Jaipur, Rajasthan",8048963861,
