product_title,product_link,company_name,company_link,is_verified_exporter,city_region,city,address_details,phone_number,phone_number_extension
HIPPO Special Stroller,https://www.indiamart.com/proddetail/hippo-special-stroller-22242731730.html?pos=1&kwd=stroller travel system&tags=A||||8663.873||product|||TS|rsf:gd-|-qr_nm:gd|res:RC3|com-cf:nl|ptrs:na|ktp:N0|mc:78108|mtp:S|qry_typ:P|lang:en|wc:3|flavl:0-2|cs:8398|v=4,KTWO Healthcare Private Limited,https://www.theprosthesis.com/?pos=1&kwd=stroller travel system&tags=A||||8663.873||product|||TS|rsf:gd-|-qr_nm:gd|res:RC3|com-cf:nl|ptrs:na|ktp:N0|mc:78108|mtp:S|qry_typ:P|lang:en|wc:3|flavl:0-2|cs:8398|v=4,False,Bilekahalli,Bengaluru,"No. 93, 2nd floor, 6th Cross, 2nd Stage, BTM Layout, Bilekahalli, Bengaluru - 560076, Dist.Bengaluru, Karnataka",8048989676,
Black And Blue 3.15ft 8 Wheel Baby Stroller,https://www.indiamart.com/proddetail/8-wheel-baby-stroller-2852721419830.html?pos=2&kwd=stroller travel system&tags=A||||8785.791|Price|product|||MDC|rsf:gd-|-qr_nm:gd|res:RC3|com-cf:nl|ptrs:na|ktp:N0|mc:78108|mtp:S|qry_typ:P|lang:en|wc:3|flavl:0-2|cs:8398|v=4,Falguni Baby Product,https://www.indiamart.com/falguni-baby-product/?pos=2&kwd=stroller travel system&tags=A||||8785.791|Price|product|||MDC|rsf:gd-|-qr_nm:gd|res:RC3|com-cf:nl|ptrs:na|ktp:N0|mc:78108|mtp:S|qry_typ:P|lang:en|wc:3|flavl:0-2|cs:8398|v=4,False,,Ghaziabad,"E - 19, Sector A - 7 P - 1, Tronica City, Ghaziabad - 201102, Dist.Ghaziabad, Uttar Pradesh",8045731457,
"Black Alloy Baby Canopy Printed Stroller Pram, Age Group: 1-3 years, Packaging Type: Carton Box",https://www.indiamart.com/proddetail/baby-canopy-printed-stroller-pram-2853643960097.html?pos=3&kwd=stroller travel system&tags=A||||8206.45|Price|product|||MDC|rsf:gd-|-qr_nm:gd|res:RC3|com-cf:nl|ptrs:na|ktp:N0|mc:78108|mtp:S|qry_typ:P|lang:en|wc:3|flavl:0-2|cs:8398|v=4,APDD E Commerce India LLP,https://www.indiamart.com/apddecommerceindia/?pos=3&kwd=stroller travel system&tags=A||||8206.45|Price|product|||MDC|rsf:gd-|-qr_nm:gd|res:RC3|com-cf:nl|ptrs:na|ktp:N0|mc:78108|mtp:S|qry_typ:P|lang:en|wc:3|flavl:0-2|cs:8398|v=4,False,Vishnu Nagar,Palghar,"2ndFloor, Block No.301,D-Wing, Jivadani Complex, Mahim Road, National Cooperative Bank, Vishnu Nagar, Vishnu Nagar, Palghar - 401404, Dist.Thane, Maharashtra",8047307898,
"Blue Metal & Cloth Pram (Cutie Dlx.) Crome Wheel, Age Group: Newly Born, Packaging Type: Box",https://www.indiamart.com/proddetail/cloth-baby-pram-crome-2850512777233.html?pos=4&kwd=stroller travel system&tags=A||||8752.144|Price|product|||TS|rsf:gd-|-qr_nm:gd|res:RC3|com-cf:nl|ptrs:na|ktp:N0|mc:78108|mtp:S|qry_typ:P|lang:en|wc:3|flavl:0-2|cs:8398|v=4,Steel Art (A Brand Of Mittal Enterprises),https://www.indiamart.com/mittalentps-delhi/?pos=4&kwd=stroller travel system&tags=A||||8752.144|Price|product|||TS|rsf:gd-|-qr_nm:gd|res:RC3|com-cf:nl|ptrs:na|ktp:N0|mc:78108|mtp:S|qry_typ:P|lang:en|wc:3|flavl:0-2|cs:8398|v=4,False,Mundka,New Delhi,"Ground Floor, Plot At Khasra No. 66/22, Gali No. 2, Mundka, Mundka, New Delhi - 110041, Dist.Delhi, Delhi",8046044378,
"Joie Stroller Rapid, 4",https://www.indiamart.com/proddetail/joie-stroller-rapid-26745578988.html?pos=5&kwd=stroller travel system&tags=A||||8211.142|Price|product|||TS|rsf:gd-|-qr_nm:gd|res:RC3|com-cf:nl|ptrs:na|ktp:N0|mc:78108|mtp:S|qry_typ:P|lang:en|wc:3|flavl:0-2|cs:8398|v=4,Mini World,https://www.indiamart.com/miniworld/?pos=5&kwd=stroller travel system&tags=A||||8211.142|Price|product|||TS|rsf:gd-|-qr_nm:gd|res:RC3|com-cf:nl|ptrs:na|ktp:N0|mc:78108|mtp:S|qry_typ:P|lang:en|wc:3|flavl:0-2|cs:8398|v=4,False,Goregaon West,Mumbai,"SHOP No 2,16, Ground Floor, Unnath Nagar 3, M.G. Road, Goregaon MG Road, Goregaon West, Mumbai - 400062, Dist.Mumbai, Maharashtra",8046034221,
"Kids Strollers, 4, Baby New Stroller",https://www.indiamart.com/proddetail/baby-stroller-kid-cycle-2854537209988.html?pos=6&kwd=stroller travel system&tags=A||||8211.142|Price|product|||TS|rsf:gd-|-qr_nm:gd|res:RC3|com-cf:nl|ptrs:na|ktp:N0|mc:78108|mtp:S|qry_typ:P|lang:en|wc:3|flavl:0-2|cs:8398|v=4,P For Panda Baby Products Private Limited,https://www.p4pandababyproducts.com/?pos=6&kwd=stroller travel system&tags=A||||8211.142|Price|product|||TS|rsf:gd-|-qr_nm:gd|res:RC3|com-cf:nl|ptrs:na|ktp:N0|mc:78108|mtp:S|qry_typ:P|lang:en|wc:3|flavl:0-2|cs:8398|v=4,False,Goregaon West,Mumbai,"904 A Wing,9 Th Floor,Triple S Heights,Jakeria Road, Goregaon West, Mumbai - 400064, Dist.Mumbai, Maharashtra",7942710871,
"Mild Steel,Polyester Cotton Babylove Stroller, 8",https://www.indiamart.com/proddetail/babylove-stroller-21911569297.html?pos=7&kwd=stroller travel system&tags=A||||8211.142|Price|product|||TS|rsf:gd-|-qr_nm:gd|res:RC3|com-cf:nl|ptrs:na|ktp:N0|mc:78108|mtp:S|qry_typ:P|lang:en|wc:3|flavl:0-2|cs:8398|v=4,New Natraj Industries,https://www.indiamart.com/newnatrajindustries/?pos=7&kwd=stroller travel system&tags=A||||8211.142|Price|product|||TS|rsf:gd-|-qr_nm:gd|res:RC3|com-cf:nl|ptrs:na|ktp:N0|mc:78108|mtp:S|qry_typ:P|lang:en|wc:3|flavl:0-2|cs:8398|v=4,False,Andheri,Mumbai,"2nd,47 A,VEERA DESAI ROAD,GHANSHYAM INDUSTRIAL ESTATE,ANDHERI WEST, Andheri, Mumbai - 400053, Dist.Mumbai, Maharashtra",8048609903,
SPECIAL STROLLERS FOR CEREBRAL PALSY CHILDREN,https://www.indiamart.com/proddetail/special-strollers-for-cerebral-palsy-children-2851616936555.html?pos=8&kwd=stroller travel system&tags=BA||||8601.347|Price|product|||TS|rsf:gd-|-qr_nm:gd|res:RC3|com-cf:nl|ptrs:na|ktp:N0|mc:78108|mtp:S|qry_typ:P|lang:en|wc:3|flavl:0-2|cs:8398|v=4,Morecare Mobility And Rehabilitation Solutions,https://www.iphealth.in/?pos=8&kwd=stroller travel system&tags=BA||||8601.347|Price|product|||TS|rsf:gd-|-qr_nm:gd|res:RC3|com-cf:nl|ptrs:na|ktp:N0|mc:78108|mtp:S|qry_typ:P|lang:en|wc:3|flavl:0-2|cs:8398|v=4,False,Durgapura,Jaipur,"E22, Gayatri Nagar Vistar, Near Clothing Industrial Area, Maharani Farm, Cloth Printing Industries, Durgapura, Durgapura, Jaipur - 302018, Dist.Jaipur, Rajasthan",8047672177,
"Stroller Baby, 8, Infantjoys",https://www.indiamart.com/proddetail/stroller-baby-26077147273.html?pos=9&kwd=stroller travel system&tags=A||||9110.092|Price|product|||TS|rsf:gd-|-qr_nm:gd|res:RC3|com-cf:nl|ptrs:na|ktp:N0|mc:78108|mtp:S|qry_typ:P|lang:en|wc:3|flavl:0-2|cs:8398|v=4,Pawan Cycle Store,https://www.indiamart.com/pawancyclestore-lucknow/?pos=9&kwd=stroller travel system&tags=A||||9110.092|Price|product|||TS|rsf:gd-|-qr_nm:gd|res:RC3|com-cf:nl|ptrs:na|ktp:N0|mc:78108|mtp:S|qry_typ:P|lang:en|wc:3|flavl:0-2|cs:8398|v=4,False,Darul Safa,Lucknow,"91/8, Yadunath Sanyal Road, Darul Safa, Lucknow - 226001, Dist.Lucknow, Uttar Pradesh",8043851096,
R for Rabbit Baby Travel System Chocolate Ride Baby Stroller and Pram,https://www.indiamart.com/proddetail/r-for-rabbit-baby-travel-system-chocolate-ride-baby-stroller-and-pram-2852509905473.html?pos=10&kwd=stroller travel system&tags=BA||||9140.514|Price|product|||TS|rsf:gd-|-qr_nm:gd|res:RC3|com-cf:nl|ptrs:na|ktp:N0|mc:78108|mtp:S|qry_typ:P|lang:en|wc:3|flavl:0-2|cs:8398|v=4,Anjaneya Enterprises,https://www.ridenslide.in/?pos=10&kwd=stroller travel system&tags=BA||||9140.514|Price|product|||TS|rsf:gd-|-qr_nm:gd|res:RC3|com-cf:nl|ptrs:na|ktp:N0|mc:78108|mtp:S|qry_typ:P|lang:en|wc:3|flavl:0-2|cs:8398|v=4,False,Pandri,Raipur,"SHOP NO-10,SHOPPERS PARADISE,BEHIND CITY CENTER MALL,PANDRI,RAIPUR, Pandri, Raipur - 492001, Chhattisgarh",8046045761,
SUPER TOY BABY STROLLER DOLL,https://www.indiamart.com/proddetail/super-toy-baby-stroller-doll-2854101645891.html?pos=11&kwd=stroller travel system&tags=A||||8211.142|Price|product|||TS|rsf:gd-|-qr_nm:gd|res:RC3|com-cf:nl|ptrs:na|ktp:N0|mc:78108|mtp:S|qry_typ:P|lang:en|wc:3|flavl:0-2|cs:8398|v=4,S. V. Traders,https://www.indiamart.com/sv-tradersmumbai/?pos=11&kwd=stroller travel system&tags=A||||8211.142|Price|product|||TS|rsf:gd-|-qr_nm:gd|res:RC3|com-cf:nl|ptrs:na|ktp:N0|mc:78108|mtp:S|qry_typ:P|lang:en|wc:3|flavl:0-2|cs:8398|v=4,False,Kalbadevi,Mumbai,"64, Fateh Dispensary House, Cross A.R Street, Bhajipala Lane, Kalbadevi, Mumbai - 400003, Dist.Mumbai, Maharashtra",7949227969,
"B.O.B Gear Revolution Flex 3.0 Jogging Stroller, Ultra Smooth Ride Graphite Black",https://www.indiamart.com/proddetail/b-o-b-gear-revolution-flex-3-0-jogging-stroller-ultra-smooth-ride-graphite-black-2853666123048.html?pos=12&kwd=stroller travel system&tags=A||||8752.144|Price|product|||TS|rsf:gd-|-qr_nm:gd|res:RC3|com-cf:nl|ptrs:na|ktp:N0|mc:78108|mtp:S|qry_typ:P|lang:en|wc:3|flavl:0-2|cs:8398|v=4,Ayansh Trading Private Limited,https://www.kartzons.in/?pos=12&kwd=stroller travel system&tags=A||||8752.144|Price|product|||TS|rsf:gd-|-qr_nm:gd|res:RC3|com-cf:nl|ptrs:na|ktp:N0|mc:78108|mtp:S|qry_typ:P|lang:en|wc:3|flavl:0-2|cs:8398|v=4,False,96979-88399 Azad Nagar,New Delhi,"72/1, Gali No 9, West Azad Nagar, East Delhi, 96979-88399 Azad Nagar, New Delhi - 110051, Dist.Delhi, Delhi",8047845326,
Baby Stroller Fold for Newborn Baby Reversible Handle Bracker Easy Carry Travel,https://www.indiamart.com/proddetail/baby-stroller-fold-for-newborn-baby-reversible-handle-bracker-easy-carry-travel-2854759076612.html?pos=13&kwd=stroller travel system&tags=BA||||8230.883|Price|product|||MDC|rsf:gd-|-qr_nm:gd|res:RC3|com-cf:nl|ptrs:na|ktp:N0|mc:78108|mtp:S|qry_typ:P|lang:en|wc:3|flavl:0-2|cs:8398|v=4,Shiv Marketing,https://www.indiamart.com/shivmarketing/?pos=13&kwd=stroller travel system&tags=BA||||8230.883|Price|product|||MDC|rsf:gd-|-qr_nm:gd|res:RC3|com-cf:nl|ptrs:na|ktp:N0|mc:78108|mtp:S|qry_typ:P|lang:en|wc:3|flavl:0-2|cs:8398|v=4,False,Katargam,Surat,"2nd Floor Blog-F, Flat 201, Shivam Avenue, Singanpore Dabholi Road, Katargam,, Katargam, Surat - 395004, Dist.Surat, Gujarat",7949093095,
"Multicolor 2.5 Feet Baby Stroller Pram, 8 Wheel, Packaging Type: Box Packing",https://www.indiamart.com/proddetail/baby-stroller-pram-2854219439473.html?pos=14&kwd=stroller travel system&tags=A||||8752.144|Price|product|||TS|rsf:gd-|-qr_nm:gd|res:RC3|com-cf:nl|ptrs:na|ktp:N0|mc:78108|mtp:S|qry_typ:P|lang:en|wc:3|flavl:0-2|cs:8398|v=4,Indial Premium Products,https://www.indiamart.com/indial-premium-products/?pos=14&kwd=stroller travel system&tags=A||||8752.144|Price|product|||TS|rsf:gd-|-qr_nm:gd|res:RC3|com-cf:nl|ptrs:na|ktp:N0|mc:78108|mtp:S|qry_typ:P|lang:en|wc:3|flavl:0-2|cs:8398|v=4,False,,New Delhi,"68, K Block, Jahangirpuri North West Delhi, New Delhi - 110033, Dist.Delhi, Delhi",8045732973,
4 Feet Plastic And Iron Baby Stroller Travel System,https://www.indiamart.com/proddetail/baby-stroller-travel-system-27130676188.html?pos=15&kwd=stroller travel system&tags=BB||||8752.144|Price|product|||MDC|rsf:gd-|-qr_nm:gd|res:RC3|com-cf:nl|ptrs:na|ktp:N0|mc:78108|mtp:S|qry_typ:P|lang:en|wc:3|cs:7540|v=4,Crazy Kanchan,https://www.indiamart.com/crazykanchan/?pos=15&kwd=stroller travel system&tags=BB||||8752.144|Price|product|||MDC|rsf:gd-|-qr_nm:gd|res:RC3|com-cf:nl|ptrs:na|ktp:N0|mc:78108|mtp:S|qry_typ:P|lang:en|wc:3|cs:7540|v=4,False,Bhajan Pura,New Delhi,"C-344/1 Gali No -16 Bhajanpura , Shahdara North East Delhi, Bhajan Pura, New Delhi - 110053, Dist.Delhi, Delhi",8048204487,
"Baybee Grey Aluminium Stroller Travel System, 4 Wheels, Age Group: 0-3 Years",https://www.indiamart.com/proddetail/baybee-grey-aluminium-stroller-travel-system-2853491277748.html?pos=16&kwd=stroller travel system&tags=BA||||8954.051|Price|product|||MDC|rsf:gd-|-qr_nm:gd|res:RC3|com-cf:nl|ptrs:na|ktp:N0|mc:78108|mtp:S|qry_typ:P|lang:en|wc:3|cs:7540|v=4,Mom's Fashion World,https://www.indiamart.com/moms-fashion-world/?pos=16&kwd=stroller travel system&tags=BA||||8954.051|Price|product|||MDC|rsf:gd-|-qr_nm:gd|res:RC3|com-cf:nl|ptrs:na|ktp:N0|mc:78108|mtp:S|qry_typ:P|lang:en|wc:3|cs:7540|v=4,False,Adyar,Chennai,"10/2 ,12th Street, Bakthavatchallam Nagar,Nanganallur, Adyar, Chennai - 600061, Dist.Chennai, Tamil Nadu",7949091874,
PATOYS | 16799 Strollers America Plus Grey Melange,https://www.indiamart.com/proddetail/patoys-16799-strollers-america-plus-grey-melange-2851579839655.html?pos=17&kwd=stroller travel system&tags=BA||||8793.739|Price|product|||TS|rsf:gd-|-qr_nm:gd|res:RC3|com-cf:nl|ptrs:na|ktp:N0|mc:78108|mtp:S|qry_typ:P|lang:en|wc:3|cs:7540|v=4,Patoys,https://www.indiamart.com/patoys/?pos=17&kwd=stroller travel system&tags=BA||||8793.739|Price|product|||TS|rsf:gd-|-qr_nm:gd|res:RC3|com-cf:nl|ptrs:na|ktp:N0|mc:78108|mtp:S|qry_typ:P|lang:en|wc:3|cs:7540|v=4,False,Krishna Nagar,Mathura,"Ground Floor Shop No - 3 Krishna Nagar Krishna Plaza, Krishna Nagar, Mathura - 281004, Dist.Mathura, Uttar Pradesh",,
"Standard Children Baby Stroller, 4",https://www.indiamart.com/proddetail/children-baby-stroller-26436306973.html?pos=18&kwd=stroller travel system&tags=BA||||8307.81|Price|product|||TS|rsf:gd-|-qr_nm:gd|res:RC3|com-cf:nl|ptrs:na|ktp:N0|mc:78108|mtp:S|qry_typ:P|lang:en|wc:3|cs:7540|v=4,Porwal Cycle And Motor Company,https://www.indiamart.com/porwal-cycle-motor/?pos=18&kwd=stroller travel system&tags=BA||||8307.81|Price|product|||TS|rsf:gd-|-qr_nm:gd|res:RC3|com-cf:nl|ptrs:na|ktp:N0|mc:78108|mtp:S|qry_typ:P|lang:en|wc:3|cs:7540|v=4,False,Budhwar Peth,Pune,"185/2 B, Ground Floor, Porwal Cycle And Motor Company, Laxmi Road, Budhwar Peth, Budhwar Peth, Pune - 411002, Dist.Pune, Maharashtra",8043811727,
Baby Stroller Pram,https://www.indiamart.com/proddetail/baby-stroller-pram-2852488832573.html?pos=19&kwd=stroller travel system&tags=BA||||8211.142|Price|product|||TS|rsf:gd-|-qr_nm:gd|res:RC3|com-cf:nl|ptrs:na|ktp:N0|mc:78108|mtp:S|qry_typ:P|lang:en|wc:3|cs:7540|v=4,Mabel The Fashion Hub,https://www.mabelbabies.com/?pos=19&kwd=stroller travel system&tags=BA||||8211.142|Price|product|||TS|rsf:gd-|-qr_nm:gd|res:RC3|com-cf:nl|ptrs:na|ktp:N0|mc:78108|mtp:S|qry_typ:P|lang:en|wc:3|cs:7540|v=4,False,Andheri East,Mumbai,"Shop No 1, Teresa Triumph Chs, J B Nagar, Andheri East, Mumbai - 400059, Dist.Mumbai, Maharashtra",8047635478,
Joie Mirus Reversible Handle Stroller (Birth to 17.5kg),https://www.indiamart.com/proddetail/joie-mirus-reversible-handle-stroller-birth-to-17-5kg-2851664954888.html?pos=20&kwd=stroller travel system&tags=BA||||8752.144|Price|product|||TS|rsf:gd-|-qr_nm:gd|res:RC3|com-cf:nl|ptrs:na|ktp:N0|mc:78108|mtp:S|qry_typ:P|lang:en|wc:3|cs:7540|v=4,Luxtronic Technologies,https://www.indiamart.com/luxtronic-technologies/?pos=20&kwd=stroller travel system&tags=BA||||8752.144|Price|product|||TS|rsf:gd-|-qr_nm:gd|res:RC3|com-cf:nl|ptrs:na|ktp:N0|mc:78108|mtp:S|qry_typ:P|lang:en|wc:3|cs:7540|v=4,False,Burari,New Delhi,"Khasra No.19/1, Shastri Park Burari,, Burari, New Delhi - 110084, Dist.Delhi, Delhi",7942835637,
Staranddaisy Sunrise Stroller,https://www.indiamart.com/proddetail/staranddaisy-sunrise-stroller-2852450023430.html?pos=21&kwd=stroller travel system&tags=BA||||8752.144|Price|product|||TS|rsf:gd-|-qr_nm:gd|res:RC3|com-cf:nl|ptrs:na|ktp:N0|mc:78108|mtp:S|qry_typ:P|lang:en|wc:3|cs:7540|v=4,Gupta Plastic Works,https://www.indiamart.com/guptaplasticworks/?pos=21&kwd=stroller travel system&tags=BA||||8752.144|Price|product|||TS|rsf:gd-|-qr_nm:gd|res:RC3|com-cf:nl|ptrs:na|ktp:N0|mc:78108|mtp:S|qry_typ:P|lang:en|wc:3|cs:7540|v=4,False,Azadpur,New Delhi,"A-80/1, G.T. Karnal Road, Industrial Area, Azadpur, New Delhi - 110033, Dist.Delhi, Delhi",8046032300,
Wicker Doll Stroller Wicker Doll Pram Doll Pram Wicker Baby Stroller for Dolls Eco-friendly,https://www.indiamart.com/proddetail/wicker-doll-stroller-wicker-doll-pram-doll-pram-wicker-baby-stroller-for-dolls-eco-friendly-2854509217688.html?pos=22&kwd=stroller travel system&tags=BA||||8752.144|Price|product|||TS|rsf:gd-|-qr_nm:gd|res:RC3|com-cf:nl|ptrs:na|ktp:N0|mc:78108|mtp:S|qry_typ:P|lang:en|wc:3|cs:7540|v=4,Craferia Export Llp,https://www.craferiaexport.com/?pos=22&kwd=stroller travel system&tags=BA||||8752.144|Price|product|||TS|rsf:gd-|-qr_nm:gd|res:RC3|com-cf:nl|ptrs:na|ktp:N0|mc:78108|mtp:S|qry_typ:P|lang:en|wc:3|cs:7540|v=4,True,N.S.I.T. Dwarka,New Delhi,"H.No 319, 3rd Floor, Pocket 1, Sector 12, Dwarka,Near Metro Station,, N.S.I.T. Dwarka, New Delhi - 110078, Dist.Delhi, Delhi",8047671940,
Baby Stroller,https://www.indiamart.com/proddetail/baby-stroller-8624384630.html?pos=23&kwd=stroller travel system&tags=BA||||8663.873|Price|product|||TS|rsf:gd-|-qr_nm:gd|res:RC3|com-cf:nl|ptrs:na|ktp:N0|mc:78108|mtp:S|qry_typ:P|lang:en|wc:3|cs:7540|v=4,Hitendar Sales Corporation,https://www.indiamart.com/hitendarsalescorporation/?pos=23&kwd=stroller travel system&tags=BA||||8663.873|Price|product|||TS|rsf:gd-|-qr_nm:gd|res:RC3|com-cf:nl|ptrs:na|ktp:N0|mc:78108|mtp:S|qry_typ:P|lang:en|wc:3|cs:7540|v=4,False,Chickpet,Bengaluru,"No. 109, BB Temple Street, Mamulpet, Chickpet, Chickpet, Bengaluru - 560053, Dist.Bengaluru, Karnataka",8047693080,
"2 Feet Iron Baby Stroller, 4",https://www.indiamart.com/proddetail/baby-stroller-21747188255.html?pos=24&kwd=stroller travel system&tags=BA||||8211.142|Price|product|||TS|rsf:gd-|-qr_nm:gd|res:RC3|com-cf:nl|ptrs:na|ktp:N0|mc:78108|mtp:S|qry_typ:P|lang:en|wc:3|cs:7540|v=4,Toys Center,https://www.evergreentoys.in/?pos=24&kwd=stroller travel system&tags=BA||||8211.142|Price|product|||TS|rsf:gd-|-qr_nm:gd|res:RC3|com-cf:nl|ptrs:na|ktp:N0|mc:78108|mtp:S|qry_typ:P|lang:en|wc:3|cs:7540|v=4,False,Umerkhadi,Mumbai,"2nd Floor, 75/77 Room No 7, C Block, Sheriar Baug Building Babula Tank Road, Umerkhadi, Mumbai - 400009, Dist.Mumbai, Maharashtra",8047638027,
Baby Walker Craddle,https://www.indiamart.com/proddetail/baby-walker-craddle-25921700048.html?pos=25&kwd=stroller travel system&tags=BA||||8211.142||product|||TS|rsf:gd-|-qr_nm:gd|res:RC3|com-cf:nl|ptrs:na|ktp:N0|mc:78108|mtp:S|qry_typ:P|lang:en|wc:3|cs:7540|v=4,Ennar Enterprises,https://www.indiamart.com/ennar-entp-mumbai/?pos=25&kwd=stroller travel system&tags=BA||||8211.142||product|||TS|rsf:gd-|-qr_nm:gd|res:RC3|com-cf:nl|ptrs:na|ktp:N0|mc:78108|mtp:S|qry_typ:P|lang:en|wc:3|cs:7540|v=4,False,Masjid Bandar,Mumbai,"1st, M-101, Vardhaman Nagar, Dr R P Road, Masjid Bandar, Mumbai - 400080, Dist.Mumbai, Maharashtra",8046030904,
"Baby Cradle Stroller, Blue, 4",https://www.indiamart.com/proddetail/baby-cradle-stroller-blue-27018711848.html?pos=26&kwd=stroller travel system&tags=BA||||8752.144|Price|product|||MDC|rsf:gd-|-qr_nm:gd|res:RC3|com-cf:nl|ptrs:na|ktp:N0|mc:78108|mtp:S|qry_typ:P|lang:en|wc:3|cs:7540|v=4,Goyal Baby Products,https://www.indiamart.com/goyalbabyproducts/?pos=26&kwd=stroller travel system&tags=BA||||8752.144|Price|product|||MDC|rsf:gd-|-qr_nm:gd|res:RC3|com-cf:nl|ptrs:na|ktp:N0|mc:78108|mtp:S|qry_typ:P|lang:en|wc:3|cs:7540|v=4,False,Bawana,New Delhi,"Plot.No.32, Ground Floor, Pocket-G, Sector-2, Bawana Dsidc, Bawana, New Delhi - 110039, Dist.Delhi, Delhi",8043894453,
"Normal Baby Stroller DLX, 4",https://www.indiamart.com/proddetail/baby-stroller-dlx-14674922791.html?pos=27&kwd=stroller travel system&tags=BA||||8211.142|Price|product|||MDC|rsf:gd-|-qr_nm:gd|res:RC3|com-cf:nl|ptrs:na|ktp:N0|mc:78108|mtp:S|qry_typ:P|lang:en|wc:3|cs:7540|v=4,Sara Traders,https://www.indiamart.com/saratraders-mumbai/?pos=27&kwd=stroller travel system&tags=BA||||8211.142|Price|product|||MDC|rsf:gd-|-qr_nm:gd|res:RC3|com-cf:nl|ptrs:na|ktp:N0|mc:78108|mtp:S|qry_typ:P|lang:en|wc:3|cs:7540|v=4,False,Princess Dock,Mumbai,"DONGRI,5/7 NISHANPADA CROSS LANE,2, DASTAGIR BUILDING,Mumbai, Princess Dock, Mumbai - 400009, Dist.Mumbai, Maharashtra",8048265712,
"Stainless Steel Dumbledo Babylove Pink Baby Stroller, 4",https://www.indiamart.com/proddetail/dumbledo-babylove-pink-baby-stroller-2854254006873.html?pos=28&kwd=stroller travel system&tags=BA||||8211.142|Price|product|||MDC|rsf:gd-|-qr_nm:gd|res:RC3|com-cf:nl|ptrs:na|ktp:N0|mc:78108|mtp:S|qry_typ:P|lang:en|wc:3|cs:7540|v=4,Dumbledo,https://www.indiamart.com/dumbledo-mumbai/?pos=28&kwd=stroller travel system&tags=BA||||8211.142|Price|product|||MDC|rsf:gd-|-qr_nm:gd|res:RC3|com-cf:nl|ptrs:na|ktp:N0|mc:78108|mtp:S|qry_typ:P|lang:en|wc:3|cs:7540|v=4,False,,Mumbai,"1st Floor, B/105, Bhoomi Valley, Thakur Village Road, Mumbai - 400101, Dist.Mumbai, Maharashtra",8044560722,
Kids Baggi,https://www.indiamart.com/proddetail/kids-baggi-2855061127791.html?pos=29&kwd=stroller travel system&tags=BB||||8813.969|Price|product|||MDC|rsf:gd-|-qr_nm:gd|res:RC3|com-cf:nl|ptrs:na|ktp:N0|mc:78108|mtp:S|qry_typ:P|lang:en|wc:3|cs:7540|v=4,M.K Kids Zone,https://www.indiamart.com/mk-kids-zone/?pos=29&kwd=stroller travel system&tags=BB||||8813.969|Price|product|||MDC|rsf:gd-|-qr_nm:gd|res:RC3|com-cf:nl|ptrs:na|ktp:N0|mc:78108|mtp:S|qry_typ:P|lang:en|wc:3|cs:7540|v=4,False,ghanta ghar,Meerut,"34, Opp Pyare Lal Hospital, Ahmad Road, ghanta ghar, Meerut - 250002, Dist.Meerut, Uttar Pradesh",8047526300,
Blue & Red Baby Prams,https://www.indiamart.com/proddetail/baby-prams-19391809355.html?pos=30&kwd=stroller travel system&tags=BA||||8752.144|Price|product|||TS|rsf:gd-|-qr_nm:gd|res:RC3|com-cf:nl|ptrs:na|ktp:N0|mc:78108|mtp:S|qry_typ:P|lang:en|wc:3|cs:7540|v=4,Shri Krishna Trading,https://www.indiamart.com/shrikrishna-trading/?pos=30&kwd=stroller travel system&tags=BA||||8752.144|Price|product|||TS|rsf:gd-|-qr_nm:gd|res:RC3|com-cf:nl|ptrs:na|ktp:N0|mc:78108|mtp:S|qry_typ:P|lang:en|wc:3|cs:7540|v=4,False,Pitampura,New Delhi,"WZ-351, Pitampura, New Delhi - 110034, Dist.Delhi, Delhi",8047634011,
Baby Stroller- Bicycles Hook,https://www.indiamart.com/proddetail/baby-stroller-bicycles-hook-2854572783397.html?pos=31&kwd=stroller travel system&tags=BA||||8211.142|Price|product|||TS|rsf:gd-|-qr_nm:gd|res:RC3|com-cf:nl|ptrs:na|ktp:N0|mc:78108|mtp:S|qry_typ:P|lang:en|wc:3|cs:7540|v=4,Parshwa Traders,https://www.parshwatrader.com/?pos=31&kwd=stroller travel system&tags=BA||||8211.142|Price|product|||TS|rsf:gd-|-qr_nm:gd|res:RC3|com-cf:nl|ptrs:na|ktp:N0|mc:78108|mtp:S|qry_typ:P|lang:en|wc:3|cs:7540|v=4,False,Masjiid bunder,Mumbai,"Crawford Market, Mumbai, 1st Floor, Shop No.4A, Amaan Mansion, 91 Sarang Street, Masjiid bunder, Mumbai - 400003, Dist.Mumbai, Maharashtra",8048963161,
"Plastic ATM MACHINE TOY, Child Age Group: 4-6 Yrs",https://www.indiamart.com/proddetail/atm-machine-toy-2852128192362.html?pos=32&kwd=stroller travel system&tags=BA||||8663.873|Price|product|||TS|rsf:gd-|-qr_nm:gd|res:RC3|com-cf:nl|ptrs:na|ktp:N0|mc:78108|mtp:S|qry_typ:P|lang:en|wc:3|cs:7540|v=4,Ratnaakar Impex,https://www.indiamart.com/ratnaakarimpex/?pos=32&kwd=stroller travel system&tags=BA||||8663.873|Price|product|||TS|rsf:gd-|-qr_nm:gd|res:RC3|com-cf:nl|ptrs:na|ktp:N0|mc:78108|mtp:S|qry_typ:P|lang:en|wc:3|cs:7540|v=4,False,Dharmarayaswamy Temple Street,Bengaluru,"6th Floor, No.6/2, Shop-1, Luciya City Center,Next To Sharada Talkies, OTC Road, Dharmarayaswamy Temple Street, Bengaluru - 560002, Dist.Bengaluru, Karnataka",7942843226,
WATERPROOF BABY STROLLER HANGING BAG,https://www.indiamart.com/proddetail/waterproof-baby-stroller-hanging-bag-27508499697.html?pos=33&kwd=stroller travel system&tags=BA||||8230.883|Price|product|||TS|rsf:gd-|-qr_nm:gd|res:RC3|com-cf:nl|ptrs:na|ktp:N0|mc:78108|mtp:S|qry_typ:P|lang:en|wc:3|cs:7540|v=4,Clomana,https://www.clomana.in/?pos=33&kwd=stroller travel system&tags=BA||||8230.883|Price|product|||TS|rsf:gd-|-qr_nm:gd|res:RC3|com-cf:nl|ptrs:na|ktp:N0|mc:78108|mtp:S|qry_typ:P|lang:en|wc:3|cs:7540|v=4,False,Katargam,Surat,"Shed No. 2, Sy. No. 310, Patel Falia, Katargam, Katargam, Surat - 395004, Dist.Surat, Gujarat",8048984393,
Red And Black 2 Side Baby Seaters,https://www.indiamart.com/proddetail/2-side-kids-stroller-2854745876912.html?pos=34&kwd=stroller travel system&tags=BB||||8230.883|Price|product|||MDC|rsf:gd-|-qr_nm:gd|res:RC3|com-cf:nl|ptrs:na|ktp:N0|mc:78108|mtp:S|qry_typ:P|lang:en|wc:3|cs:7540|v=4,Shree Shree Khilona,https://www.indiamart.com/shreeshree-khilona/?pos=34&kwd=stroller travel system&tags=BB||||8230.883|Price|product|||MDC|rsf:gd-|-qr_nm:gd|res:RC3|com-cf:nl|ptrs:na|ktp:N0|mc:78108|mtp:S|qry_typ:P|lang:en|wc:3|cs:7540|v=4,False,Turava Compound Heera Bagh,Surat,"Lower Ground Floor, Shop No-L/9 To L/13, Sarthi CO-OP Housing Society LTD, Varachha Main Road, Turava Compound Heera Bagh, Surat - 395006, Dist.Surat, Gujarat",7949322132,
"Polyester Stroller School Bag, Sttrolr Sb001-b",https://www.indiamart.com/proddetail/stroller-school-bag-2851501736333.html?pos=35&kwd=stroller travel system&tags=BA||||8954.051|Price|product|||MDC|rsf:gd-|-qr_nm:gd|res:RC3|com-cf:nl|ptrs:na|ktp:N0|mc:78108|mtp:S|qry_typ:P|lang:en|wc:3|cs:7540|v=4,Aventera Ventures Private Limited,https://www.indiamart.com/aventera-ventures/?pos=35&kwd=stroller travel system&tags=BA||||8954.051|Price|product|||MDC|rsf:gd-|-qr_nm:gd|res:RC3|com-cf:nl|ptrs:na|ktp:N0|mc:78108|mtp:S|qry_typ:P|lang:en|wc:3|cs:7540|v=4,False,Chennai,Chennai,"3/129, Thalambur Main Road, Karanai, Navallur Post, Chennai, Chennai - 600130, Dist.Chennai, Tamil Nadu",8048619129,
Emerson Zxl with Sw electronic ca stroller model 543-0225-03,,Sonex Trading Co.,https://www.sonextrading.in/?pos=36&kwd=stroller travel system&tags=BA||||8228.275|Price|product|||TS|rsf:gd-|-qr_nm:gd|res:RC3|com-cf:nl|ptrs:na|ktp:N0|mc:78108|mtp:S|qry_typ:P|lang:en|wc:3|cs:7540|v=4,False,Sarkhej,Ahmedabad,"4, Saurashtra Estate, Near Lalji Mulji Transport S.G. Highway, Sarkhej, Ahmedabad - 382210, Dist.Ahmedabad, Gujarat",7942542538,
3 In1 Swing,,Vikas Enterprises,https://www.indiamart.com/vikasentp-delhi/?pos=37&kwd=stroller travel system&tags=BA||||8752.144|Price|product|||MDC|rsf:gd-|-qr_nm:gd|res:RC3|com-cf:nl|ptrs:na|ktp:N0|mc:78108|mtp:S|qry_typ:P|lang:en|wc:3|cs:7540|v=4,False,Nangloi,New Delhi,"HN 35, Tyagi Colony, Rajendra Park, Main Rohtak Road Nangloi, Nangloi, New Delhi - 110041, Dist.Delhi, Delhi",8046065409,
Staranddaisy Luxury Kids Boutique,,Staranddaisy Luxury Kids Boutique,https://www.indiamart.com/staranddaisy-luxury-kids-boutique/?pos=38&kwd=stroller travel system&tags=A||||8785.791||bl|||TS|rsf:gd-|-qr_nm:gd|res:RC3|com-cf:nl|ptrs:na|ktp:N0|mc:78108|mtp:S|qry_typ:P|lang:en|wc:3|cs:7540|v=4,False,Nehru Nagar,Ghaziabad,"R-6/27, Sector - 6 , Raj Nagar, Nehru Nagar, Ghaziabad - 201001, Dist.Ghaziabad, Uttar Pradesh",8048971885,
"16 Inch Mild Steel Baby Pram, 6 Wheel",https://www.indiamart.com/proddetail/16-inch-mild-steel-baby-pram-2851821617333.html?pos=39&kwd=stroller travel system&tags=BA||||8752.144|Price|proxy|||MDC|rsf:gd-|-qr_nm:gd|res:RC3|com-cf:nl|ptrs:na|ktp:N0|mc:78108|mtp:S|qry_typ:P|lang:en|wc:3|cs:7540|v=4,Pinky Enterprises,https://www.indiamart.com/pinky-enterprisesdelhi/?pos=39&kwd=stroller travel system&tags=BA||||8752.144|Price|proxy|||MDC|rsf:gd-|-qr_nm:gd|res:RC3|com-cf:nl|ptrs:na|ktp:N0|mc:78108|mtp:S|qry_typ:P|lang:en|wc:3|cs:7540|v=4,False,Brahmpuri,New Delhi,"N-9/11, Gali No-14, NR Veshyai Dharmshala, Brahmpuri Ghonda, North East Delhi, Brahmpuri, New Delhi - 110053, Dist.Delhi, Delhi",8047694699,
4foot Plastic And Clothes Stroller Travel System,https://www.indiamart.com/proddetail/stroller-travel-system-2849703551773.html?pos=40&kwd=stroller travel system&tags=BA||||8785.791|Price|product|||NA|rsf:gd-|-qr_nm:gd|res:RC3|com-cf:nl|ptrs:na|ktp:N0|mc:78108|mtp:S|qry_typ:P|lang:en|wc:3|cs:7540|v=4,Geeta Industries,https://www.indiamart.com/geetaindustries-troniccity/?pos=40&kwd=stroller travel system&tags=BA||||8785.791|Price|product|||NA|rsf:gd-|-qr_nm:gd|res:RC3|com-cf:nl|ptrs:na|ktp:N0|mc:78108|mtp:S|qry_typ:P|lang:en|wc:3|cs:7540|v=4,False,,Ghaziabad,"Plot No D-50 Sec A-7 Tronica City, Ghaziabad - 201102, Dist.Ghaziabad, Uttar Pradesh",7942785994,
"SS Baby Stroller Travel System, 4 Wheel",https://www.indiamart.com/proddetail/baby-stroller-travel-system-23952076348.html?pos=41&kwd=stroller travel system&tags=BB||||8752.144|Price|product|||NA|rsf:gd-|-qr_nm:gd|res:RC3|com-cf:nl|ptrs:na|ktp:N0|mc:78108|mtp:S|qry_typ:P|lang:en|wc:3|cs:7540|v=4,Shaurya Love,https://www.indiamart.com/shauryalove/?pos=41&kwd=stroller travel system&tags=BB||||8752.144|Price|product|||NA|rsf:gd-|-qr_nm:gd|res:RC3|com-cf:nl|ptrs:na|ktp:N0|mc:78108|mtp:S|qry_typ:P|lang:en|wc:3|cs:7540|v=4,False,Shahdara,New Delhi,"I-36/10, Gali No-10, Brahampuri,, Shahdara, New Delhi - 110053, Dist.Delhi, Delhi",8047784989,
Blue And Grey 3 Ft Kids Stroller Travel System,https://www.indiamart.com/proddetail/kids-stroller-travel-system-2853396730291.html?pos=42&kwd=stroller travel system&tags=BA||||8228.275|Price|product|||NA|rsf:gd-|-qr_nm:gd|res:RC3|com-cf:nl|ptrs:na|ktp:N0|mc:78108|mtp:S|qry_typ:P|lang:en|wc:3|cs:7540|v=4,Ayub Cycle Stores,https://www.indiamart.com/ayub-cycle-stores/?pos=42&kwd=stroller travel system&tags=BA||||8228.275|Price|product|||NA|rsf:gd-|-qr_nm:gd|res:RC3|com-cf:nl|ptrs:na|ktp:N0|mc:78108|mtp:S|qry_typ:P|lang:en|wc:3|cs:7540|v=4,False,Daskroi,Ahmedabad,"1, Oppo Prakas Highschool, S T Bus Stand Road, Bareja, Daskroi, Ahmedabad - 382425, Dist.Ahmedabad, Gujarat",7949227132,
"101 Centimeters Polyester Muze LX Black Baby Stroller Travel System, 4",https://www.indiamart.com/proddetail/muze-lx-black-baby-stroller-travel-system-2852174978212.html?pos=43&kwd=stroller travel system&tags=BA||||8752.144|Price|product|||NA|rsf:gd-|-qr_nm:gd|res:RC3|com-cf:nl|ptrs:na|ktp:N0|mc:78108|mtp:S|qry_typ:P|lang:en|wc:3|cs:7540|v=4,Pram Hut,https://www.indiamart.com/pram-hutdelhi/?pos=43&kwd=stroller travel system&tags=BA||||8752.144|Price|product|||NA|rsf:gd-|-qr_nm:gd|res:RC3|com-cf:nl|ptrs:na|ktp:N0|mc:78108|mtp:S|qry_typ:P|lang:en|wc:3|cs:7540|v=4,False,,New Delhi,"SHOP NO.- 156,ANARKALI COMPLEX,ANARKALI COMPLEX,New Delhi LOWER GROUND FLOOR, SHOP NO.- 156, ANARKALI COMPLEX, ANARKALI COMPLEX, JHANDEWALAN, New Delhi, Cent, New Delhi - 110055, Dist.Delhi, Delhi",7942701586,
"Smart Folding Stroller Travel System, Age Group: Newly Born, 4",https://www.indiamart.com/proddetail/smart-folding-stroller-travel-system-21173012530.html?pos=44&kwd=stroller travel system&tags=BB||||8661.854|Price|product|||NA|rsf:gd-|-qr_nm:gd|res:RC3|com-cf:nl|ptrs:na|ktp:N0|mc:78108|mtp:S|qry_typ:P|lang:en|wc:3|cs:7540|v=4,New Payal Gift House,https://www.indiamart.com/new-payal-gift-house/?pos=44&kwd=stroller travel system&tags=BB||||8661.854|Price|product|||NA|rsf:gd-|-qr_nm:gd|res:RC3|com-cf:nl|ptrs:na|ktp:N0|mc:78108|mtp:S|qry_typ:P|lang:en|wc:3|cs:7540|v=4,False,,Ludhiana,"KHALSA NATIONAL SCHOOL MKT,,,SHAHPUR ROAD,LUDHIAN 132-AB, Shahpur Road,141008,Ludhiana, Ludhiana - 141005, Dist.Ludhiana, Punjab",8048264926,
"112 cm Lightweight Aluminium,Plastic LuvLap Optima Baby Stroller Travel System, 4",https://www.indiamart.com/proddetail/luvlap-optima-baby-stroller-travel-system-24245296755.html?pos=45&kwd=stroller travel system&tags=BB||||8740.707|Price|product|||NA|rsf:gd-|-qr_nm:gd|res:RC3|com-cf:nl|ptrs:na|ktp:N0|mc:78108|mtp:S|qry_typ:P|lang:en|wc:3|cs:7540|v=4,Atharva Enterprises,https://www.indiamart.com/atharvaenterprises-zirakpur/?pos=45&kwd=stroller travel system&tags=BB||||8740.707|Price|product|||NA|rsf:gd-|-qr_nm:gd|res:RC3|com-cf:nl|ptrs:na|ktp:N0|mc:78108|mtp:S|qry_typ:P|lang:en|wc:3|cs:7540|v=4,False,SAS Nagar,Sas Nagar,"Shop No. 7, Near Community Centre, Luxmi Enclave, Dhakoli, SAS Nagar, Sas Nagar - 140603, Dist.Mohali, Punjab",7942538452,
Polka Tots Click Clack Travel System Space Stroller + Car Seat - Blue,https://www.indiamart.com/proddetail/polka-tots-click-clack-travel-system-space-stroller-car-seat-blue-2853696839091.html?pos=46&kwd=stroller travel system&tags=BA||||8228.275|Price|product|||NA|rsf:gd-|-qr_nm:gd|res:RC3|com-cf:nl|ptrs:na|ktp:N0|mc:78108|mtp:S|qry_typ:P|lang:en|wc:3|cs:7540|v=4,Eclat Globalbiz LLP,https://www.indiamart.com/eclatglobalbiz/?pos=46&kwd=stroller travel system&tags=BA||||8228.275|Price|product|||NA|rsf:gd-|-qr_nm:gd|res:RC3|com-cf:nl|ptrs:na|ktp:N0|mc:78108|mtp:S|qry_typ:P|lang:en|wc:3|cs:7540|v=4,False,,Ahmedabad,"Shilp Zaveri, Ahmedabad - 380004, Dist.Ahmedabad, Gujarat",,
"1.0 Leather Cruz V2 UPPAbaby Baby Strollers Extra-Large Easy-Access, 4",https://www.indiamart.com/proddetail/cruz-v2-uppababy-baby-strollers-extra-large-easy-access-2852650005091.html?pos=47&kwd=stroller travel system&tags=BA||||8592.183|Price|product|||NA|rsf:gd-|-qr_nm:gd|res:RC3|com-cf:nl|ptrs:na|ktp:N0|mc:78108|mtp:S|qry_typ:P|lang:en|wc:3|cs:7540|v=4,Rkg Global,https://www.indiamart.com/rkg-global-tumakuru/?pos=47&kwd=stroller travel system&tags=BA||||8592.183|Price|product|||NA|rsf:gd-|-qr_nm:gd|res:RC3|com-cf:nl|ptrs:na|ktp:N0|mc:78108|mtp:S|qry_typ:P|lang:en|wc:3|cs:7540|v=4,False,Niwai,Tonk,"F-86 Gali No 3 Deendayal Colony Niwai GALI NO 3 DEENDAYAL COLONY, BEHIND SBI BANK, Niwai, Tonk - 304021, Dist.Tonk, Rajasthan",8047311016,5747
Baby Prams Travel Systems,,Individual,https://www.indiamart.com/individual-141964100/?pos=48&kwd=stroller travel system&tags=BB||||8663.873||product|||NA|rsf:gd-|-qr_nm:gd|res:RC3|com-cf:nl|ptrs:na|ktp:N0|mc:78108|mtp:S|qry_typ:P|lang:en|wc:3|cs:7540|v=4,False,,Bengaluru,"#12, 1st floor, 9th Main, 4th Cross, BTM 1st stage, Near Nimhans wellbeing center,, Bengaluru - 560029, Dist.Bengaluru, Karnataka",8045849554,575
"0.5feet New Born Baby Stroller, 4",https://www.indiamart.com/proddetail/new-born-baby-stroller-26242136530.html?pos=49&kwd=stroller travel system&tags=BB||||8604.875|Price|product|||NA|rsf:gd-|-qr_nm:gd|res:RC3|com-cf:nl|ptrs:na|ktp:N0|mc:78108|mtp:S|qry_typ:P|lang:en|wc:3|cs:7540|v=4,National Traders,https://www.indiamart.com/nationaltraderspunjab/?pos=49&kwd=stroller travel system&tags=BB||||8604.875|Price|product|||NA|rsf:gd-|-qr_nm:gd|res:RC3|com-cf:nl|ptrs:na|ktp:N0|mc:78108|mtp:S|qry_typ:P|lang:en|wc:3|cs:7540|v=4,False,,Mansa,"Near River Brize, Jawaharke Road, Mansa - 151505, Punjab",8043862053,
Steel Moving Walker,https://www.indiamart.com/proddetail/steel-moving-walker-12448722691.html?pos=50&kwd=stroller travel system&tags=BB||||8954.051|Price|product|||NA|rsf:gd-|-qr_nm:gd|res:RC3|com-cf:nl|ptrs:na|ktp:N0|mc:78108|mtp:S|qry_typ:P|lang:en|wc:3|cs:7540|v=4,Kankaria International,https://www.indiamart.com/kankariainternational/?pos=50&kwd=stroller travel system&tags=BB||||8954.051|Price|product|||NA|rsf:gd-|-qr_nm:gd|res:RC3|com-cf:nl|ptrs:na|ktp:N0|mc:78108|mtp:S|qry_typ:P|lang:en|wc:3|cs:7540|v=4,False,Krishnammal Road,Chennai,"Shop No. 148, Krishnammal Road, Chennai - 600034, Dist.Chennai, Tamil Nadu",8043802944,
Doona Plus 4 In 1 Baby Stroller,,Roserve Enviro Private Limited,https://www.indiamart.com/company/227729369/?pos=51&kwd=stroller travel system&tags=BA||||8752.144||product|||NA|rsf:gd-|-qr_nm:gd|res:RC3|com-cf:nl|ptrs:na|ktp:N0|mc:78108|mtp:S|qry_typ:P|lang:en|wc:3|cs:7540|v=4,False,,New Delhi,"Bl-28 Shalimar Bagh, New Delhi - 110088, Dist.Delhi, Delhi",8048249710,1112
Stroller,,Omkar Toys,https://www.indiamart.com/omkar-toys-hyderabad/?pos=52&kwd=stroller travel system&tags=BB||||8786.56|Price|product|||NA|rsf:gd-|-qr_nm:gd|res:RC3|com-cf:nl|ptrs:na|ktp:N0|mc:78108|mtp:S|qry_typ:P|lang:en|wc:3|cs:7540|v=4,False,,Hyderabad,"12-1-733 Asif Nagar, Hyderabad - 500028, Dist.Hyderabad, Telangana",8048371744,609
Bajaj Baby Products Baby Stroller,https://www.indiamart.com/proddetail/baby-stroller-16071693533.html?pos=53&kwd=stroller travel system&tags=BA||||8752.144|Price|product|||NA|rsf:gd-|-qr_nm:gd|res:RC3|com-cf:nl|ptrs:na|ktp:N0|mc:78108|mtp:S|qry_typ:P|lang:en|wc:3|cs:7540|v=4,Bajaj Baby Products,https://www.indiamart.com/bajajbabyproducts/?pos=53&kwd=stroller travel system&tags=BA||||8752.144|Price|product|||NA|rsf:gd-|-qr_nm:gd|res:RC3|com-cf:nl|ptrs:na|ktp:N0|mc:78108|mtp:S|qry_typ:P|lang:en|wc:3|cs:7540|v=4,False,Bawana,New Delhi,"PLOT NO-54,,BLOCK-D,SHIV VIHAR KARALA P-11, Sector 1,110039,New Delhi, Bawana, New Delhi - 110081, Dist.Delhi, Delhi",8047669110,
Mild Steel Kids Folding Cradle,https://www.indiamart.com/proddetail/mild-steel-kids-folding-cradle-2850140247773.html?pos=54&kwd=stroller travel system&tags=BB||||8661.854|Price|product|||NA|rsf:gd-|-qr_nm:gd|res:RC3|com-cf:nl|ptrs:na|ktp:N0|mc:78108|mtp:S|qry_typ:P|lang:en|wc:3|cs:7540|v=4,Satnam Products,https://www.indiamart.com/satnamproducts/?pos=54&kwd=stroller travel system&tags=BB||||8661.854|Price|product|||NA|rsf:gd-|-qr_nm:gd|res:RC3|com-cf:nl|ptrs:na|ktp:N0|mc:78108|mtp:S|qry_typ:P|lang:en|wc:3|cs:7540|v=4,False,Dhandari Kalan,Ludhiana,"Plot No 536/35D/8A Guru Gobind Singh Colony,Dhandari Kalan - Satnam Products, Dhandari Kalan, Ludhiana - 141014, Dist.Ludhiana, Punjab",7942803490,
"S602 Baby Stroller, 8 Wheel",https://www.indiamart.com/proddetail/s602-baby-stroller-2852549497355.html?pos=55&kwd=stroller travel system&tags=BA||||8211.142|Price|product|||NA|rsf:gd-|-qr_nm:gd|res:RC3|com-cf:nl|ptrs:na|ktp:N0|mc:78108|mtp:S|qry_typ:P|lang:en|wc:3|cs:7540|v=4,Spinners Bicycles And Fitness,https://www.indiamart.com/spinnersbicyclesfitness/?pos=55&kwd=stroller travel system&tags=BA||||8211.142|Price|product|||NA|rsf:gd-|-qr_nm:gd|res:RC3|com-cf:nl|ptrs:na|ktp:N0|mc:78108|mtp:S|qry_typ:P|lang:en|wc:3|cs:7540|v=4,False,,Mumbai,"Mezzanine Floor, 203/205, Cream Apartment, Sheriff Devji Street, Chakla, Mandvi,, Mumbai - 400003, Dist.Mumbai, Maharashtra",7942711423,
Black And Red Stylish Baby Stroller,https://www.indiamart.com/proddetail/stylish-baby-stroller-3517872697.html?pos=56&kwd=stroller travel system&tags=BB||||9839.57|Price|product|||NA|rsf:gd-|-qr_nm:gd|res:RC3|com-cf:nl|ptrs:na|ktp:N0|mc:78108|mtp:S|qry_typ:P|lang:en|wc:3|cs:7540|v=4,Saroj International Trading Co.,https://www.indiamart.com/sarojinternationaltradingco/?pos=56&kwd=stroller travel system&tags=BB||||9839.57|Price|product|||NA|rsf:gd-|-qr_nm:gd|res:RC3|com-cf:nl|ptrs:na|ktp:N0|mc:78108|mtp:S|qry_typ:P|lang:en|wc:3|cs:7540|v=4,False,,Kolkata,"7B C Tiljala Road Park Circus, Kolkata - 700046, Dist.Kolkata, West Bengal",8047646422,
"28 Inch (h) PVC Luvlap Baby Stroller, 4",https://www.indiamart.com/proddetail/luvlap-baby-stroller-2851821371348.html?pos=57&kwd=stroller travel system&tags=BB||||8663.873|Price|product|||NA|rsf:gd-|-qr_nm:gd|res:RC3|com-cf:nl|ptrs:na|ktp:N0|mc:78108|mtp:S|qry_typ:P|lang:en|wc:3|cs:7540|v=4,Krishna Born Baby,https://www.indiamart.com/krishna-born-baby/?pos=57&kwd=stroller travel system&tags=BB||||8663.873|Price|product|||NA|rsf:gd-|-qr_nm:gd|res:RC3|com-cf:nl|ptrs:na|ktp:N0|mc:78108|mtp:S|qry_typ:P|lang:en|wc:3|cs:7540|v=4,False,,Bengaluru,"No 524, 24th Main, HSR Layout Sector-2, Urban, Bengaluru - 560102, Dist.Bengaluru, Karnataka",8047671592,
"Aluminium Sunbaby Angel Baby Stroller, 8",https://www.indiamart.com/proddetail/sunbaby-angel-baby-stroller-24760775973.html?pos=58&kwd=stroller travel system&tags=BB||||8752.144|Price|product|||NA|rsf:gd-|-qr_nm:gd|res:RC3|com-cf:nl|ptrs:na|ktp:N0|mc:78108|mtp:S|qry_typ:P|lang:en|wc:3|cs:7540|v=4,Krona Liquatec Ltd.,https://www.indiamart.com/kronaliquatec/?pos=58&kwd=stroller travel system&tags=BB||||8752.144|Price|product|||NA|rsf:gd-|-qr_nm:gd|res:RC3|com-cf:nl|ptrs:na|ktp:N0|mc:78108|mtp:S|qry_typ:P|lang:en|wc:3|cs:7540|v=4,False,,New Delhi,"B Ii/96, M.C.I.E, Badarpur, South Delhi, New Delhi - 110044, Dist.Delhi, Delhi",8047303429,
Stroller Travel System,,C M Jain Enterprises,https://www.indiamart.com/c-m-jain-enterprises/?pos=59&kwd=stroller travel system&tags=BB||||8752.144||product|||NA|rsf:gd-|-qr_nm:gd|res:RC3|com-cf:nl|ptrs:na|ktp:N0|mc:78108|mtp:S|qry_typ:P|lang:en|wc:3|cs:7540|v=4,False,,New Delhi,"6 -27 W E A,IST FLOOR, AJMAL KHAN ROAD, KAROL BAGH,KAROL BAGH Karol Bagh,,New Delhi, New Delhi - 110005, Dist.Delhi, Delhi",8048361341,627
"Polyester,Metal Mee Mee Baby Stroller Blue, Grey",https://www.indiamart.com/proddetail/mee-mee-baby-stroller-blue-grey-2852151255930.html?pos=60&kwd=stroller travel system&tags=BB||||8316.457|Price|product|||NA|rsf:gd-|-qr_nm:gd|res:RC3|com-cf:nl|ptrs:na|ktp:N0|mc:78108|mtp:S|qry_typ:P|lang:en|wc:3|cs:7540|v=4,Kihama Toys LLP,https://www.indiamart.com/kihamatoys/?pos=60&kwd=stroller travel system&tags=BB||||8316.457|Price|product|||NA|rsf:gd-|-qr_nm:gd|res:RC3|com-cf:nl|ptrs:na|ktp:N0|mc:78108|mtp:S|qry_typ:P|lang:en|wc:3|cs:7540|v=4,False,Gangapur Road,Nashik,"A Wing, Office No 1A, Rushiraj Riviers, Gangapur Road, Near Bhonsla Military School, Gangapur Road, Nashik - 422013, Dist.Nashik, Maharashtra",7942837923,
"Black 34 X 14 X 18 cm Multi Inner Bag for Stroller, PGU052401, Packaging Type: Cardboard Box",https://www.indiamart.com/proddetail/multi-inner-bag-for-stroller-2854526662933.html?pos=61&kwd=stroller travel system&tags=BA||||8752.144||product|||NA|rsf:gd-|-qr_nm:gd|res:RC3|com-cf:nl|ptrs:na|ktp:N0|mc:78108|mtp:S|qry_typ:P|lang:en|wc:3|cs:7540|v=4,Carry Trading Private Limited,https://www.indiamart.com/carry-trading-private-limited/?pos=61&kwd=stroller travel system&tags=BA||||8752.144||product|||NA|rsf:gd-|-qr_nm:gd|res:RC3|com-cf:nl|ptrs:na|ktp:N0|mc:78108|mtp:S|qry_typ:P|lang:en|wc:3|cs:7540|v=4,False,New Delhi,New Delhi,"80/40b,Malvi Nagar,New Delhi Malviya Nagar, New Delhi, New Delhi - 110017, Dist.Delhi, Delhi",8069033799,744
SG Enterprises Multicolor MM Shopping Trolley For Kids Playing,https://www.indiamart.com/proddetail/mm-shopping-trolley-22926564730.html?pos=62&kwd=stroller travel system&tags=BA||||8752.144||product|||NA|rsf:gd-|-qr_nm:gd|res:RC3|com-cf:nl|ptrs:na|ktp:N0|mc:78108|mtp:S|qry_typ:P|lang:en|wc:3|cs:7540|v=4,SG Enterprises,https://www.indiamart.com/sg-enterprises-newdelhi/?pos=62&kwd=stroller travel system&tags=BA||||8752.144||product|||NA|rsf:gd-|-qr_nm:gd|res:RC3|com-cf:nl|ptrs:na|ktp:N0|mc:78108|mtp:S|qry_typ:P|lang:en|wc:3|cs:7540|v=4,False,,New Delhi,"G-8/20, GALI NO-7, SHIV MANDIR ROAD, SWAROOP NAGAR, North West Delhi,, New Delhi - 110042, Dist.Delhi, Delhi",8048980525,
"Blue 4 Ft Childfun Baby Strollers Prama, 8, G11",https://www.indiamart.com/proddetail/childfun-baby-strollers-prama-2853340191297.html?pos=63&kwd=stroller travel system&tags=BB||||8752.144|Price|product|||NA|rsf:gd-|-qr_nm:gd|res:RC3|com-cf:nl|ptrs:na|ktp:N0|mc:78108|mtp:S|qry_typ:P|lang:en|wc:3|cs:7540|v=4,Nishad Cycle Industries,https://www.indiamart.com/nishadcycleindustries/?pos=63&kwd=stroller travel system&tags=BB||||8752.144|Price|product|||NA|rsf:gd-|-qr_nm:gd|res:RC3|com-cf:nl|ptrs:na|ktp:N0|mc:78108|mtp:S|qry_typ:P|lang:en|wc:3|cs:7540|v=4,False,,New Delhi,"H.No.-166, PKT-C, Sec-4, DSIDC, Bawana, New Delhi - 110039, Dist.Delhi, Delhi",7942821632,
Baby Stroller,https://www.indiamart.com/proddetail/baby-stroller-19646765488.html?pos=64&kwd=stroller travel system&tags=BB||||9110.092|Price|product|||NA|rsf:gd-|-qr_nm:gd|res:RC3|com-cf:nl|ptrs:na|ktp:N0|mc:78108|mtp:S|qry_typ:P|lang:en|wc:3|cs:7540|v=4,Janta Sports And Toys,https://www.indiamart.com/janta-sportstoys/?pos=64&kwd=stroller travel system&tags=BB||||9110.092|Price|product|||NA|rsf:gd-|-qr_nm:gd|res:RC3|com-cf:nl|ptrs:na|ktp:N0|mc:78108|mtp:S|qry_typ:P|lang:en|wc:3|cs:7540|v=4,False,Yahiyaganj,Lucknow,"Opposite Chhote Lal Misthan Bhandar, Yahiyaganj, Lucknow - 226004, Dist.Lucknow, Uttar Pradesh",8047670822,
"Imported Stroller, 8, 334",https://www.indiamart.com/proddetail/imported-stroller-2850361294733.html?pos=65&kwd=stroller travel system&tags=BB||||8954.051|Price|product|||NA|rsf:gd-|-qr_nm:gd|res:RC3|com-cf:nl|ptrs:na|ktp:N0|mc:78108|mtp:S|qry_typ:P|lang:en|wc:3|cs:7540|v=4,Luggage Art,https://www.indiamart.com/luggageart-india/?pos=65&kwd=stroller travel system&tags=BB||||8954.051|Price|product|||NA|rsf:gd-|-qr_nm:gd|res:RC3|com-cf:nl|ptrs:na|ktp:N0|mc:78108|mtp:S|qry_typ:P|lang:en|wc:3|cs:7540|v=4,False,,Chennai,"No.12/23, Ground Floor, Thandavamoorthy Street Seven, Chennai - 600079, Dist.Chennai, Tamil Nadu",7942803748,
Baby Stroller,https://www.indiamart.com/proddetail/baby-stroller-2849890890630.html?pos=66&kwd=stroller travel system&tags=BA||||8228.275|Price|product|||NA|rsf:gd-|-qr_nm:gd|res:RC3|com-cf:nl|ptrs:na|ktp:N0|mc:78108|mtp:S|qry_typ:P|lang:en|wc:3|cs:7540|v=4,Toy Paradise NX,https://www.indiamart.com/toy-paradise-nx-ahmedabad/?pos=66&kwd=stroller travel system&tags=BA||||8228.275|Price|product|||NA|rsf:gd-|-qr_nm:gd|res:RC3|com-cf:nl|ptrs:na|ktp:N0|mc:78108|mtp:S|qry_typ:P|lang:en|wc:3|cs:7540|v=4,False,shahpur cross road,Ahmedabad,"SHOP NO-1,NR. KASHI VISHVANATH MAHADEV,O/S SHAHPUR GATE,SHAHPUR nr kashi Vishwanath mahadev,380002,Ahmedabad, shahpur cross road, Ahmedabad - 380001, Dist.Ahmedabad, Gujarat",8043817929,
"Ms And Rexine QX-102 Tutti Frutti Stroller, 8 Wheel",https://www.indiamart.com/proddetail/qx-102-tutti-frutti-stroller-22647518573.html?pos=67&kwd=stroller travel system&tags=BB||||8752.144|Price|product|||NA|rsf:gd-|-qr_nm:gd|res:RC3|com-cf:nl|ptrs:na|ktp:N0|mc:78108|mtp:S|qry_typ:P|lang:en|wc:3|cs:7540|v=4,Cyllid Solution Hub Private Limited,https://www.indiamart.com/cyllidsolutionhub/?pos=67&kwd=stroller travel system&tags=BB||||8752.144|Price|product|||NA|rsf:gd-|-qr_nm:gd|res:RC3|com-cf:nl|ptrs:na|ktp:N0|mc:78108|mtp:S|qry_typ:P|lang:en|wc:3|cs:7540|v=4,False,,New Delhi,"SECOND FLOOR, HOUSE NO-2B, BLOCK D, ASHOKA ROAD,, ADARSH NAGAR, North West Delhi,, New Delhi - 110033, Dist.Delhi, Delhi",8048980570,
"1-3 Feet Eva Foam,Steel Baby Rainbow Stroller, 6 Wheel, 12078",https://www.indiamart.com/proddetail/baby-rainbow-stroller-21882196773.html?pos=68&kwd=stroller travel system&tags=BA||||8752.144|Price|product|||NA|rsf:gd-|-qr_nm:gd|res:RC3|com-cf:nl|ptrs:na|ktp:N0|mc:78108|mtp:S|qry_typ:P|lang:en|wc:3|cs:7540|v=4,Tradex Pro Private Limited,https://www.indiamart.com/tradexpro/?pos=68&kwd=stroller travel system&tags=BA||||8752.144|Price|product|||NA|rsf:gd-|-qr_nm:gd|res:RC3|com-cf:nl|ptrs:na|ktp:N0|mc:78108|mtp:S|qry_typ:P|lang:en|wc:3|cs:7540|v=4,False,Adarsh Nagar,New Delhi,"G Block Kh-8/20 Swaroop Nagar, Adarsh Nagar, New Delhi - 110042, Dist.Delhi, Delhi",7942559159,
"Eva Foam Luvlap Galaxy Stroller (3, Green, Black), 4",https://www.indiamart.com/proddetail/luvlap-galaxy-stroller-3-green-black-24301487830.html?pos=69&kwd=stroller travel system&tags=BB||||8752.144|Price|product|||NA|rsf:gd-|-qr_nm:gd|res:RC3|com-cf:nl|ptrs:na|ktp:N0|mc:78108|mtp:S|qry_typ:P|lang:en|wc:3|cs:7540|v=4,DRR Tele Services,https://www.indiamart.com/drr-tele-services/?pos=69&kwd=stroller travel system&tags=BB||||8752.144|Price|product|||NA|rsf:gd-|-qr_nm:gd|res:RC3|com-cf:nl|ptrs:na|ktp:N0|mc:78108|mtp:S|qry_typ:P|lang:en|wc:3|cs:7540|v=4,False,,New Delhi,"House No. G1/54B, Kunwar Singh Nagar, Nangloi, West Delhi, New Delhi - 110041, Dist.Delhi, Delhi",8048247131,5649
"Wooden Baby Walker, Six Months to Four Years, Packaging Type: Box Packging",https://www.indiamart.com/proddetail/wooden-baby-walker-2851613942433.html?pos=70&kwd=stroller travel system&tags=BB||||8601.347|Price|product|||NA|rsf:gd-|-qr_nm:gd|res:RC3|com-cf:nl|ptrs:na|ktp:N0|mc:78108|mtp:S|qry_typ:P|lang:en|wc:3|cs:7540|v=4,Rahul Traders,https://www.indiamart.com/rahultraders-191919939/?pos=70&kwd=stroller travel system&tags=BB||||8601.347|Price|product|||NA|rsf:gd-|-qr_nm:gd|res:RC3|com-cf:nl|ptrs:na|ktp:N0|mc:78108|mtp:S|qry_typ:P|lang:en|wc:3|cs:7540|v=4,False,,Jaipur,"NEAR ANAJ MANDI, DAKBEK, BAGRU, JAIPUR, RAJASTHAN- 303007, Jaipur - 303007, Dist.Jaipur, Rajasthan",8069416016,366
Baby Stroller,,Toy House,https://www.indiamart.com/toy-house-nigdi/?pos=71&kwd=stroller travel system&tags=A||||8307.81||product|||NA|rsf:gd-|-qr_nm:gd|res:RC3|com-cf:nl|ptrs:na|ktp:N0|mc:78108|mtp:S|qry_typ:P|lang:en|wc:3|cs:7540|v=4,False,Nigdi,Pune,"TILAK CHOWK,SHOP NO 3,KOHINOOR ARCADE,PRADHIKARAN,NIGADI, Nigdi, Pune - 411044, Dist.Pune, Maharashtra",8043811512,
"Yellow Baby Metal Trolly, For Photoshoot Props",https://www.indiamart.com/proddetail/baby-metal-trolly-27154856691.html?pos=72&kwd=stroller travel system&tags=BB||||8230.883|Price|product|||NA|rsf:gd-|-qr_nm:gd|res:RC3|com-cf:nl|ptrs:na|ktp:N0|mc:78108|mtp:S|qry_typ:P|lang:en|wc:3|cs:7540|v=4,Shivam Enterprise,https://www.indiamart.com/shivamentpsgujarat/?pos=72&kwd=stroller travel system&tags=BB||||8230.883|Price|product|||NA|rsf:gd-|-qr_nm:gd|res:RC3|com-cf:nl|ptrs:na|ktp:N0|mc:78108|mtp:S|qry_typ:P|lang:en|wc:3|cs:7540|v=4,False,Mota Varachha,Surat,"1st Floor UG/5, Plot No. 239 To 242, L H Road, Nr. Maruti Chowk Shiv Complex, Nilkanth Society, Mota Varachha, Surat - 395010, Dist.Surat, Gujarat",8043822474,
R for Rabbit - Pixie Buggy Stroller (Grey),https://www.indiamart.com/proddetail/r-for-rabbit-pixie-buggy-stroller-grey-2851751638333.html?pos=73&kwd=stroller travel system&tags=BB||||8612.732|Price|product|||NA|rsf:gd-|-qr_nm:gd|res:RC3|com-cf:nl|ptrs:na|ktp:N0|mc:78108|mtp:S|qry_typ:P|lang:en|wc:3|cs:7540|v=4,Swift Healthcare & Hygiene Private Limited,https://www.indiamart.com/swift-healthcare-hygiene-private-limited-srinagar/?pos=73&kwd=stroller travel system&tags=BB||||8612.732|Price|product|||NA|rsf:gd-|-qr_nm:gd|res:RC3|com-cf:nl|ptrs:na|ktp:N0|mc:78108|mtp:S|qry_typ:P|lang:en|wc:3|cs:7540|v=4,False,Pampore,Srinagar,"1 1 Shiraz Road Srinagar Srinagar, Pampore, Srinagar - 190003, Dist.Srinagar, Jammu & Kashmir",,
"Steel Baby Stroller Pram, 12",https://www.indiamart.com/proddetail/baby-stroller-pram-23138872091.html?pos=74&kwd=stroller travel system&tags=BB||||8823.154|Price|product|||NA|rsf:gd-|-qr_nm:gd|res:RC3|com-cf:nl|ptrs:na|ktp:N0|mc:78108|mtp:S|qry_typ:P|lang:en|wc:3|cs:7540|v=4,RDC Brothers,https://www.indiamart.com/rdc-brothers/?pos=74&kwd=stroller travel system&tags=BB||||8823.154|Price|product|||NA|rsf:gd-|-qr_nm:gd|res:RC3|com-cf:nl|ptrs:na|ktp:N0|mc:78108|mtp:S|qry_typ:P|lang:en|wc:3|cs:7540|v=4,False,Rajpur Chungi,Agra,"Near Rajeshwar mandir, Shamashabad road beside upadhyay tent house, Rajpur Chungi, Agra - 282001, Dist.Agra, Uttar Pradesh",8046067443,
"Iron Baby Stroller Pram, 4",https://www.indiamart.com/proddetail/baby-stroller-pram-2851973511812.html?pos=75&kwd=stroller travel system&tags=BA||||9839.57|Price|product|||NA|rsf:gd-|-qr_nm:gd|res:RC3|com-cf:nl|ptrs:na|ktp:N0|mc:78108|mtp:S|qry_typ:P|lang:en|wc:3|cs:7540|v=4,Winner Enterprise,https://www.indiamart.com/winnerenterprise-kolkata/?pos=75&kwd=stroller travel system&tags=BA||||9839.57|Price|product|||NA|rsf:gd-|-qr_nm:gd|res:RC3|com-cf:nl|ptrs:na|ktp:N0|mc:78108|mtp:S|qry_typ:P|lang:en|wc:3|cs:7540|v=4,False,Building,Kolkata,"44, Gandhi Building, 44 Ezra Street, Building, Kolkata - 700001, Dist.Kolkata, West Bengal",8047696249,
Baby Stroller,,Sree Renuka Toys & Kids,https://www.indiamart.com/sree-renuka-toys-kids/?pos=76&kwd=stroller travel system&tags=BB||||8786.56||product|||NA|rsf:gd-|-qr_nm:gd|res:RC3|com-cf:nl|ptrs:na|ktp:N0|mc:78108|mtp:S|qry_typ:P|lang:en|wc:3|cs:7540|v=4,False,,Hyderabad,"Feelkhana 15-1-418 1st floor feelkhana begum bazar, Hyderabad - 507115, Dist.Hyderabad, Telangana",8047847953,
Baby Stroller,,Aarthis Boutique,https://www.indiamart.com/aarthis-boutique/?pos=77&kwd=stroller travel system&tags=BB||||8924.796|Price|product|||NA|rsf:gd-|-qr_nm:gd|res:RC3|com-cf:nl|ptrs:na|ktp:N0|mc:78108|mtp:S|qry_typ:P|lang:en|wc:3|cs:7540|v=4,False,Aqualily,Mahindra World City,", Aqualily, Mahindra World City - 603002, Dist.Kanchipuram, Tamil Nadu",8048370717,8855
"Baby Trend Expedition Jogger Travel System, Millennium Blue",,Yoursfamily Mart,https://www.indiamart.com/yoursfamily-mart/?pos=78&kwd=stroller travel system&tags=BB||||8047.7524|Price|product|||NA|rsf:gd-|-qr_nm:gd|res:RC3|com-cf:nl|ptrs:na|ktp:N0|mc:78108|mtp:S|qry_typ:P|lang:en|wc:3|cs:7540|v=4,False,,Morbi,", Morbi - 363641, Dist.Rajkot, Gujarat",8048370724,4177
Baby Stroller,,Minggo - Best Gifting Shop Nagpur,https://www.indiamart.com/minggo-best-gifting-shop-nagpur/?pos=79&kwd=stroller travel system&tags=BB||||8876.815||product|||NA|rsf:gd-|-qr_nm:gd|res:RC3|com-cf:nl|ptrs:na|ktp:N0|mc:78108|mtp:S|qry_typ:P|lang:en|wc:3|cs:7540|v=4,False,,Nagpur,", Nagpur - 440008, Dist.Nagpur, Maharashtra",8048370723,5852
Modula Duo,,TBS India Telematic And Biomedical Services Private Limited,https://www.indiamart.com/tbs-india-telematic-and-biomedical-services-private-limited-guwahati/?pos=80&kwd=stroller travel system&tags=B||||10180.86||product|||NA|rsf:gd-|-qr_nm:gd|res:RC3|com-cf:nl|ptrs:na|ktp:N0|mc:78108|mtp:S|qry_typ:P|lang:en|wc:3|cs:7540|v=4,False,,Guwahati,"No 04,B/L4,Near Downtown Hospital,Hari Mandir Link Road,Assam Secretariat Po,Dispur,Guwahati,Kamrup Metropolitan, Guwahati - 781006, Dist.Kamrup, Assam",8047311013,9970
Baby Stroller,,Venkatesh Toys gift and cycle,https://www.indiamart.com/venkatesh-toys-gift-and-cycle/?pos=81&kwd=stroller travel system&tags=BB||||8620.856|Price|product|||NA|rsf:gd-|-qr_nm:gd|res:RC3|com-cf:nl|ptrs:na|ktp:N0|mc:78108|mtp:S|qry_typ:P|lang:en|wc:3|cs:7540|v=4,False,Basmat Road,Parbhani,"Shivaji college complex,shop No 23 Vasmat Road, Parbhani, Basmat Road, Parbhani - 431401, Dist.Parbhani, Maharashtra",8048249780,5944
Baby Stroller,,Singla Cycles,https://www.indiamart.com/singla-cycles-new-delhi/?pos=82&kwd=stroller travel system&tags=BA||||8752.144||product|||NA|rsf:gd-|-qr_nm:gd|res:RC3|com-cf:nl|ptrs:na|ktp:N0|mc:78108|mtp:S|qry_typ:P|lang:en|wc:3|cs:7540|v=4,False,UTTAM NAGAR,New Delhi,"Rz-b-39 Main Najafgarh Road Uttam Nagar, UTTAM NAGAR, New Delhi - 110059, Dist.Delhi, Delhi",8069857320,281
Baby Stroller,,J.S.R. Trading Company,https://www.indiamart.com/jsr-trading-company/?pos=83&kwd=stroller travel system&tags=BB||||8747.203||product|||NA|rsf:gd-|-qr_nm:gd|res:RC3|com-cf:nl|ptrs:na|ktp:N0|mc:78108|mtp:S|qry_typ:P|lang:en|wc:3|cs:7540|v=4,False,Panipat,Panipat,"Geeta Mandir Road Railway Road, Panipath, Panipat, Panipat - 132103, Dist.Panipat, Haryana",8047821028,
Little Tikes Stroller,,Arsh Marketing,https://www.indiamart.com/arshmarketingahmedabad/?pos=84&kwd=stroller travel system&tags=BB||||8228.275|Price|product|||NA|rsf:gd-|-qr_nm:gd|res:RC3|com-cf:nl|ptrs:na|ktp:N0|mc:78108|mtp:S|qry_typ:P|lang:en|wc:3|cs:7540|v=4,False,Juhapura,Ahmedabad,"1153 1, Pankore Naka, G P O, Juhapura, Ahmedabad - 380001, Dist.Ahmedabad, Gujarat",8047546762,
Baby Folding Stroller,,Mayank Toys,https://www.indiamart.com/mayank-toys/?pos=85&kwd=stroller travel system&tags=BA||||8752.144||product|||NA|rsf:gd-|-qr_nm:gd|res:RC3|com-cf:nl|ptrs:na|ktp:N0|mc:78108|mtp:S|qry_typ:P|lang:en|wc:3|cs:7540|v=4,False,North East,New Delhi,"Ground Floor, B 382, Street No. 5, Prem Vihar, Karawal Nagar, North East, New Delhi - 110094, Dist.Delhi, Delhi",7949226824,
Baby Stroller,,Chitra Enterprises,https://www.indiamart.com/dhitra-enterprises/?pos=86&kwd=stroller travel system&tags=BB||||8752.144||product|||NA|rsf:gd-|-qr_nm:gd|res:RC3|com-cf:nl|ptrs:na|ktp:N0|mc:78108|mtp:S|qry_typ:P|lang:en|wc:3|cs:7540|v=4,False,Dayalpur,New Delhi,"B-6/277 Biharipur Extn, Dayalpur, New Delhi - 110094, Dist.Delhi, Delhi",8043877330,
Baby Stroller,,Sk Trading,https://www.indiamart.com/company/55413068/?pos=87&kwd=stroller travel system&tags=BB||||8663.873|Price|product|||NA|rsf:gd-|-qr_nm:gd|res:RC3|com-cf:nl|ptrs:na|ktp:N0|mc:78108|mtp:S|qry_typ:P|lang:en|wc:3|cs:7540|v=4,False,,Bengaluru,", Bengaluru, Dist.Bengaluru, Karnataka",8048247104,6137
Luv lep pram Gelexy,,Santosh Toys,https://www.indiamart.com/santosh-toys-ahmedabad/?pos=88&kwd=stroller travel system&tags=BA||||8228.275||product|||NA|rsf:gd-|-qr_nm:gd|res:RC3|com-cf:nl|ptrs:na|ktp:N0|mc:78108|mtp:S|qry_typ:P|lang:en|wc:3|cs:7540|v=4,False,Khodia,Ahmedabad,"Inside Panchkuva Gate, Nr. Hotel Turab Innn, Khodia, Khodia, Ahmedabad - 380001, Dist.Ahmedabad, Gujarat",8048361332,945
Luvlap Baby Stroller Pram,,Jainam Toys & Gift Center,https://www.indiamart.com/jainamtoysgiftcenter/?pos=89&kwd=stroller travel system&tags=BB||||8559.269||product|||NA|rsf:gd-|-qr_nm:gd|res:RC3|com-cf:nl|ptrs:na|ktp:N0|mc:78108|mtp:S|qry_typ:P|lang:en|wc:3|cs:7540|v=4,False,Indore GPO,Indore,"36, Sikh Mohalla, Main Road, Aditya Villa Basement, Indore GPO, Indore - 452001, Dist.Indore, Madhya Pradesh",8043833004,
"Donald 3.5 Feet Kids Pram & Stroller, Age Group: 3-12 Months, 8 Wheel",https://www.indiamart.com/proddetail/kids-pram-stroller-21535967297.html?pos=90&kwd=stroller travel system&tags=CC||||8752.144|Price|product|||TS|rsf:gd-|-qr_nm:gd|res:RC3|com-cf:nl|ptrs:na|ktp:N0|mc:78108|mtp:S|qry_typ:P|lang:en|wc:3|cs:7540|v=4,Giriraj Enterprises,https://www.indiamart.com/giriraj-enterprises-delhi/?pos=90&kwd=stroller travel system&tags=CC||||8752.144|Price|product|||TS|rsf:gd-|-qr_nm:gd|res:RC3|com-cf:nl|ptrs:na|ktp:N0|mc:78108|mtp:S|qry_typ:P|lang:en|wc:3|cs:7540|v=4,False,Shakurpur,New Delhi,"WZ 313 A, Shakurpur Village, Shakurpur, New Delhi - 110034, Dist.Delhi, Delhi",8048262415,
LUVLAP TUTTI FRUTTI STROLLER/BUGGY 18274 COMPACT AND TRAVEL FRIENDLY,https://www.indiamart.com/proddetail/luvlap-tutti-frutti-stroller-buggy-18274-compact-and-travel-friendly-2851553140912.html?pos=91&kwd=stroller travel system&tags=CC||||8614.241|Price|product|||MDC|rsf:gd-|-qr_nm:gd|res:RC3|com-cf:nl|ptrs:na|ktp:N0|mc:78108|mtp:S|qry_typ:P|lang:en|wc:3|cs:7540|v=4,M.M. Toy World,https://www.indiamart.com/mmtoyworld/?pos=91&kwd=stroller travel system&tags=CC||||8614.241|Price|product|||MDC|rsf:gd-|-qr_nm:gd|res:RC3|com-cf:nl|ptrs:na|ktp:N0|mc:78108|mtp:S|qry_typ:P|lang:en|wc:3|cs:7540|v=4,False,Achli Gate,Batala,"M.M. Toys World, Bedian Gali, Khujari Gate, Gurdaspur, Achli Gate, Batala - 143505, Dist.Gurdaspur, Punjab",,
"Iron Blue Baby Stroller, 4",https://www.indiamart.com/proddetail/blue-baby-stroller-2852948042530.html?pos=92&kwd=stroller travel system&tags=CC||||8752.144|Price|product|||MDC|rsf:gd-|-qr_nm:gd|res:RC3|com-cf:nl|ptrs:na|ktp:N0|mc:78108|mtp:S|qry_typ:P|lang:en|wc:3|cs:7540|v=4,Juneja Steel Furniture,https://www.indiamart.com/juneja-steel-furniture/?pos=92&kwd=stroller travel system&tags=CC||||8752.144|Price|product|||MDC|rsf:gd-|-qr_nm:gd|res:RC3|com-cf:nl|ptrs:na|ktp:N0|mc:78108|mtp:S|qry_typ:P|lang:en|wc:3|cs:7540|v=4,False,Multani Dhanda,New Delhi,"9523/13 Multani Dhanda Pahar Ganj, Multani Dhanda, New Delhi - 110055, Dist.Delhi, Delhi",8047824106,
Assorted Baby Carrier Newborn to Toddler Wrap Carrier,https://www.indiamart.com/proddetail/baby-carrier-newborn-to-toddler-wrap-carrier-2851765642412.html?pos=93&kwd=stroller travel system&tags=CC||||8211.142|Price|product|||TS|rsf:gd-|-qr_nm:gd|res:RC3|com-cf:nl|ptrs:na|ktp:N0|mc:78108|mtp:S|qry_typ:P|lang:en|wc:3|cs:7540|v=4,Homenity,https://www.homenity.in/?pos=93&kwd=stroller travel system&tags=CC||||8211.142|Price|product|||TS|rsf:gd-|-qr_nm:gd|res:RC3|com-cf:nl|ptrs:na|ktp:N0|mc:78108|mtp:S|qry_typ:P|lang:en|wc:3|cs:7540|v=4,False,Masjid Bandar,Mumbai,"203, 2nd Floor, Plot-13a Mehajabeen Arcade, Chakala Cross Lane, Mumbai, Mumbai, Maharashtra, Masjid Bandar, Mumbai - 400003, Dist.Mumbai, Maharashtra",8047673711,
Pram Stroller,https://www.indiamart.com/proddetail/pram-stroller-2062212912.html?pos=94&kwd=stroller travel system&tags=CC||||8752.144|Price|product|||MDC|rsf:gd-|-qr_nm:gd|res:RC3|com-cf:nl|ptrs:na|ktp:N0|mc:78108|mtp:S|qry_typ:P|lang:en|wc:3|cs:7540|v=4,Bajaj Bicycle Company,https://www.indiamart.com/bajajbicycle/?pos=94&kwd=stroller travel system&tags=CC||||8752.144|Price|product|||MDC|rsf:gd-|-qr_nm:gd|res:RC3|com-cf:nl|ptrs:na|ktp:N0|mc:78108|mtp:S|qry_typ:P|lang:en|wc:3|cs:7540|v=4,False,Dilshad Garden,New Delhi,"O-35-A-1, Dilshad Garden, Dilshad Garden, New Delhi - 110095, Dist.Delhi, Delhi",8048600091,
Sunbaby Anabelle Buggy cum stroller,https://www.indiamart.com/proddetail/sunbaby-anabelle-buggy-cum-stroller-6617531148.html?pos=95&kwd=stroller travel system&tags=CA||||8228.275||product|||NA|rsf:gd-|-qr_nm:gd|res:RC3|com-cf:nl|ptrs:na|ktp:N0|mc:78108|mtp:S|qry_typ:P|lang:en|wc:3|cs:7540|v=4,Nikiz Dot Com,https://www.indiamart.com/nikiz-ahmedabad/?pos=95&kwd=stroller travel system&tags=CA||||8228.275||product|||NA|rsf:gd-|-qr_nm:gd|res:RC3|com-cf:nl|ptrs:na|ktp:N0|mc:78108|mtp:S|qry_typ:P|lang:en|wc:3|cs:7540|v=4,False,Navrangpura,Ahmedabad,"Webtech System, No. 203, Kashiparekh Complex, Opposite City Centre, Swastik Cross Roads, Navrangpura, Navrangpura, Ahmedabad - 380009, Dist.Ahmedabad, Gujarat",8045849605,562
Baby Stroller,https://www.indiamart.com/proddetail/baby-stroller-2330086933.html?pos=96&kwd=stroller travel system&tags=CA||||8752.144||product|||NA|rsf:gd-|-qr_nm:gd|res:RC3|com-cf:nl|ptrs:na|ktp:N0|mc:78108|mtp:S|qry_typ:P|lang:en|wc:3|cs:7540|v=4,Akay Rolling Mills Private Limited,https://www.indiamart.com/akay-rolling-mills/?pos=96&kwd=stroller travel system&tags=CA||||8752.144||product|||NA|rsf:gd-|-qr_nm:gd|res:RC3|com-cf:nl|ptrs:na|ktp:N0|mc:78108|mtp:S|qry_typ:P|lang:en|wc:3|cs:7540|v=4,False,Bali Nagar,New Delhi,"No. H-27, Bali Nagar, Bali Nagar, New Delhi - 110015, Dist.Delhi, Delhi",8048372274,137
Joie Aire Twin Stroller,https://www.indiamart.com/proddetail/joie-aire-twin-stroller-13962590073.html?pos=97&kwd=stroller travel system&tags=CA||||8954.051||product|||NA|rsf:gd-|-qr_nm:gd|res:RC3|com-cf:nl|ptrs:na|ktp:N0|mc:78108|mtp:S|qry_typ:P|lang:en|wc:3|cs:7540|v=4,Mothercare,https://www.indiamart.com/mothercare-chennai/?pos=97&kwd=stroller travel system&tags=CA||||8954.051||product|||NA|rsf:gd-|-qr_nm:gd|res:RC3|com-cf:nl|ptrs:na|ktp:N0|mc:78108|mtp:S|qry_typ:P|lang:en|wc:3|cs:7540|v=4,False,Royapettah,Chennai,"Shop No. 252 2nd Floor, Express Avenue Mall, Royapettah, Chennai - 600014, Dist.Chennai, Tamil Nadu",8048371639,665
Travel Baby Strollers,https://www.indiamart.com/proddetail/travel-baby-strollers-11620030012.html?pos=98&kwd=stroller travel system&tags=CA||||8752.144||product|||NA|rsf:gd-|-qr_nm:gd|res:RC3|com-cf:nl|ptrs:na|ktp:N0|mc:78108|mtp:S|qry_typ:P|lang:en|wc:3|cs:7540|v=4,Comfort Creations Pvt. Ltd.,https://www.indiamart.com/comfortcreationsdelhi/?pos=98&kwd=stroller travel system&tags=CA||||8752.144||product|||NA|rsf:gd-|-qr_nm:gd|res:RC3|com-cf:nl|ptrs:na|ktp:N0|mc:78108|mtp:S|qry_typ:P|lang:en|wc:3|cs:7540|v=4,False,Jhilmil Industrial Area,New Delhi,"DSIDC 22, Jhilmil Industrial Area, Jhilmil Industrial Area, New Delhi - 110095, Dist.Delhi, Delhi",8047693123,
Travel System Stroller,https://www.indiamart.com/proddetail/travel-system-stroller-9442399612.html?pos=99&kwd=stroller travel system&tags=CC||||8752.144|Price|product|||NA|rsf:gd-|-qr_nm:gd|res:RC3|com-cf:nl|ptrs:na|ktp:N0|mc:78108|mtp:S|qry_typ:P|lang:en|wc:3|cs:7540|v=4,Meco Industries ( India ),https://www.indiamart.com/mecoindustries/?pos=99&kwd=stroller travel system&tags=CC||||8752.144|Price|product|||NA|rsf:gd-|-qr_nm:gd|res:RC3|com-cf:nl|ptrs:na|ktp:N0|mc:78108|mtp:S|qry_typ:P|lang:en|wc:3|cs:7540|v=4,False,Uttam Nagar,New Delhi,"No. 3- A, Vikas Vihar, Vikas Nagar,, Uttam Nagar, New Delhi - 110059, Dist.Delhi, Delhi",7942614605,
"Stylish Baby Stroller Travel System, 1",https://www.indiamart.com/proddetail/stylish-baby-stroller-travel-system-2852128779548.html?pos=100&kwd=stroller travel system&tags=CC||||9618.383|Price|product|||NA|rsf:gd-|-qr_nm:gd|res:RC3|com-cf:nl|ptrs:na|ktp:N0|mc:78108|mtp:S|qry_typ:P|lang:en|wc:3|cs:7540|v=4,Roy Interprises,https://www.indiamart.com/roy-interprises/?pos=100&kwd=stroller travel system&tags=CC||||9618.383|Price|product|||NA|rsf:gd-|-qr_nm:gd|res:RC3|com-cf:nl|ptrs:na|ktp:N0|mc:78108|mtp:S|qry_typ:P|lang:en|wc:3|cs:7540|v=4,False,,Jamshedpur,", Jamshedpur - 831002, Dist.East Singhbhum, Jharkhand",8069017451,799
"3 Feet Plastic Baby Travel Stroller, 4 Wheel",https://www.indiamart.com/proddetail/baby-travel-stroller-2852711288048.html?pos=101&kwd=stroller travel system&tags=CC||||8231.259||product|||NA|rsf:gd-|-qr_nm:gd|res:RC3|com-cf:nl|ptrs:na|ktp:N0|mc:78108|mtp:S|qry_typ:P|lang:en|wc:3|cs:7540|v=4,Bush Impex,https://www.indiamart.com/bush-impex-bhiwandimaharashtra/?pos=101&kwd=stroller travel system&tags=CC||||8231.259||product|||NA|rsf:gd-|-qr_nm:gd|res:RC3|com-cf:nl|ptrs:na|ktp:N0|mc:78108|mtp:S|qry_typ:P|lang:en|wc:3|cs:7540|v=4,False,,Bhiwandi,"6th, 603, A Wing., Farid Arcade, Khandupada, Thane, Bhiwandi - 421302, Maharashtra",7942717940,
Cashless Travel System,https://www.indiamart.com/proddetail/cashless-travel-system-24055949933.html?pos=102&kwd=stroller travel system&tags=CC||||8752.144||product|||NA|rsf:gd-|-qr_nm:gd|res:RC3|com-cf:nl|ptrs:na|ktp:N0|mc:78108|mtp:S|qry_typ:P|lang:en|wc:3|cs:7540|v=4,Trimax IT Infrastructure & Services Ltd.,https://www.indiamart.com/trimax-it-infrastructure-services-limited-delhi/?pos=102&kwd=stroller travel system&tags=CC||||8752.144||product|||NA|rsf:gd-|-qr_nm:gd|res:RC3|com-cf:nl|ptrs:na|ktp:N0|mc:78108|mtp:S|qry_typ:P|lang:en|wc:3|cs:7540|v=4,False,,Delhi,"1st Floor, Santram Complex, L-3, Street No. 1, Mahipalpur Extn, Delhi - 400079, Dist.Delhi, Delhi",7942654685,
Baby Travel Chair Stroller,,Babies Plus Point,https://www.indiamart.com/pluspoint/?pos=103&kwd=stroller travel system&tags=CB||||8229.666|Price|product|||NA|rsf:gd-|-qr_nm:gd|res:RC3|com-cf:nl|ptrs:na|ktp:N0|mc:78108|mtp:S|qry_typ:P|lang:en|wc:3|cs:7540|v=4,False,Chala Daman Road,Vapi,"No. 106, Royal Dreams, Chala, Daman Road, Chala Daman Road, Vapi - 396191, Dist.Valsad, Gujarat",7942640924,
Zelia Max 5 in 1 Modular Travel System,,Universal Pulse,https://www.indiamart.com/universal-pulse-mumbai/?pos=104&kwd=stroller travel system&tags=CC||||8211.142|Price|product|||NA|rsf:gd-|-qr_nm:gd|res:RC3|com-cf:nl|ptrs:na|ktp:N0|mc:78108|mtp:S|qry_typ:P|lang:en|wc:3|cs:7540|v=4,False,,Mumbai,"1st Floor 15, Flat No-16a Viju Kotak Marg Contractor Building, Mumbai - 400001, Dist.Mumbai, Maharashtra",7942820557,
R For Rabbit Street Smart Nova Super Comfy Travel Friendly Kids Stroller,https://www.indiamart.com/proddetail/r-for-rabbit-street-smart-nova-super-comfy-travel-friendly-kids-stroller-2854878018262.html?pos=105&kwd=stroller travel system&tags=CC||||8752.144|Price|product|||NA|rsf:gd-|-qr_nm:gd|res:RC3|com-cf:nl|ptrs:na|ktp:N0|mc:78108|mtp:S|qry_typ:P|lang:en|wc:3|cs:7540|v=4,BD Impex,https://www.indiamart.com/company/2395482/?pos=105&kwd=stroller travel system&tags=CC||||8752.144|Price|product|||NA|rsf:gd-|-qr_nm:gd|res:RC3|com-cf:nl|ptrs:na|ktp:N0|mc:78108|mtp:S|qry_typ:P|lang:en|wc:3|cs:7540|v=4,False,,New Delhi,"The Moms Darling - Baby Shop 163, Kapil Vihar, Pitampura, New Delhi - 110034, Dist.Delhi, Delhi",,
Maxbell Cute Spiral Activity Stroller Car Seat Cot Lathe Hanging Bell Baby Play Travel Toys Newborn Baby Rattles Infant Soft Plush Toys Yellow Mouth Deer,https://www.indiamart.com/proddetail/maxbell-cute-spiral-activity-stroller-car-seat-cot-lathe-hanging-bell-baby-play-travel-toys-newborn-baby-rattles-infant-soft-plush-toys-yellow-mouth-deer-2851588608730.html?pos=106&kwd=stroller travel system&tags=CC||||8752.144|Price|product|||FCPE|rsf:gd-|-qr_nm:gd|res:RC3|com-cf:nl|ptrs:na|ktp:N0|mc:78108|mtp:S|qry_typ:P|lang:en|wc:3|cs:7540|v=4,Aladdin Shoppers,https://www.indiamart.com/aladdin-shoppers/?pos=106&kwd=stroller travel system&tags=CC||||8752.144|Price|product|||FCPE|rsf:gd-|-qr_nm:gd|res:RC3|com-cf:nl|ptrs:na|ktp:N0|mc:78108|mtp:S|qry_typ:P|lang:en|wc:3|cs:7540|v=4,False,,New Delhi,"1/5496-B, Gali No. 16, Balbir Nagar Extn, Shahdara, East Delhi, New Delhi - 110032, Dist.Delhi, Delhi",,
Baby Stroller,https://www.indiamart.com/proddetail/baby-stroller-7447477191.html?pos=107&kwd=stroller travel system&tags=CC||||8242.532||product|||NA|rsf:gd-|-qr_nm:gd|res:RC3|com-cf:nl|ptrs:na|ktp:N0|mc:78108|mtp:S|qry_typ:P|lang:en|wc:3|cs:7540|v=4,Guru Kirpa Garments,https://www.indiamart.com/guru-kirpa-garments/?pos=107&kwd=stroller travel system&tags=CC||||8242.532||product|||NA|rsf:gd-|-qr_nm:gd|res:RC3|com-cf:nl|ptrs:na|ktp:N0|mc:78108|mtp:S|qry_typ:P|lang:en|wc:3|cs:7540|v=4,False,,Mansa,"Khoo Wali Gali, Opposite Vijaya Bank Mans, Mansa - 151505, Gujarat",8048249733,8007
Baby Stroller,https://www.indiamart.com/proddetail/baby-stroller-8201529673.html?pos=108&kwd=stroller travel system&tags=CC||||8752.144||product|||NA|rsf:gd-|-qr_nm:gd|res:RC3|com-cf:nl|ptrs:na|ktp:N0|mc:78108|mtp:S|qry_typ:P|lang:en|wc:3|cs:7540|v=4,Pragati International,https://www.indiamart.com/babypower/?pos=108&kwd=stroller travel system&tags=CC||||8752.144||product|||NA|rsf:gd-|-qr_nm:gd|res:RC3|com-cf:nl|ptrs:na|ktp:N0|mc:78108|mtp:S|qry_typ:P|lang:en|wc:3|cs:7540|v=4,False,Rohini Sector 9 Parvana Vihar,New Delhi,"Plot Number- I-6, Parvana Vihar, Sector 9, Rohini, Rohini Sector 9 Parvana Vihar, New Delhi - 110085, Dist.Delhi, Delhi",8048371914,871
Tri Wheel Scooty For Kids With Bell,https://www.indiamart.com/proddetail/tri-wheel-scooty-for-kids-with-bell-8473170433.html?pos=109&kwd=stroller travel system&tags=CC||||8307.81||product|||NA|rsf:gd-|-qr_nm:gd|res:RC3|com-cf:nl|ptrs:na|ktp:N0|mc:78108|mtp:S|qry_typ:P|lang:en|wc:3|cs:7540|v=4,Gifts And Arts,https://www.indiamart.com/gifts-and-arts/?pos=109&kwd=stroller travel system&tags=CC||||8307.81||product|||NA|rsf:gd-|-qr_nm:gd|res:RC3|com-cf:nl|ptrs:na|ktp:N0|mc:78108|mtp:S|qry_typ:P|lang:en|wc:3|cs:7540|v=4,False,Chinchwad,Pune,"Sai Arcade, MIDC, Chinchwad, Chinchwad, Pune - 411019, Dist.Pune, Maharashtra",8069728254,183
Baby Stroller,https://www.indiamart.com/proddetail/baby-stroller-9559268191.html?pos=110&kwd=stroller travel system&tags=CC||||8752.144||product|||NA|rsf:gd-|-qr_nm:gd|res:RC3|com-cf:nl|ptrs:na|ktp:N0|mc:78108|mtp:S|qry_typ:P|lang:en|wc:3|cs:7540|v=4,Neha International,https://www.indiamart.com/neha-international-delhi/?pos=110&kwd=stroller travel system&tags=CC||||8752.144||product|||NA|rsf:gd-|-qr_nm:gd|res:RC3|com-cf:nl|ptrs:na|ktp:N0|mc:78108|mtp:S|qry_typ:P|lang:en|wc:3|cs:7540|v=4,False,Preet Vihar,New Delhi,"C-39, Preet Vihar, New Delhi - 110092, Dist.Delhi, Delhi",8043887600,
Baby Ride Stroller,,Wonder Multi Store,https://www.indiamart.com/srs-ent/?pos=111&kwd=stroller travel system&tags=CC||||8556.61|Price|product|||NA|rsf:gd-|-qr_nm:gd|res:RC3|com-cf:nl|ptrs:na|ktp:N0|mc:78108|mtp:S|qry_typ:P|lang:en|wc:3|cs:7540|v=4,False,,Mysore,"Ground Floor And Cellar D No 13/a Sathya Marga Siddartha Layout Near Gss School, Mysore - 570011, Dist.Mysuru, Karnataka",8048372744,588
Baby Stroller (Retro Series),https://www.indiamart.com/proddetail/baby-stroller-retro-series-3621578873.html?pos=112&kwd=stroller travel system&tags=CC||||8954.051||product|||NA|rsf:gd-|-qr_nm:gd|res:RC3|com-cf:nl|ptrs:na|ktp:N0|mc:78108|mtp:S|qry_typ:P|lang:en|wc:3|cs:7540|v=4,Kids World,https://www.indiamart.com/kids-world-chennai/?pos=112&kwd=stroller travel system&tags=CC||||8954.051||product|||NA|rsf:gd-|-qr_nm:gd|res:RC3|com-cf:nl|ptrs:na|ktp:N0|mc:78108|mtp:S|qry_typ:P|lang:en|wc:3|cs:7540|v=4,False,Choolai,Chennai,"Plot No.8, Nehru Timber Market, New No.41,, Old No.14,1st Floor, Sattanna Naicken Street, Choolai, Choolai, Chennai - 600112, Dist.Chennai, Tamil Nadu",8047793260,
Blue Child,https://www.indiamart.com/proddetail/child-blue-19790556433.html?pos=113&kwd=stroller travel system&tags=CC||||8211.142|Price|product|||NA|rsf:gd-|-qr_nm:gd|res:RC3|com-cf:nl|ptrs:na|ktp:N0|mc:78108|mtp:S|qry_typ:P|lang:en|wc:3|cs:7540|v=4,Cornealens Shapers,https://www.indiamart.com/cornealens-shapers-mumbai/?pos=113&kwd=stroller travel system&tags=CC||||8211.142|Price|product|||NA|rsf:gd-|-qr_nm:gd|res:RC3|com-cf:nl|ptrs:na|ktp:N0|mc:78108|mtp:S|qry_typ:P|lang:en|wc:3|cs:7540|v=4,False,Virar West,Mumbai,"Shree Om Green Park Apartment, Virar West, Mumbai - 401303, Dist.Mumbai, Maharashtra",8069707335,712
Gt-Mini,,Gridar Technologies,https://www.indiamart.com/gridar-technologies-chennai/?pos=114&kwd=stroller travel system&tags=CC||||8954.051|Price|product|||NA|rsf:gd-|-qr_nm:gd|res:RC3|com-cf:nl|ptrs:na|ktp:N0|mc:78108|mtp:S|qry_typ:P|lang:en|wc:3|cs:7540|v=4,False,,Chennai,"Second Floor No.22, B2 Kamadenu Nagar Elegant Square Old Perungalathur, Chennai - 600063, Dist.Chennai, Tamil Nadu",8069707307,512
999 Baby Stroller,https://www.indiamart.com/proddetail/999-baby-stroller-19013488830.html?pos=115&kwd=stroller travel system&tags=CC||||8752.144|Price|product|||NA|rsf:gd-|-qr_nm:gd|res:RC3|com-cf:nl|ptrs:na|ktp:N0|mc:78108|mtp:S|qry_typ:P|lang:en|wc:3|cs:7540|v=4,Singla Cycle Store,https://www.indiamart.com/singla-cyc/?pos=115&kwd=stroller travel system&tags=CC||||8752.144|Price|product|||NA|rsf:gd-|-qr_nm:gd|res:RC3|com-cf:nl|ptrs:na|ktp:N0|mc:78108|mtp:S|qry_typ:P|lang:en|wc:3|cs:7540|v=4,False,Uttam Nagar,New Delhi,"WZ-246/B-4, Uttam Nagar, New Delhi - 110059, Dist.Delhi, Delhi",8062245046,928
Baby Parm Stroller,,Maheshwari Traders,https://www.indiamart.com/universal-storenew-delhi/?pos=116&kwd=stroller travel system&tags=CC||||8752.144||product|||NA|rsf:gd-|-qr_nm:gd|res:RC3|com-cf:nl|ptrs:na|ktp:N0|mc:78108|mtp:S|qry_typ:P|lang:en|wc:3|cs:7540|v=4,False,SAGARPUR,New Delhi,"HOUSE NO - WZ 10,,VILLAGE - ASALATPUR,JANAKPURI RZ F115A VEER NAGAR GALI NO 3 WEST SAGARPUR,110046,New Delhi, SAGARPUR, New Delhi - 110058, Dist.Delhi, Delhi",8043805038,
Sunbaby Stroller,https://www.indiamart.com/proddetail/sunbaby-stroller-25748322188.html?pos=117&kwd=stroller travel system&tags=CC||||8954.051||product|||NA|rsf:gd-|-qr_nm:gd|res:RC3|com-cf:nl|ptrs:na|ktp:N0|mc:78108|mtp:S|qry_typ:P|lang:en|wc:3|cs:7540|v=4,Babylou,https://www.indiamart.com/wwwindiamartcom-babylou-tn/?pos=117&kwd=stroller travel system&tags=CC||||8954.051||product|||NA|rsf:gd-|-qr_nm:gd|res:RC3|com-cf:nl|ptrs:na|ktp:N0|mc:78108|mtp:S|qry_typ:P|lang:en|wc:3|cs:7540|v=4,False,Alwarpet,Chennai,"Gokul Towers 7/54 CP Ramaswamy Road, Alwarpet, Chennai - 600004, Dist.Chennai, Tamil Nadu",8047654088,
The Summit,https://www.indiamart.com/proddetail/the-summit-6858033773.html?pos=118&kwd=stroller travel system&tags=CC||||8752.144||product|||NA|rsf:gd-|-qr_nm:gd|res:RC3|com-cf:nl|ptrs:na|ktp:N0|mc:78108|mtp:S|qry_typ:P|lang:en|wc:3|cs:7540|v=4,The Connaught Hotel,https://www.indiamart.com/the-connaught-hotel/?pos=118&kwd=stroller travel system&tags=CC||||8752.144||product|||NA|rsf:gd-|-qr_nm:gd|res:RC3|com-cf:nl|ptrs:na|ktp:N0|mc:78108|mtp:S|qry_typ:P|lang:en|wc:3|cs:7540|v=4,False,,Delhi,"No. 37, Shaheed Bhagat Singh Marg, Next To Shivaji Stadium, Delhi - 110001, Dist.Delhi, Delhi",8048263433,767
Baby Stroller Britax Holiday,https://www.indiamart.com/proddetail/baby-stroller-britax-holiday-19458149297.html?pos=119&kwd=stroller travel system&tags=CB||||8211.142|Price|product|||NA|rsf:gd-|-qr_nm:gd|res:RC3|com-cf:nl|ptrs:na|ktp:N0|mc:78108|mtp:S|qry_typ:P|lang:en|wc:3|cs:7540|v=4,Resper International (India) Private Limited,https://www.indiamart.com/reltrix-fincorp/?pos=119&kwd=stroller travel system&tags=CB||||8211.142|Price|product|||NA|rsf:gd-|-qr_nm:gd|res:RC3|com-cf:nl|ptrs:na|ktp:N0|mc:78108|mtp:S|qry_typ:P|lang:en|wc:3|cs:7540|v=4,False,Dharavi,Mumbai,"144, Ashok Mill Compound Sion Bandra Link Road, Dharavi, Mumbai - 400017, Dist.Mumbai, Maharashtra",8048371522,634
Smart Trike Infinity Purple Stroller,https://www.indiamart.com/proddetail/smart-trike-infinity-purple-stroller-15159339148.html?pos=120&kwd=stroller travel system&tags=CC||||8785.791||product|||NA|rsf:gd-|-qr_nm:gd|res:RC3|com-cf:nl|ptrs:na|ktp:N0|mc:78108|mtp:S|qry_typ:P|lang:en|wc:3|cs:7540|v=4,Mothercare,https://www.indiamart.com/mothercare-ghaziabad/?pos=120&kwd=stroller travel system&tags=CC||||8785.791||product|||NA|rsf:gd-|-qr_nm:gd|res:RC3|com-cf:nl|ptrs:na|ktp:N0|mc:78108|mtp:S|qry_typ:P|lang:en|wc:3|cs:7540|v=4,False,,Ghaziabad,"Shop No. 5 Lower Grung Floor Shipra Mall, Ghaziabad - 201014, Dist.Ghaziabad, Uttar Pradesh",8062245991,679
Multicolor Sunbaby Stroller BL-12,https://www.indiamart.com/proddetail/sunbaby-stroller-bl-12-20517334548.html?pos=121&kwd=stroller travel system&tags=CB||||8954.051||product|||NA|rsf:gd-|-qr_nm:gd|res:RC3|com-cf:nl|ptrs:na|ktp:N0|mc:78108|mtp:S|qry_typ:P|lang:en|wc:3|cs:7540|v=4,Babylou,https://www.indiamart.com/baby-lou/?pos=121&kwd=stroller travel system&tags=CB||||8954.051||product|||NA|rsf:gd-|-qr_nm:gd|res:RC3|com-cf:nl|ptrs:na|ktp:N0|mc:78108|mtp:S|qry_typ:P|lang:en|wc:3|cs:7540|v=4,False,Mylapore,Chennai,"114 Luz Church Road Near Alwarpet Anjaneyar Temple, Mylapore, Chennai - 600004, Dist.Chennai, Tamil Nadu",8043800763,
Honkong Cycle,,Krishna Toys And Gifits,https://www.indiamart.com/krishna-toys-and-gifts/?pos=122&kwd=stroller travel system&tags=CC||||8234.609|Price|product|||NA|rsf:gd-|-qr_nm:gd|res:RC3|com-cf:nl|ptrs:na|ktp:N0|mc:78108|mtp:S|qry_typ:P|lang:en|wc:3|cs:7540|v=4,False,Vegetable Market,Valsad,"Radhakrishna Mandir, Vegetable Market, Valsad - 396001, Dist.Valsad, Gujarat",8069416006,306
Pram,,Baby Steps,https://www.indiamart.com/baby-steps/?pos=123&kwd=stroller travel system&tags=CC||||8228.275||product|||NA|rsf:gd-|-qr_nm:gd|res:RC3|com-cf:nl|ptrs:na|ktp:N0|mc:78108|mtp:S|qry_typ:P|lang:en|wc:3|cs:7540|v=4,False,Anand Nagar Road,Ahmedabad,"Akshar Dhara 2, Anand Nagar Road, Prahlad Nagar Opposite To Sachin Tower, Anand Nagar Road, Ahmedabad - 380015, Dist.Ahmedabad, Gujarat",8048371681,261
Cosset,https://www.indiamart.com/proddetail/cosset-16416833862.html?pos=124&kwd=stroller travel system&tags=CC||||8752.144||product|||NA|rsf:gd-|-qr_nm:gd|res:RC3|com-cf:nl|ptrs:na|ktp:N0|mc:78108|mtp:S|qry_typ:P|lang:en|wc:3|cs:7540|v=4,Little Nap Designs Private Limited,https://www.indiamart.com/little-nap-designs-private-limited/?pos=124&kwd=stroller travel system&tags=CC||||8752.144||product|||NA|rsf:gd-|-qr_nm:gd|res:RC3|com-cf:nl|ptrs:na|ktp:N0|mc:78108|mtp:S|qry_typ:P|lang:en|wc:3|cs:7540|v=4,False,,New Delhi,"844, Opp to pillar 114, M.G. Road, Ghitorni Opposite Metro Pillar No. 118, New Delhi - 110030, Dist.Delhi, Delhi",8045849066,2495
"Baby Trend Expedition Jogger Travel System, Millennium Blue",https://www.indiamart.com/proddetail/baby-trend-expedition-jogger-travel-system-millennium-blue-2852887557533.html?pos=125&kwd=stroller travel system&tags=CC||||8661.854|Price|product|||NA|rsf:gd-|-qr_nm:gd|res:RC3|com-cf:nl|ptrs:na|ktp:N0|mc:78108|mtp:S|qry_typ:P|lang:en|wc:3|cs:7540|v=4,System Tools & Engineering Products,https://www.indiamart.com/system-tools-engineering-products/?pos=125&kwd=stroller travel system&tags=CC||||8661.854|Price|product|||NA|rsf:gd-|-qr_nm:gd|res:RC3|com-cf:nl|ptrs:na|ktp:N0|mc:78108|mtp:S|qry_typ:P|lang:en|wc:3|cs:7540|v=4,False,,Ludhiana,"K-98, Phase-7, Focal Point, Ludhiana - 141010, Dist.Ludhiana, Punjab",8062245031,620
NEW Bugaa booo Donkey 3 Twin with Turtle Car Seat - Complete Stroller,https://www.indiamart.com/proddetail/new-bugaa-booo-donkey-3-twin-with-turtle-car-seat-complete-stroller-2853015647948.html?pos=126&kwd=stroller travel system&tags=CC||||8752.144|Price|product|||NA|rsf:gd-|-qr_nm:gd|res:RC3|com-cf:nl|ptrs:na|ktp:N0|mc:78108|mtp:S|qry_typ:P|lang:en|wc:3|cs:7540|v=4,Techstorm,https://www.indiamart.com/techstorm-new-delhi/?pos=126&kwd=stroller travel system&tags=CC||||8752.144|Price|product|||NA|rsf:gd-|-qr_nm:gd|res:RC3|com-cf:nl|ptrs:na|ktp:N0|mc:78108|mtp:S|qry_typ:P|lang:en|wc:3|cs:7540|v=4,False,Mahavir Enclave Part-3,New Delhi,"D-129 Gali No.51 Gali No 51, Mahavir Enclave Part-3, Mahavir Enclave Part-3, New Delhi - 110059, Dist.Delhi, Delhi",8047308900,2853
Joy Stroller AERIA S W/ RC & ADPT,https://www.indiamart.com/proddetail/joy-stroller-aeria-s-w-rc-adpt-2853742832830.html?pos=127&kwd=stroller travel system&tags=CC||||8752.144|Price|product|||NA|rsf:gd-|-qr_nm:gd|res:RC3|com-cf:nl|ptrs:na|ktp:N0|mc:78108|mtp:S|qry_typ:P|lang:en|wc:3|cs:7540|v=4,Ghodela Enterprises,https://www.indiamart.com/ghodela-enterprises/?pos=127&kwd=stroller travel system&tags=CC||||8752.144|Price|product|||NA|rsf:gd-|-qr_nm:gd|res:RC3|com-cf:nl|ptrs:na|ktp:N0|mc:78108|mtp:S|qry_typ:P|lang:en|wc:3|cs:7540|v=4,False,,New Delhi,"Ground Floor H. No 235, Kh No-114 Ambedkar Colony Gali No-8 Chhatarpur South West Delhi, New Delhi - 110074, Dist.Delhi, Delhi",8048372639,879
Dew Action Sports Tour,https://www.indiamart.com/proddetail/dew-action-sports-tour-6626454262.html?pos=128&kwd=stroller travel system&tags=CC||||8721.05||product|||NA|rsf:gd-|-qr_nm:gd|res:RC3|com-cf:nl|ptrs:na|ktp:N0|mc:78108|mtp:S|qry_typ:P|lang:en|wc:3|cs:7540|v=4,Blue Lemon Marketing Private Limited,https://www.indiamart.com/blue-lemon-marketing-pvt-ltd/?pos=128&kwd=stroller travel system&tags=CC||||8721.05||product|||NA|rsf:gd-|-qr_nm:gd|res:RC3|com-cf:nl|ptrs:na|ktp:N0|mc:78108|mtp:S|qry_typ:P|lang:en|wc:3|cs:7540|v=4,False,Alwar,Bhiwadi,"Omaxe City, Alwar Bypass Road, Alwar, Bhiwadi - 301018, Rajasthan",8062245084,194
Luvlap Sports Stroller,,Maruti Kids Zone,https://www.indiamart.com/maruti-kids-zone/?pos=129&kwd=stroller travel system&tags=CC||||9839.57||product|||NA|rsf:gd-|-qr_nm:gd|res:RC3|com-cf:nl|ptrs:na|ktp:N0|mc:78108|mtp:S|qry_typ:P|lang:en|wc:3|cs:7540|v=4,False,Muktaram Babu Street,Kolkata,"No. 109, 1st Floor, Muktaram Babu Street, Kolkata - 700007, Dist.Kolkata, West Bengal",7949342709,
"Luvlap Baby Stroller, 4",https://www.indiamart.com/proddetail/luvlap-baby-stroller-2852859949612.html?pos=130&kwd=stroller travel system&tags=CC||||8786.56|Price|product|||NA|rsf:gd-|-qr_nm:gd|res:RC3|com-cf:nl|ptrs:na|ktp:N0|mc:78108|mtp:S|qry_typ:P|lang:en|wc:3|cs:7540|v=4,Abishek Goli,https://www.indiamart.com/abishek-goli/?pos=130&kwd=stroller travel system&tags=CC||||8786.56|Price|product|||NA|rsf:gd-|-qr_nm:gd|res:RC3|com-cf:nl|ptrs:na|ktp:N0|mc:78108|mtp:S|qry_typ:P|lang:en|wc:3|cs:7540|v=4,False,,Hyderabad,", Hyderabad - 500012, Dist.Hyderabad, Telangana",8048250559,770
Pram,,Ajanta Cycle Store,https://www.indiamart.com/ajanta-cycle-store-cuttack/?pos=131&kwd=stroller travel system&tags=CC||||9578.697||product|||NA|rsf:gd-|-qr_nm:gd|res:RC3|com-cf:nl|ptrs:na|ktp:N0|mc:78108|mtp:S|qry_typ:P|lang:en|wc:3|cs:7540|v=4,False,Ranihat,Cuttack,"Ajanta Cycle Store, Ranihat Colony Ranihat Colony, Ranihat, Cuttack - 753001, Dist.Cuttack, Odisha",8048371961,518
Male Baby Stroller,https://www.indiamart.com/proddetail/baby-stroller-13112996462.html?pos=132&kwd=stroller travel system&tags=CC||||8663.873|Price|product|||NA|rsf:gd-|-qr_nm:gd|res:RC3|com-cf:nl|ptrs:na|ktp:N0|mc:78108|mtp:S|qry_typ:P|lang:en|wc:3|cs:7540|v=4,Benaka Scientifics,https://www.indiamart.com/benakascientifics/?pos=132&kwd=stroller travel system&tags=CC||||8663.873|Price|product|||NA|rsf:gd-|-qr_nm:gd|res:RC3|com-cf:nl|ptrs:na|ktp:N0|mc:78108|mtp:S|qry_typ:P|lang:en|wc:3|cs:7540|v=4,False,SVG Nagar,Bengaluru,"No. 16, Mahamane, 1st Floor, 3rd Cross, Svg Nagar Mudalapalya, SVG Nagar, Bengaluru - 560072, Dist.Bengaluru, Karnataka",8047696865,
"Mild Steel And Plastic New Born Baby Stroller, 4",https://www.indiamart.com/proddetail/new-born-baby-stroller-2851867628373.html?pos=133&kwd=stroller travel system&tags=CC||||9110.092|Price|product|||NA|rsf:gd-|-qr_nm:gd|res:RC3|com-cf:nl|ptrs:na|ktp:N0|mc:78108|mtp:S|qry_typ:P|lang:en|wc:3|cs:7540|v=4,Bombay Kiddies,https://www.indiamart.com/bombay-kiddies/?pos=133&kwd=stroller travel system&tags=CC||||9110.092|Price|product|||NA|rsf:gd-|-qr_nm:gd|res:RC3|com-cf:nl|ptrs:na|ktp:N0|mc:78108|mtp:S|qry_typ:P|lang:en|wc:3|cs:7540|v=4,False,Aminabad,Lucknow,"Shop No. 39, Mumtaz Market, Bagh Gunge Nawab, Aminabad, Aminabad, Lucknow - 226018, Dist.Lucknow, Uttar Pradesh",8047828824,
Stokke Xplory V5 Complete Set Baby Stroller,https://www.indiamart.com/proddetail/stokke-xplory-v5-complete-set-baby-stroller-2853116572948.html?pos=134&kwd=stroller travel system&tags=CC||||8752.144|Price|product|||NA|rsf:gd-|-qr_nm:gd|res:RC3|com-cf:nl|ptrs:na|ktp:N0|mc:78108|mtp:S|qry_typ:P|lang:en|wc:3|cs:7540|v=4,Haixin Group Store,https://www.indiamart.com/haixin-group-store/?pos=134&kwd=stroller travel system&tags=CC||||8752.144|Price|product|||NA|rsf:gd-|-qr_nm:gd|res:RC3|com-cf:nl|ptrs:na|ktp:N0|mc:78108|mtp:S|qry_typ:P|lang:en|wc:3|cs:7540|v=4,False,,New Delhi,"645, New Delhi - 110020, Dist.Delhi, Delhi",8045849723,590
Black And White Maclaren Globetrotter Stroller,https://www.indiamart.com/proddetail/maclaren-globetrotter-stroller-19413546591.html?pos=135&kwd=stroller travel system&tags=CC||||8211.142|Price|product|||NA|rsf:gd-|-qr_nm:gd|res:RC3|com-cf:nl|ptrs:na|ktp:N0|mc:78108|mtp:S|qry_typ:P|lang:en|wc:3|cs:7540|v=4,T-Lab Tradecom Private Limited,https://www.indiamart.com/bragpacker/?pos=135&kwd=stroller travel system&tags=CC||||8211.142|Price|product|||NA|rsf:gd-|-qr_nm:gd|res:RC3|com-cf:nl|ptrs:na|ktp:N0|mc:78108|mtp:S|qry_typ:P|lang:en|wc:3|cs:7540|v=4,False,Juhu,Mumbai,"701, Jal Darshan Apartment, Gandhigram Road, Juhu, Juhu, Mumbai - 400049, Dist.Mumbai, Maharashtra",8047671411,
Multicolor Baby Stroller,https://www.indiamart.com/proddetail/baby-stroller-16545367233.html?pos=136&kwd=stroller travel system&tags=CC||||8230.883|Price|product|||NA|rsf:gd-|-qr_nm:gd|res:RC3|com-cf:nl|ptrs:na|ktp:N0|mc:78108|mtp:S|qry_typ:P|lang:en|wc:3|cs:7540|v=4,Rangildas And Brothers,https://www.indiamart.com/rangildasandbrothers/?pos=136&kwd=stroller travel system&tags=CC||||8230.883|Price|product|||NA|rsf:gd-|-qr_nm:gd|res:RC3|com-cf:nl|ptrs:na|ktp:N0|mc:78108|mtp:S|qry_typ:P|lang:en|wc:3|cs:7540|v=4,False,Gopipura,Surat,",11,295 TO 299-B,OPP MRTRO SHOOES, BHAGATALAV,,BHAGATALAB, Gopipura, Surat - 395003, Dist.Surat, Gujarat",8047686540,
Baby Stroller,https://www.indiamart.com/proddetail/baby-stroller-8911245712.html?pos=137&kwd=stroller travel system&tags=CC||||8752.144||product|||NA|rsf:gd-|-qr_nm:gd|res:RC3|com-cf:nl|ptrs:na|ktp:N0|mc:78108|mtp:S|qry_typ:P|lang:en|wc:3|cs:7540|v=4,Dream Works,https://www.indiamart.com/dreamworks-ghaziabad/?pos=137&kwd=stroller travel system&tags=CC||||8752.144||product|||NA|rsf:gd-|-qr_nm:gd|res:RC3|com-cf:nl|ptrs:na|ktp:N0|mc:78108|mtp:S|qry_typ:P|lang:en|wc:3|cs:7540|v=4,False,Geeta Colony,New Delhi,"No. 8-A/1, Second Floor, Geeta Colony, New Delhi - 110031, Dist.Delhi, Delhi",8043803044,
Comfort Baby Stroller,https://www.indiamart.com/proddetail/comfort-baby-stroller-13727181573.html?pos=138&kwd=stroller travel system&tags=CC||||8476.868|Price|product|||NA|rsf:gd-|-qr_nm:gd|res:RC3|com-cf:nl|ptrs:na|ktp:N0|mc:78108|mtp:S|qry_typ:P|lang:en|wc:3|cs:7540|v=4,J L Morison India Limited,https://www.indiamart.com/sydler-remedies/?pos=138&kwd=stroller travel system&tags=CC||||8476.868|Price|product|||NA|rsf:gd-|-qr_nm:gd|res:RC3|com-cf:nl|ptrs:na|ktp:N0|mc:78108|mtp:S|qry_typ:P|lang:en|wc:3|cs:7540|v=4,False,MIDC,Aurangabad,"E-95/1, M. I. D. C, Waluj, MIDC, Aurangabad - 431136, Maharashtra",7942612193,
Sunbaby Tall Buddy Giraffe Stroller,https://www.indiamart.com/proddetail/sunbaby-tall-buddy-giraffe-stroller-16034370597.html?pos=139&kwd=stroller travel system&tags=CB||||8752.144|Price|product|||NA|rsf:gd-|-qr_nm:gd|res:RC3|com-cf:nl|ptrs:na|ktp:N0|mc:78108|mtp:S|qry_typ:P|lang:en|wc:3|cs:7540|v=4,I Tigar Shop Dot Com,https://www.indiamart.com/i-tigar-shopcom/?pos=139&kwd=stroller travel system&tags=CB||||8752.144|Price|product|||NA|rsf:gd-|-qr_nm:gd|res:RC3|com-cf:nl|ptrs:na|ktp:N0|mc:78108|mtp:S|qry_typ:P|lang:en|wc:3|cs:7540|v=4,False,,New Delhi,"Near Indira Gandhi Gandhi International Airport, New Delhi - 110037, Dist.Delhi, Delhi",8048372371,331
Elite City,https://www.indiamart.com/proddetail/elite-city-2852732391691.html?pos=140&kwd=stroller travel system&tags=CC||||8584.299||product|||NA|rsf:gd-|-qr_nm:gd|res:RC3|com-cf:nl|ptrs:na|ktp:N0|mc:78108|mtp:S|qry_typ:P|lang:en|wc:3|cs:7540|v=4,Town & City Developers,https://www.indiamart.com/town-city-developers-coimbatore/?pos=140&kwd=stroller travel system&tags=CC||||8584.299||product|||NA|rsf:gd-|-qr_nm:gd|res:RC3|com-cf:nl|ptrs:na|ktp:N0|mc:78108|mtp:S|qry_typ:P|lang:en|wc:3|cs:7540|v=4,False,Tamil Nadu,Coimbatore,"126, K.g. House Coimbatore, Tamil Nadu, Coimbatore - 641018, Dist.Coimbatore, Tamil Nadu",8069728262,744
Baby Stroller,,Mahalaxmi Marketing,https://www.indiamart.com/mahalaxmi-marketingchennai/?pos=141&kwd=stroller travel system&tags=CC||||8954.051||product|||NA|rsf:gd-|-qr_nm:gd|res:RC3|com-cf:nl|ptrs:na|ktp:N0|mc:78108|mtp:S|qry_typ:P|lang:en|wc:3|cs:7540|v=4,False,,Chennai,"No.130, Ground Floor Shop No.17, Complex Sree Centre, Mint Street Sowcarpet, Chennai - 600001, Dist.Chennai, Tamil Nadu",8047548374,
"3 Feet Metal And Cloth luvlap baby stroller, 4, lvlp001",https://www.indiamart.com/proddetail/luvlap-baby-stroller-3463181212.html?pos=142&kwd=stroller travel system&tags=CC||||8228.275|Price|product|||NA|rsf:gd-|-qr_nm:gd|res:RC3|com-cf:nl|ptrs:na|ktp:N0|mc:78108|mtp:S|qry_typ:P|lang:en|wc:3|cs:7540|v=4,New Twinkle Toys,https://www.indiamart.com/newtwinkle-toys/?pos=142&kwd=stroller travel system&tags=CC||||8228.275|Price|product|||NA|rsf:gd-|-qr_nm:gd|res:RC3|com-cf:nl|ptrs:na|ktp:N0|mc:78108|mtp:S|qry_typ:P|lang:en|wc:3|cs:7540|v=4,False,Satellite,Ahmedabad,"Shop No. B-14, Neelkanth Palace, 100 Feet Ring Road Satellite, Opposite Seema Hall, Satellite, Ahmedabad - 380015, Dist.Ahmedabad, Gujarat",8043818949,
"2 Feet Morisons Active Baby Stroller, 4",https://www.indiamart.com/proddetail/morisons-active-baby-stroller-17917601130.html?pos=143&kwd=stroller travel system&tags=CC||||8706.587|Price|product|||NA|rsf:gd-|-qr_nm:gd|res:RC3|com-cf:nl|ptrs:na|ktp:N0|mc:78108|mtp:S|qry_typ:P|lang:en|wc:3|cs:7540|v=4,Genesio Agency,https://www.indiamart.com/genesioagency/?pos=143&kwd=stroller travel system&tags=CC||||8706.587|Price|product|||NA|rsf:gd-|-qr_nm:gd|res:RC3|com-cf:nl|ptrs:na|ktp:N0|mc:78108|mtp:S|qry_typ:P|lang:en|wc:3|cs:7540|v=4,False,Vilangudi,Madurai,"21, 2nd Street, Old Villangudi, Vilangudi, Madurai - 625018, Dist.Madurai, Tamil Nadu",8046063350,
Baby Stroller Tyre,,Suraj Rubber Industries,https://www.indiamart.com/suraj-rubber-industries/?pos=144&kwd=stroller travel system&tags=CC||||8641.487||product|||NA|rsf:gd-|-qr_nm:gd|res:RC3|com-cf:nl|ptrs:na|ktp:N0|mc:78108|mtp:S|qry_typ:P|lang:en|wc:3|cs:7540|v=4,False,Transport Nagar,Jalandhar,"Aman Nagar, Bye - Pass, Transport Nagar, Jalandhar - 144004, Dist.Jalandhar, Punjab",8043834503,
Pram Cleaning Services,https://www.indiamart.com/proddetail/pram-cleaning-services-1990683348.html?pos=145&kwd=stroller travel system&tags=CC||||8752.144||product|||NA|rsf:gd-|-qr_nm:gd|res:RC3|com-cf:nl|ptrs:na|ktp:N0|mc:78108|mtp:S|qry_typ:P|lang:en|wc:3|cs:7540|v=4,Wonder Koncept Dry Clearners,https://www.indiamart.com/wonderkoncept/?pos=145&kwd=stroller travel system&tags=CC||||8752.144||product|||NA|rsf:gd-|-qr_nm:gd|res:RC3|com-cf:nl|ptrs:na|ktp:N0|mc:78108|mtp:S|qry_typ:P|lang:en|wc:3|cs:7540|v=4,False,Rajaurili Garden,New Delhi,"J-12/22 Shop No.1, Rajaurili Garden, New Delhi - 110027, Dist.Delhi, Delhi",8043814880,
"Wiggle Lightweight Easy Fold Baby Stroller for Travel, Large Storage Basket (Grey)",https://www.indiamart.com/proddetail/wiggle-lightweight-easy-fold-baby-stroller-for-travel-large-storage-basket-grey-2852549652012.html?pos=146&kwd=stroller travel system&tags=CC||||8211.142|Price|product|||NA|rsf:gd-|-qr_nm:gd|res:RC3|com-cf:nl|ptrs:na|ktp:N0|mc:78108|mtp:S|qry_typ:P|lang:en|wc:3|cs:7540|v=4,Istuff365,https://www.indiamart.com/istuff/?pos=146&kwd=stroller travel system&tags=CC||||8211.142|Price|product|||NA|rsf:gd-|-qr_nm:gd|res:RC3|com-cf:nl|ptrs:na|ktp:N0|mc:78108|mtp:S|qry_typ:P|lang:en|wc:3|cs:7540|v=4,False,Charni Road East,Mumbai,"Office No. 2B, First Floor, Unity House Near Royal Opera House, Charni Road East, Mumbai - 400004, Dist.Mumbai, Maharashtra",7942711049,
Male Push Chair,https://www.indiamart.com/proddetail/push-chair-20979645633.html?pos=147&kwd=stroller travel system&tags=CC||||8740.707||product|||NA|rsf:gd-|-qr_nm:gd|res:RC3|com-cf:nl|ptrs:na|ktp:N0|mc:78108|mtp:S|qry_typ:P|lang:en|wc:3|cs:7540|v=4,Neha Playways Equipments Private Limited,https://www.indiamart.com/nehaplayways/?pos=147&kwd=stroller travel system&tags=CC||||8740.707||product|||NA|rsf:gd-|-qr_nm:gd|res:RC3|com-cf:nl|ptrs:na|ktp:N0|mc:78108|mtp:S|qry_typ:P|lang:en|wc:3|cs:7540|v=4,False,Sector 58,Mohali,"Plot No. C 27, Phase 2, Industrial Area, Sector 58, Mohali - 160055, Dist.Mohali, Punjab",8043801194,
Kids Strollers,,Toy Rentals,https://www.indiamart.com/company/197728712/?pos=148&kwd=stroller travel system&tags=CC||||8876.815||product|||NA|rsf:gd-|-qr_nm:gd|res:RC3|com-cf:nl|ptrs:na|ktp:N0|mc:78108|mtp:S|qry_typ:P|lang:en|wc:3|cs:7540|v=4,False,nagpur,Nagpur,"3 Hindustan colony wardha road Nagpur plot no.01 opp Arya cars great naag road Nagpur, nagpur, Nagpur - 440010, Dist.Nagpur, Maharashtra",7949084764,
Rent Baby Stroller,https://www.indiamart.com/proddetail/rent-baby-stroller-19563719648.html?pos=149&kwd=stroller travel system&tags=CC||||8211.142|Price|product|||NA|rsf:gd-|-qr_nm:gd|res:RC3|com-cf:nl|ptrs:na|ktp:N0|mc:78108|mtp:S|qry_typ:P|lang:en|wc:3|cs:7540|v=4,Hello Health,https://www.indiamart.com/hello-health/?pos=149&kwd=stroller travel system&tags=CC||||8211.142|Price|product|||NA|rsf:gd-|-qr_nm:gd|res:RC3|com-cf:nl|ptrs:na|ktp:N0|mc:78108|mtp:S|qry_typ:P|lang:en|wc:3|cs:7540|v=4,False,Santacruz East,Mumbai,"Vakola Santacruz East, Near New Modern English School, Santacruz East, Mumbai - 400055, Dist.Mumbai, Maharashtra",8047665797,
Mama Love Pram & Stroller Blue,https://www.indiamart.com/proddetail/mama-love-pram-stroller-blue-3837362248.html?pos=150&kwd=stroller travel system&tags=CC||||8230.883||product|||NA|rsf:gd-|-qr_nm:gd|res:RC3|com-cf:nl|ptrs:na|ktp:N0|mc:78108|mtp:S|qry_typ:P|lang:en|wc:3|cs:7540|v=4,Yapaa Dot Com,https://www.indiamart.com/yapaa-dsurat/?pos=150&kwd=stroller travel system&tags=CC||||8230.883||product|||NA|rsf:gd-|-qr_nm:gd|res:RC3|com-cf:nl|ptrs:na|ktp:N0|mc:78108|mtp:S|qry_typ:P|lang:en|wc:3|cs:7540|v=4,False,,Surat,"Ghod Dod Road, Surat - 395007, Dist.Surat, Gujarat",8047308899,7252
"Baby Trend Expedition Jogger Travel System, Millennium Blue",https://www.indiamart.com/proddetail/baby-trend-expedition-jogger-travel-system-millennium-blue-2852948164530.html?pos=151&kwd=stroller travel system&tags=CC||||8228.275|Price|product|||NA|rsf:gd-|-qr_nm:gd|res:RC3|com-cf:nl|ptrs:na|ktp:N0|mc:78108|mtp:S|qry_typ:P|lang:en|wc:3|cs:7540|v=4,Vishvakarma Equipments,https://www.indiamart.com/vishvakarma-equipments-ahmedabad/?pos=151&kwd=stroller travel system&tags=CC||||8228.275|Price|product|||NA|rsf:gd-|-qr_nm:gd|res:RC3|com-cf:nl|ptrs:na|ktp:N0|mc:78108|mtp:S|qry_typ:P|lang:en|wc:3|cs:7540|v=4,False,,Ahmedabad,"68/8 Nr. Virat Nagar Cross Road Ghanshyam Industrial Estate, Ahmedabad - 380024, Dist.Ahmedabad, Gujarat",8048247110,3519
Baby Stroller,https://www.indiamart.com/proddetail/baby-stroller-10517988533.html?pos=152&kwd=stroller travel system&tags=CC||||8785.791|Price|product|||NA|rsf:gd-|-qr_nm:gd|res:RC3|com-cf:nl|ptrs:na|ktp:N0|mc:78108|mtp:S|qry_typ:P|lang:en|wc:3|cs:7540|v=4,Littles Camp,https://www.indiamart.com/littles-camp/?pos=152&kwd=stroller travel system&tags=CC||||8785.791|Price|product|||NA|rsf:gd-|-qr_nm:gd|res:RC3|com-cf:nl|ptrs:na|ktp:N0|mc:78108|mtp:S|qry_typ:P|lang:en|wc:3|cs:7540|v=4,False,Ghanta Ghar,Ghaziabad,"Shop No. A1, Main G. T. Road, Ghanta Ghar, Ghaziabad - 201001, Dist.Ghaziabad, Uttar Pradesh",8047767245,
Anagram Baby Boy Buggy,https://www.indiamart.com/proddetail/anagram-baby-boy-buggy-9224209762.html?pos=153&kwd=stroller travel system&tags=CC||||8752.144||product|||NA|rsf:gd-|-qr_nm:gd|res:RC3|com-cf:nl|ptrs:na|ktp:N0|mc:78108|mtp:S|qry_typ:P|lang:en|wc:3|cs:7540|v=4,Shankarraj Impex Private Limited,https://www.indiamart.com/planetjashn/?pos=153&kwd=stroller travel system&tags=CC||||8752.144||product|||NA|rsf:gd-|-qr_nm:gd|res:RC3|com-cf:nl|ptrs:na|ktp:N0|mc:78108|mtp:S|qry_typ:P|lang:en|wc:3|cs:7540|v=4,False,Rajouri Garden,New Delhi,"H-61, Ground Floor, Main Market, Back Lane, Rajouri Garden, New Delhi - 110027, Dist.Delhi, Delhi",8047799391,
Orange And Black Buddy Stroller With Reversible Handle,https://www.indiamart.com/proddetail/buddy-stroller-with-reversible-handle-20843737797.html?pos=154&kwd=stroller travel system&tags=CC||||8211.142||product|||NA|rsf:gd-|-qr_nm:gd|res:RC3|com-cf:nl|ptrs:na|ktp:N0|mc:78108|mtp:S|qry_typ:P|lang:en|wc:3|cs:7540|v=4,Offspring,https://www.indiamart.com/offspring/?pos=154&kwd=stroller travel system&tags=CC||||8211.142||product|||NA|rsf:gd-|-qr_nm:gd|res:RC3|com-cf:nl|ptrs:na|ktp:N0|mc:78108|mtp:S|qry_typ:P|lang:en|wc:3|cs:7540|v=4,False,Ghatkopar West,Mumbai,"No. 316, Subhash Nagar, Dutt Nagar J. M. Mandir Road, Asalpha, Ghatkopar West, Ghatkopar West, Mumbai - 400084, Dist.Mumbai, Maharashtra",8047629614,
Baby Stroller,,Novelty Plastic Industries,https://www.indiamart.com/noveltyplasticindustries/?pos=155&kwd=stroller travel system&tags=CC||||8752.144||product|||NA|rsf:gd-|-qr_nm:gd|res:RC3|com-cf:nl|ptrs:na|ktp:N0|mc:78108|mtp:S|qry_typ:P|lang:en|wc:3|cs:7540|v=4,False,Jhilmil Colony,New Delhi,"S-26,,School Block,Shakarpur A9/2, Jhilmil Industrial Area, Dilshad Garden Metro, Shakarpur,110095,Delhi, Jhilmil Colony, New Delhi - 110092, Dist.Delhi, Delhi",7949350057,
Pram,,Shivani Gift Centre,https://www.indiamart.com/shivani-gift-centre/?pos=156&kwd=stroller travel system&tags=CC||||8661.854|Price|product|||NA|rsf:gd-|-qr_nm:gd|res:RC3|com-cf:nl|ptrs:na|ktp:N0|mc:78108|mtp:S|qry_typ:P|lang:en|wc:3|cs:7540|v=4,False,Ganj Road,Ludhiana,"Field Ganj Road, Ganj Road, Ludhiana - 141008, Dist.Ludhiana, Punjab",7949374546,
"Zoe Kids stroller, 4",https://www.indiamart.com/proddetail/zoe-kids-stroller-2852925654688.html?pos=157&kwd=stroller travel system&tags=CC||||8624.416|Price|product|||NA|rsf:gd-|-qr_nm:gd|res:RC3|com-cf:nl|ptrs:na|ktp:N0|mc:78108|mtp:S|qry_typ:P|lang:en|wc:3|cs:7540|v=4,JSD Impex,https://www.indiamart.com/jsd-impex-hisar/?pos=157&kwd=stroller travel system&tags=CC||||8624.416|Price|product|||NA|rsf:gd-|-qr_nm:gd|res:RC3|com-cf:nl|ptrs:na|ktp:N0|mc:78108|mtp:S|qry_typ:P|lang:en|wc:3|cs:7540|v=4,False,,Hisar,"274 B, Model Town, Hisar - 125001, Dist.Hisar, Haryana",8047622417,
Baby Stroller,https://www.indiamart.com/proddetail/baby-stroller-20702453812.html?pos=158&kwd=stroller travel system&tags=CC||||8752.144|Price|product|||NA|rsf:gd-|-qr_nm:gd|res:RC3|com-cf:nl|ptrs:na|ktp:N0|mc:78108|mtp:S|qry_typ:P|lang:en|wc:3|cs:7540|v=4,Magadi Metallon Trading Corporation,https://www.indiamart.com/magadimetallontradingcorporation/?pos=158&kwd=stroller travel system&tags=CC||||8752.144|Price|product|||NA|rsf:gd-|-qr_nm:gd|res:RC3|com-cf:nl|ptrs:na|ktp:N0|mc:78108|mtp:S|qry_typ:P|lang:en|wc:3|cs:7540|v=4,False,New Friends Colony,New Delhi,"B10, SF, Maharani Bagh, New Friends Colony, New Delhi - 110065, Dist.Delhi, Delhi",8048372067,297
KITI KITS Baby Stroller For Doll Set,https://www.indiamart.com/proddetail/kiti-kits-baby-stroller-for-doll-set-2853055297191.html?pos=159&kwd=stroller travel system&tags=CC||||8211.142|Price|product|||NA|rsf:gd-|-qr_nm:gd|res:RC3|com-cf:nl|ptrs:na|ktp:N0|mc:78108|mtp:S|qry_typ:P|lang:en|wc:3|cs:7540|v=4,NVJ Enterprise,https://www.indiamart.com/nvj-enteprise/?pos=159&kwd=stroller travel system&tags=CC||||8211.142|Price|product|||NA|rsf:gd-|-qr_nm:gd|res:RC3|com-cf:nl|ptrs:na|ktp:N0|mc:78108|mtp:S|qry_typ:P|lang:en|wc:3|cs:7540|v=4,False,Near Dada Dadi Garden,Mumbai,"A/303 Abhimanyu Apt, Datta Mandir Road, Malad- East, Near Dada Dadi Garden, Mumbai - 400097, Dist.Mumbai, Maharashtra",8047846703,
Sunbaby - Sunbaby Buggy,https://www.indiamart.com/proddetail/sunbaby-sunbaby-buggy-7710596162.html?pos=160&kwd=stroller travel system&tags=CC||||9839.57||product|||NA|rsf:gd-|-qr_nm:gd|res:RC3|com-cf:nl|ptrs:na|ktp:N0|mc:78108|mtp:S|qry_typ:P|lang:en|wc:3|cs:7540|v=4,Babys Joy,https://www.indiamart.com/babys-joy/?pos=160&kwd=stroller travel system&tags=CC||||9839.57||product|||NA|rsf:gd-|-qr_nm:gd|res:RC3|com-cf:nl|ptrs:na|ktp:N0|mc:78108|mtp:S|qry_typ:P|lang:en|wc:3|cs:7540|v=4,False,,Kolkata,"No. 14/8B, Golf Club Road, Ground Floor, Near RCGC Club, Kolkata - 700033, Dist.Kolkata, West Bengal",8043884156,
Prem Ratna Mee Mee Pram Cum Stroller With Bumper Bar - Navy Blue,,Bonzo Kids Apparel Private Limited,https://www.indiamart.com/bonzo-kids-apparels-private-limited/?pos=161&kwd=stroller travel system&tags=CC||||8752.144||product|||NA|rsf:gd-|-qr_nm:gd|res:RC3|com-cf:nl|ptrs:na|ktp:N0|mc:78108|mtp:S|qry_typ:P|lang:en|wc:3|cs:7540|v=4,False,,New Delhi,"S67 Okhla Phase II, New Delhi - 110020, Dist.Delhi, Delhi",8048372815,342
Baby Stroller Tyre,,Luna Tyres Private Limited,https://www.indiamart.com/luna-tyres-ltd/?pos=162&kwd=stroller travel system&tags=CC||||9839.57||product|||NA|rsf:gd-|-qr_nm:gd|res:RC3|com-cf:nl|ptrs:na|ktp:N0|mc:78108|mtp:S|qry_typ:P|lang:en|wc:3|cs:7540|v=4,False,Kaba Para,Kolkata,"Swabhumi,, Kaba Para, Kolkata - 700054, Dist.Kolkata, West Bengal",8048361324,348
"20 Inch Powder Coating Baby Strollers Baby Pram Baby Buggy, 4 To 6",https://www.indiamart.com/proddetail/baby-strollers-baby-pram-baby-buggy-3459399855.html?pos=163&kwd=stroller travel system&tags=CC||||8239.3955|Price|product|||NA|rsf:gd-|-qr_nm:gd|res:RC3|com-cf:nl|ptrs:na|ktp:N0|mc:78108|mtp:S|qry_typ:P|lang:en|wc:3|cs:7540|v=4,Tiny Toes,https://www.indiamart.com/tiny-toes/?pos=163&kwd=stroller travel system&tags=CC||||8239.3955|Price|product|||NA|rsf:gd-|-qr_nm:gd|res:RC3|com-cf:nl|ptrs:na|ktp:N0|mc:78108|mtp:S|qry_typ:P|lang:en|wc:3|cs:7540|v=4,False,,Kalyan,"Shop No 4, Jai Sonali Building Dr. Ambedkar road, Kalyan - 421301, Dist.Thane, Maharashtra",8047699360,
Baby Stroller,https://www.indiamart.com/proddetail/baby-stroller-2853474560848.html?pos=164&kwd=stroller travel system&tags=CC||||8741.812|Price|product|||NA|rsf:gd-|-qr_nm:gd|res:RC3|com-cf:nl|ptrs:na|ktp:N0|mc:78108|mtp:S|qry_typ:P|lang:en|wc:3|cs:7540|v=4,Cmie store,https://www.indiamart.com/pakka-rent/?pos=164&kwd=stroller travel system&tags=CC||||8741.812|Price|product|||NA|rsf:gd-|-qr_nm:gd|res:RC3|com-cf:nl|ptrs:na|ktp:N0|mc:78108|mtp:S|qry_typ:P|lang:en|wc:3|cs:7540|v=4,False,,Gurugram,"1st floor, Pearl Tower, Plot No. 51, Sector 32, Gurugram, Haryan, Gurugram - 122001, Dist.Gurgaon, Haryana",8047665903,
Stroller,https://www.indiamart.com/proddetail/stroller-10273418662.html?pos=165&kwd=stroller travel system&tags=CC||||8281.036||product|||NA|rsf:gd-|-qr_nm:gd|res:RC3|com-cf:nl|ptrs:na|ktp:N0|mc:78108|mtp:S|qry_typ:P|lang:en|wc:3|cs:7540|v=4,Kiddies,https://www.indiamart.com/kiddies-company/?pos=165&kwd=stroller travel system&tags=CC||||8281.036||product|||NA|rsf:gd-|-qr_nm:gd|res:RC3|com-cf:nl|ptrs:na|ktp:N0|mc:78108|mtp:S|qry_typ:P|lang:en|wc:3|cs:7540|v=4,False,harni road,Vadodara,"107 vedant complex meera char rasta harni road HARNI ROAD BAORDA, harni road, Vadodara - 390005, Dist.Vadodara, Gujarat",8047791180,
Q TRAVLR,https://www.indiamart.com/proddetail/q-travlr-2851301709212.html?pos=166&kwd=stroller travel system&tags=CC||||8876.815|Price|product|||NA|rsf:gd-|-qr_nm:gd|res:RC3|com-cf:nl|ptrs:na|ktp:N0|mc:78108|mtp:S|qry_typ:P|lang:en|wc:3|cs:7540|v=4,Adventure Apparels,https://www.indiamart.com/adventure-apparelsbengaluru/?pos=166&kwd=stroller travel system&tags=CC||||8876.815|Price|product|||NA|rsf:gd-|-qr_nm:gd|res:RC3|com-cf:nl|ptrs:na|ktp:N0|mc:78108|mtp:S|qry_typ:P|lang:en|wc:3|cs:7540|v=4,False,GANDHIBAG GAWLIPURA,Nagpur,"ADVENTURE APPARELS RATAN GOWARDHAN PLAZA CHITRA TALKIES NEAR AGRASEN SQUARE, GANDHIBAG GAWLIPURA, Nagpur - 440002, Dist.Nagpur, Maharashtra",8047662558,
Pierra Cardin Pram C371,https://www.indiamart.com/proddetail/pierra-cardin-pram-c371-9156996573.html?pos=167&kwd=stroller travel system&tags=CC||||8211.142||product|||NA|rsf:gd-|-qr_nm:gd|res:RC3|com-cf:nl|ptrs:na|ktp:N0|mc:78108|mtp:S|qry_typ:P|lang:en|wc:3|cs:7540|v=4,Mahesh & Sons HUF,https://www.indiamart.com/mahesh-and-sons-huf/?pos=167&kwd=stroller travel system&tags=CC||||8211.142||product|||NA|rsf:gd-|-qr_nm:gd|res:RC3|com-cf:nl|ptrs:na|ktp:N0|mc:78108|mtp:S|qry_typ:P|lang:en|wc:3|cs:7540|v=4,False,Santacruz East,Mumbai,"B 3/2, BK Chhabra Estate, Santacruz East, Mumbai - 400055, Dist.Mumbai, Maharashtra",8047668053,
Baby Stroller with 5 Point Safety Harness and Reversible Handlebar Stroller for Baby,https://www.indiamart.com/proddetail/baby-stroller-with-5-point-safety-harness-and-reversible-handlebar-stroller-for-baby-2853410518312.html?pos=168&kwd=stroller travel system&tags=CC||||8786.56|Price|product|||NA|rsf:gd-|-qr_nm:gd|res:RC3|com-cf:nl|ptrs:na|ktp:N0|mc:78108|mtp:S|qry_typ:P|lang:en|wc:3|cs:7540|v=4,Springkart,https://www.indiamart.com/springkart/?pos=168&kwd=stroller travel system&tags=CC||||8786.56|Price|product|||NA|rsf:gd-|-qr_nm:gd|res:RC3|com-cf:nl|ptrs:na|ktp:N0|mc:78108|mtp:S|qry_typ:P|lang:en|wc:3|cs:7540|v=4,False,Moula Ali,Hyderabad,"Flat No. 103, Saipriya Residency, M. J. Colony, Moula Ali, Hyderabad - 500080, Dist.Hyderabad, Telangana",,
Blue And Black Baby Pram,https://www.indiamart.com/proddetail/baby-pram-14928038962.html?pos=169&kwd=stroller travel system&tags=CC||||8663.873|Price|product|||NA|rsf:gd-|-qr_nm:gd|res:RC3|com-cf:nl|ptrs:na|ktp:N0|mc:78108|mtp:S|qry_typ:P|lang:en|wc:3|cs:7540|v=4,Hello Fitness,https://www.indiamart.com/hello-fitness/?pos=169&kwd=stroller travel system&tags=CC||||8663.873|Price|product|||NA|rsf:gd-|-qr_nm:gd|res:RC3|com-cf:nl|ptrs:na|ktp:N0|mc:78108|mtp:S|qry_typ:P|lang:en|wc:3|cs:7540|v=4,False,Kumaraswamy Layout,Bengaluru,"No. 1089, 42nd Cross, 1st Stage, Kumaraswamy Layout, Bengaluru - 560078, Dist.Bengaluru, Karnataka",8043803851,
Male baby stroller 3 in 1 newborn infant folding baby pram,https://www.indiamart.com/proddetail/baby-stroller-3-in-1-newborn-infant-folding-baby-pram-20977707397.html?pos=170&kwd=stroller travel system&tags=CC||||8509.724|Price|product|||NA|rsf:gd-|-qr_nm:gd|res:RC3|com-cf:nl|ptrs:na|ktp:N0|mc:78108|mtp:S|qry_typ:P|lang:en|wc:3|cs:7540|v=4,Bebe Moma,https://www.indiamart.com/bebe-moma/?pos=170&kwd=stroller travel system&tags=CC||||8509.724|Price|product|||NA|rsf:gd-|-qr_nm:gd|res:RC3|com-cf:nl|ptrs:na|ktp:N0|mc:78108|mtp:S|qry_typ:P|lang:en|wc:3|cs:7540|v=4,False,Vellakkinar,Alappuzha,", Vellakkinar, Alappuzha, Dist.Alappuzha, Kerala",8045849754,228
Brown Aluminium Doors ILA-612,,I-Leaf Doors & Windows,https://www.indiamart.com/i-leaf-doors-windows/?pos=171&kwd=stroller travel system&tags=CC||||8503.868||product|||NA|rsf:gd-|-qr_nm:gd|res:RC3|com-cf:nl|ptrs:na|ktp:N0|mc:78108|mtp:S|qry_typ:P|lang:en|wc:3|cs:7540|v=4,False,Calicut,Kochi,"Calicut, 11/395, Chemmalli Masjid Building, Nisari Junction, Ramanattukara Kozhikode, Calicut, Kochi - 673001, Dist.Ernakulam, Kerala",8045849638,311
"cotton Baby Carrier Bag, Age Group: 3 months to 36 monhhs",https://www.indiamart.com/proddetail/baby-carrier-bag-2854407856130.html?pos=172&kwd=stroller travel system&tags=CC||||8281.036|Price|product|||NA|rsf:gd-|-qr_nm:gd|res:RC3|com-cf:nl|ptrs:na|ktp:N0|mc:78108|mtp:S|qry_typ:P|lang:en|wc:3|cs:7540|v=4,Best And Fast Exports LLP,https://www.indiamart.com/best-and-fast-export-llp/?pos=172&kwd=stroller travel system&tags=CC||||8281.036|Price|product|||NA|rsf:gd-|-qr_nm:gd|res:RC3|com-cf:nl|ptrs:na|ktp:N0|mc:78108|mtp:S|qry_typ:P|lang:en|wc:3|cs:7540|v=4,False,,Vadodara,"301 Susen Tarsali Ring Road Indra Complex Vadodara, Vadodara - 390010, Dist.Vadodara, Gujarat",8069264844,140
Seema Enterprises Pink Baby Walking Pram,https://www.indiamart.com/proddetail/baby-walking-pram-16818265633.html?pos=173&kwd=stroller travel system&tags=CC||||8752.144|Price|product|||NA|rsf:gd-|-qr_nm:gd|res:RC3|com-cf:nl|ptrs:na|ktp:N0|mc:78108|mtp:S|qry_typ:P|lang:en|wc:3|cs:7540|v=4,Seema Enterprises,https://www.indiamart.com/seemaenterprises-khasra/?pos=173&kwd=stroller travel system&tags=CC||||8752.144|Price|product|||NA|rsf:gd-|-qr_nm:gd|res:RC3|com-cf:nl|ptrs:na|ktp:N0|mc:78108|mtp:S|qry_typ:P|lang:en|wc:3|cs:7540|v=4,False,Village Mandoli,New Delhi,"B-75, Khasra No. 2/15,16 Milan Garden, Village Mandoli, New Delhi - 110093, Dist.Delhi, Delhi",7942621135,
Pink Baby Cradle Cot Cum Stroller,https://www.indiamart.com/proddetail/baby-cradle-cot-cum-stroller-20686404312.html?pos=174&kwd=stroller travel system&tags=CC||||8752.144|Price|product|||NA|rsf:gd-|-qr_nm:gd|res:RC3|com-cf:nl|ptrs:na|ktp:N0|mc:78108|mtp:S|qry_typ:P|lang:en|wc:3|cs:7540|v=4,Bajrang Trading Co.,https://www.indiamart.com/bajrang-tradingcompany/?pos=174&kwd=stroller travel system&tags=CC||||8752.144|Price|product|||NA|rsf:gd-|-qr_nm:gd|res:RC3|com-cf:nl|ptrs:na|ktp:N0|mc:78108|mtp:S|qry_typ:P|lang:en|wc:3|cs:7540|v=4,False,Bawana,New Delhi,"57-A,SOUTH ANARKALI EXTN,,DELHI Plot No. 254, 1st Floor, Pocket D, Sector 3,110039,Delhi, Bawana, New Delhi - 110051, Dist.Delhi, Delhi",8048372778,933
Reclining Black Baby Wheelchair,https://www.indiamart.com/proddetail/baby-wheelchair-11784406191.html?pos=175&kwd=stroller travel system&tags=CC||||8228.275||product|||NA|rsf:gd-|-qr_nm:gd|res:RC3|com-cf:nl|ptrs:na|ktp:N0|mc:78108|mtp:S|qry_typ:P|lang:en|wc:3|cs:7540|v=4,Chamunda Surgical Agency,https://www.indiamart.com/chamundasurgicalagency/?pos=175&kwd=stroller travel system&tags=CC||||8228.275||product|||NA|rsf:gd-|-qr_nm:gd|res:RC3|com-cf:nl|ptrs:na|ktp:N0|mc:78108|mtp:S|qry_typ:P|lang:en|wc:3|cs:7540|v=4,False,Ellisbridge,Ahmedabad,"No. 10, Medicare Center, Behind M J Library, Ellis Bridge, Ellisbridge, Ahmedabad - 380009, Dist.Ahmedabad, Gujarat",8047667416,
Baby Carry Travel Pram Stroller,https://www.indiamart.com/proddetail/baby-carry-travel-pram-stroller-16863524491.html?pos=176&kwd=stroller travel system&tags=||||8230.883|Price|product|||NA|rsf:gd-|-qr_nm:gd|res:RC3|com-cf:nl|ptrs:na|ktp:N0|mc:78108|mtp:S|qry_typ:P|lang:en|wc:3|cs:7540|v=4,National Traders,https://www.indiamart.com/national-traders-surat/?pos=176&kwd=stroller travel system&tags=||||8230.883|Price|product|||NA|rsf:gd-|-qr_nm:gd|res:RC3|com-cf:nl|ptrs:na|ktp:N0|mc:78108|mtp:S|qry_typ:P|lang:en|wc:3|cs:7540|v=4,False,Gopipura,Surat,"12/1339, Mughal Mahal Basement , Behind SMC, Turkiwad Turkiwad, Gopipura, Surat - 395003, Dist.Surat, Gujarat",8047668591,
"OUTDOOR AIR WALKER / AIR STROLLER, PRSA005",https://www.indiamart.com/proddetail/outdoor-air-walker-air-stroller-25786627855.html?pos=177&kwd=stroller travel system&tags=||||8641.487|Price|product|||NA|rsf:gd-|-qr_nm:gd|res:RC3|com-cf:nl|ptrs:na|ktp:N0|mc:78108|mtp:S|qry_typ:P|lang:en|wc:3|cs:7540|v=4,Param Sports And Fitness,https://www.indiamart.com/paramengineers-jalandhar/?pos=177&kwd=stroller travel system&tags=||||8641.487|Price|product|||NA|rsf:gd-|-qr_nm:gd|res:RC3|com-cf:nl|ptrs:na|ktp:N0|mc:78108|mtp:S|qry_typ:P|lang:en|wc:3|cs:7540|v=4,False,Basti Danishmandan,Jalandhar,"224 224 Basti Danishmanda Shivaji Nagar Jalandhar, Basti Danishmandan, Jalandhar - 144002, Dist.Jalandhar, Punjab",8069033844,376
Baby Stroller,,Dewan Chand Chaman Lal,https://www.indiamart.com/dewan-chand-chaman/?pos=178&kwd=stroller travel system&tags=CA||||8752.144||product|||NA|rsf:gd-|-qr_nm:gd|res:RC3|com-cf:nl|ptrs:na|ktp:N0|mc:78108|mtp:S|qry_typ:P|lang:en|wc:3|cs:7540|v=4,False,Jhandewalan,New Delhi,"108- A, Opposite Videocon Tower, DDA Cycle Market Jhandewalan, Jhandewalan, New Delhi - 110055, Dist.Delhi, Delhi",8047831155,
Baby Stroller BF-890C,,Manisha Intarnational Private Limited,https://www.indiamart.com/manisha-international-india/?pos=179&kwd=stroller travel system&tags=CA||||8752.144||product|||NA|rsf:gd-|-qr_nm:gd|res:RC3|com-cf:nl|ptrs:na|ktp:N0|mc:78108|mtp:S|qry_typ:P|lang:en|wc:3|cs:7540|v=4,False,Saidulajab,New Delhi,"No. 1- A, First Floor, Khasra No. 275, Westend Marg, Saidulajab, Saidulajab, New Delhi - 110030, Dist.Delhi, Delhi",8047689247,
Fisher Price Stroller Activity Pals,,Apple Collections NX,https://www.indiamart.com/apple-collections/?pos=180&kwd=stroller travel system&tags=CC||||8211.142||product|||NA|rsf:gd-|-qr_nm:gd|res:RC3|com-cf:nl|ptrs:na|ktp:N0|mc:78108|mtp:S|qry_typ:P|lang:en|wc:3|cs:7540|v=4,False,Kandivali West,Mumbai,"Shop Number- 8, Plot Number- 239, Kesar Plaza CHS, Near Charkop Market Signal, Kandivali West, Mumbai - 400067, Dist.Mumbai, Maharashtra",8048372712,289
Fisher Price Stroller Activity Pals,,Toy Planet,https://www.indiamart.com/toyplanet/?pos=181&kwd=stroller travel system&tags=CC||||9839.57||product|||NA|rsf:gd-|-qr_nm:gd|res:RC3|com-cf:nl|ptrs:na|ktp:N0|mc:78108|mtp:S|qry_typ:P|lang:en|wc:3|cs:7540|v=4,False,Forum mall,Kolkata,"10/3, Shop No 309, 3rd Floor, Forum Mall, Forum mall, Elgin Road, i, Forum mall, Kolkata - 700020, Dist.Kolkata, West Bengal",8069033748,471
Stroller Travel System,,Jindal Cycle Store,https://www.indiamart.com/jindal-cycle-store-jhajjar/?pos=182&kwd=stroller travel system&tags=CC||||8707.773||product|||NA|rsf:gd-|-qr_nm:gd|res:RC3|com-cf:nl|ptrs:na|ktp:N0|mc:78108|mtp:S|qry_typ:P|lang:en|wc:3|cs:7540|v=4,False,Main Market,Jhajjar,".,JINDAL CYCLE STORE, NEAR VAISH SCHOOL, MAIN BAZZAR,JHAJJAR . NEAR VAISH SCHOOL, MAIN BAZZAR JINDAL CYCLE STORE JHAJJAR Jhajjar Haryana 124103,124123,Jhajjar, Main Market, Jhajjar - 124103, Dist.Jhajjar, Haryana",8069264870,453
Stroller Travel System,,Mahaveer Cycle Store,https://www.indiamart.com/mahaveer-cycle-store-pratapgarh/?pos=183&kwd=stroller travel system&tags=CC||||8464.821||product|||NA|rsf:gd-|-qr_nm:gd|res:RC3|com-cf:nl|ptrs:na|ktp:N0|mc:78108|mtp:S|qry_typ:P|lang:en|wc:3|cs:7540|v=4,False,,Pratapgarh,"Mahaveer Cycle, Maruti nagar, Maruti nagar, Pratapgarh Mahaveer Cycle,Near Bus Stand,Maruti Nagar,Maruti Nagar,Pratapgarh,Pratapgarh, 312605, Pratapgarh, Pratapgarh - 312605, Rajasthan",8048372713,927
Stroller Travel System,,Suhana Enterprises,https://www.indiamart.com/suhanaenterprises-94834252/?pos=184&kwd=stroller travel system&tags=CC||||8752.144||product|||NA|rsf:gd-|-qr_nm:gd|res:RC3|com-cf:nl|ptrs:na|ktp:N0|mc:78108|mtp:S|qry_typ:P|lang:en|wc:3|cs:7540|v=4,False,North Ghonda,New Delhi,",GALI NO. 3,NORTH GHONDA,,B-182, North Ghonda, New Delhi - 110053, Dist.Delhi, Delhi",8048249678,6633
Stroller Travel System,,Shri Krishna Traders,https://www.indiamart.com/shrikrishnatraders-rohtak/?pos=185&kwd=stroller travel system&tags=CC||||8706.508||product|||NA|rsf:gd-|-qr_nm:gd|res:RC3|com-cf:nl|ptrs:na|ktp:N0|mc:78108|mtp:S|qry_typ:P|lang:en|wc:3|cs:7540|v=4,False,Janta Colony,Rohtak,"938/35, Janta Colony, Rohtak - 124001, Dist.Rohtak, Haryana",8048249679,6703
Stroller Travel System,,Shreeji Cycle Zone,https://www.indiamart.com/shreeji-cycle-zone/?pos=186&kwd=stroller travel system&tags=CC||||8220.195||product|||NA|rsf:gd-|-qr_nm:gd|res:RC3|com-cf:nl|ptrs:na|ktp:N0|mc:78108|mtp:S|qry_typ:P|lang:en|wc:3|cs:7540|v=4,False,Bagichagicha Colony Station Road,Unjha,"7/43/56, Jay Vijay Road, Bagichagicha Colony Station Road, Unjha - 384170, Dist.Mehsana, Gujarat",8048372141,971
Stroller Travel System,,Kawoosa Sons,https://www.indiamart.com/kawoosa-sons/?pos=187&kwd=stroller travel system&tags=CC||||8612.732||product|||NA|rsf:gd-|-qr_nm:gd|res:RC3|com-cf:nl|ptrs:na|ktp:N0|mc:78108|mtp:S|qry_typ:P|lang:en|wc:3|cs:7540|v=4,False,Nowhatta,Srinagar,"Budshah Bazar S.R. Gunj, Srinagar, Srinagar, Jammu and Kashmir Main Road,.Opposite Jamia Masjid, Nowhatta, Srinagar - 190002, Dist.Srinagar, Jammu & Kashmir",8048371901,147
Stroller Travel System,,A To Z Garments,https://www.indiamart.com/atozgarments-godhra/?pos=188&kwd=stroller travel system&tags=CC||||8331.18||product|||NA|rsf:gd-|-qr_nm:gd|res:RC3|com-cf:nl|ptrs:na|ktp:N0|mc:78108|mtp:S|qry_typ:P|lang:en|wc:3|cs:7540|v=4,False,,Godhra,"patelwada, Godhra - 389001, Dist.Panch Mahals, Gujarat",8048371653,186
Stroller Travel System,,Charbhuja Toys,https://www.indiamart.com/charbhuja-toys/?pos=189&kwd=stroller travel system&tags=CC||||8228.275||product|||NA|rsf:gd-|-qr_nm:gd|res:RC3|com-cf:nl|ptrs:na|ktp:N0|mc:78108|mtp:S|qry_typ:P|lang:en|wc:3|cs:7540|v=4,False,Ahmedabad-380055,Ahmedabad,"B-13 Nr. Ujala Char Rasta Suvidha Estate Sarkhej B-13 Nr. Ujala Char Rasta Suvidha Estate Sarkhej, , Ahmedabad-380055, Gujarat,India, Ahmedabad-380055, Ahmedabad - 380055, Dist.Ahmedabad, Gujarat",8048249694,6486
Stroller Travel System,,kilkari baby and mom care,https://www.indiamart.com/kilkari-baby-and-mom-care/?pos=190&kwd=stroller travel system&tags=CC||||8689.424||product|||NA|rsf:gd-|-qr_nm:gd|res:RC3|com-cf:nl|ptrs:na|ktp:N0|mc:78108|mtp:S|qry_typ:P|lang:en|wc:3|cs:7540|v=4,False,Chanakyapuri,Sehore,"Shop No.7, Krishna Complex in front of Vishal mega mart, Chanakyapuri, Sehore - 466001, Dist.Sehore, Madhya Pradesh",8048261678,852
Stroller Travel System,,Ganpati Gift Store,https://www.indiamart.com/ganpati-gift-store-nagaur/?pos=191&kwd=stroller travel system&tags=CC||||8404.165||product|||NA|rsf:gd-|-qr_nm:gd|res:RC3|com-cf:nl|ptrs:na|ktp:N0|mc:78108|mtp:S|qry_typ:P|lang:en|wc:3|cs:7540|v=4,False,,Nagaur,"SHIV BHARI,GANPATI GIFT SOTRE,, Nagaur - 341001, Dist.Nagaur, Rajasthan",8069416020,625
Stroller Travel System,,Jagdish Cycle Agency,https://www.indiamart.com/jagdish-cycle-agency/?pos=192&kwd=stroller travel system&tags=CC||||8496.898|Price|product|||NA|rsf:gd-|-qr_nm:gd|res:RC3|com-cf:nl|ptrs:na|ktp:N0|mc:78108|mtp:S|qry_typ:P|lang:en|wc:3|cs:7540|v=4,False,,Hanumangarh,"Shop No 56,Tahbazari,College Road,Indra Chowk,Hanumangarh Town,Hanumangarh, Hanumangarh - 335513, Dist.Hanumangarh, Rajasthan",8069264895,453
Stroller Travel System,,Sakshi Manhari And Ganeral Store,https://www.indiamart.com/sakshi-manhari-and-ganeral-store/?pos=193&kwd=stroller travel system&tags=CC||||9366.057||product|||NA|rsf:gd-|-qr_nm:gd|res:RC3|com-cf:nl|ptrs:na|ktp:N0|mc:78108|mtp:S|qry_typ:P|lang:en|wc:3|cs:7540|v=4,False,,Garhwa,"Na,Na,Na,Namak Patti,Main Bazar,Garhwa,Garhwa, Garhwa - 822114, Dist.Garhwa, Jharkhand",8069264813,699
Stroller Travel System,,Bhaskar Trading,https://www.indiamart.com/bhaskar-trading-alwar/?pos=194&kwd=stroller travel system&tags=CC||||8692.544|Price|product|||NA|rsf:gd-|-qr_nm:gd|res:RC3|com-cf:nl|ptrs:na|ktp:N0|mc:78108|mtp:S|qry_typ:P|lang:en|wc:3|cs:7540|v=4,False,,Alwar,"Khasra No 1958,Rakba 2 82,2891,Rao Property,Alwar Bansur Road,Paparda,Alwar, Alwar - 301402, Dist.Alwar, Rajasthan",8048250442,479
Stroller Travel System,,planet toys,https://www.indiamart.com/planet-toys/?pos=195&kwd=stroller travel system&tags=CC||||8915.672||product|||NA|rsf:gd-|-qr_nm:gd|res:RC3|com-cf:nl|ptrs:na|ktp:N0|mc:78108|mtp:S|qry_typ:P|lang:en|wc:3|cs:7540|v=4,False,Pat Pat Sarai,Moradabad,"Ganj Bazar Near Neem Ka Piyau , Moradabad, Pat Pat Sarai, Moradabad - 244001, Dist.Moradabad, Uttar Pradesh",8047309005,3679
Stroller Travel System,,Bajwa Cycle Store,https://www.indiamart.com/bajwa-cycle-store/?pos=196&kwd=stroller travel system&tags=CC||||8580.032||product|||NA|rsf:gd-|-qr_nm:gd|res:RC3|com-cf:nl|ptrs:na|ktp:N0|mc:78108|mtp:S|qry_typ:P|lang:en|wc:3|cs:7540|v=4,False,,Amritsar,"Village Alkare,Alkare,Kathunangal,Amritsar, Amritsar - 143502, Dist.Amritsar, Punjab",8069264862,346
Stroller Travel System,,Shree Naklank Provision Stores,https://www.indiamart.com/shree-naklank-enterprise/?pos=197&kwd=stroller travel system&tags=CC||||8230.883||product|||NA|rsf:gd-|-qr_nm:gd|res:RC3|com-cf:nl|ptrs:na|ktp:N0|mc:78108|mtp:S|qry_typ:P|lang:en|wc:3|cs:7540|v=4,False,Varachha,Surat,"471.laxminagar socity L.h.road Trikamnagar -2, Varachha, Surat - 395006, Dist.Surat, Gujarat",8069033727,987
Stroller Travel System,,Agarwal Cycle Works,https://www.indiamart.com/agarwal-cycle-works/?pos=198&kwd=stroller travel system&tags=CC||||8489.502|Price|product|||NA|rsf:gd-|-qr_nm:gd|res:RC3|com-cf:nl|ptrs:na|ktp:N0|mc:78108|mtp:S|qry_typ:P|lang:en|wc:3|cs:7540|v=4,False,,Nasirabad,"153,hanuman Chowk,Nasirabad,Ajmer, Nasirabad - 305601, Dist.Ajmer, Rajasthan",8047308899,5822
Travel Stroller,,M/ S Poised IT Consultants Private Limited,https://www.indiamart.com/m-s-poised-it-consultants-private-limited/?pos=199&kwd=stroller travel system&tags=CC||||8785.791||product|||NA|rsf:gd-|-qr_nm:gd|res:RC3|com-cf:nl|ptrs:na|ktp:N0|mc:78108|mtp:S|qry_typ:P|lang:en|wc:3|cs:7540|v=4,False,,Ghaziabad,"Ist Floor F-15 D-242 Sector 63 Noida Gautam Buddha Nagar, Ghaziabad - 201301, Dist.Ghaziabad, Uttar Pradesh",8047311013,6151
4 In 1 Stroller Pram Travel System with Car Seat Khakhi High Ground Clearanceer Wheel,,Hunyhuny Overseas Private Limited,https://www.indiamart.com/hunyhuny-overseas-private-limited-gurugram/?pos=200&kwd=stroller travel system&tags=CC||||8741.812||product|||NA|rsf:gd-|-qr_nm:gd|res:RC3|com-cf:nl|ptrs:na|ktp:N0|mc:78108|mtp:S|qry_typ:P|lang:en|wc:3|cs:7540|v=4,False,,Gurugram,"L.g Floor Lg-46 Mehrauli Gurgaon Road Metropolis Mall, Gurugram - 122002, Dist.Gurgaon, Haryana",8069196758,448
StarAndDaisy Coballe Smart Folding Travel Luxury Stroller - Grey,,Boho Baby,https://www.indiamart.com/boho-baby/?pos=201&kwd=stroller travel system&tags=CC||||8571.301||product|||NA|rsf:gd-|-qr_nm:gd|res:RC3|com-cf:nl|ptrs:na|ktp:N0|mc:78108|mtp:S|qry_typ:P|lang:en|wc:3|cs:7540|v=4,False,Hari Har Complex,Thiruvananthapuram,"Ground Floor Shop No 30 Ambattur, Hari Har Complex, Thiruvananthapuram - 695101, Dist.Thiruvananthapuram, Kerala",8048372844,356
Holm Airport Car Seat Stroller Travel Cart And Child Transporter,,Sabrina Plastic India,https://www.indiamart.com/sabrina-plastic-india/?pos=202&kwd=stroller travel system&tags=CC||||8752.144||product|||NA|rsf:gd-|-qr_nm:gd|res:RC3|com-cf:nl|ptrs:na|ktp:N0|mc:78108|mtp:S|qry_typ:P|lang:en|wc:3|cs:7540|v=4,False,Seelampur,New Delhi,"plot No.63, Pkt-d, Sector-1, Dsiidc, Bawana, North West Delhi, Seelampur, New Delhi - 110039, Dist.Delhi, Delhi",8069728282,577
Baby Stroller for 0 to 5 Years Foldable Travel Friendly with Shock Absorber Function,,Tinyberg,https://www.indiamart.com/company/65399153/?pos=203&kwd=stroller travel system&tags=CC||||8741.812|Price|product|||NA|rsf:gd-|-qr_nm:gd|res:RC3|com-cf:nl|ptrs:na|ktp:N0|mc:78108|mtp:S|qry_typ:P|lang:en|wc:3|cs:7540|v=4,False,,Gurugram,"Flat No. 701, Gh-09, Sector 52, Gurugram - 122003, Dist.Gurgaon, Haryana",8048247100,3058
Kids Stroller,,Hind Industrial Packers Pvt. Ltd.,https://www.indiamart.com/mother-craft/?pos=204&kwd=stroller travel system&tags=CB||||8316.457||product|||NA|rsf:gd-|-qr_nm:gd|res:RC3|com-cf:nl|ptrs:na|ktp:N0|mc:78108|mtp:S|qry_typ:P|lang:en|wc:3|cs:7540|v=4,False,City Center Mall,Nashik,"City Center Mall,, City Center Mall, Nashik - 422002, Dist.Nashik, Maharashtra",8048371968,654
The Punjab Review,,Kamboj Book Depot,https://www.indiamart.com/kamboj-book-depot/?pos=205&kwd=stroller travel system&tags=CC||||8480.976||product|||NA|rsf:gd-|-qr_nm:gd|res:RC3|com-cf:nl|ptrs:na|ktp:N0|mc:78108|mtp:S|qry_typ:P|lang:en|wc:3|cs:7540|v=4,False,Fazilka,Fazilka,"Gajalapuram Bagh, Fazilka, Fazilka, Fazilka - 152024, Dist.Firozpur, Punjab",8062270235,568
Baby Stroller,,Krishna Industries,https://www.indiamart.com/krishna-industries-purulia/?pos=206&kwd=stroller travel system&tags=CC||||9636.477|Price|product|||NA|rsf:gd-|-qr_nm:gd|res:RC3|com-cf:nl|ptrs:na|ktp:N0|mc:78108|mtp:S|qry_typ:P|lang:en|wc:3|cs:7540|v=4,False,,Purulia,"Ward-21 791 Barakar Road Kopur Bagan Purulia, Purulia - 723101, Dist.Purulia, West Bengal",8048250496,632
Ador Convenio Baby Stroller 44 Pink,,Healthgenie India Private Limited,https://www.indiamart.com/healthgenie-private-limited/?pos=207&kwd=stroller travel system&tags=CC||||8752.144|Price|product|||NA|rsf:gd-|-qr_nm:gd|res:RC3|com-cf:nl|ptrs:na|ktp:N0|mc:78108|mtp:S|qry_typ:P|lang:en|wc:3|cs:7540|v=4,False,,New Delhi,"B-13, Pocket B, Okhla Phase 2, Okhla Industrial Area, New Delhi - 110020, Dist.Delhi, Delhi",8048250178,434
Strollers,,Little Feet Inc,https://www.indiamart.com/little-feet/?pos=208&kwd=stroller travel system&tags=CC||||8954.051||product|||NA|rsf:gd-|-qr_nm:gd|res:RC3|com-cf:nl|ptrs:na|ktp:N0|mc:78108|mtp:S|qry_typ:P|lang:en|wc:3|cs:7540|v=4,False,Mount Road,Chennai,"Suite- I, 6 'I', Shakti Towers, No. 766, Mount Road,, Mount Road, Chennai - 600002, Dist.Chennai, Tamil Nadu",8048372666,644
Baby Strollers,,Anmol Baby Cycle,https://www.indiamart.com/anmol-baby-cycle-mumbai/?pos=209&kwd=stroller travel system&tags=CC||||8211.142||product|||NA|rsf:gd-|-qr_nm:gd|res:RC3|com-cf:nl|ptrs:na|ktp:N0|mc:78108|mtp:S|qry_typ:P|lang:en|wc:3|cs:7540|v=4,False,Ghatkopar West,Mumbai,"Shed No. 11, L.B.S. Marg, Harichand Textile Mill Compound, Vikhroli, Ghatkopar West, Mumbai - 400079, Dist.Mumbai, Maharashtra",8047518830,
Strollers,,Apple Of My I,https://www.indiamart.com/apple-my-ibengaluru/?pos=210&kwd=stroller travel system&tags=CC||||8663.873||product|||NA|rsf:gd-|-qr_nm:gd|res:RC3|com-cf:nl|ptrs:na|ktp:N0|mc:78108|mtp:S|qry_typ:P|lang:en|wc:3|cs:7540|v=4,False,12th Main Indira Nagar,Bengaluru,"No. 2985, HAL 2nd Stage, 12th Main Indira Nagar, Bengaluru - 560038, Dist.Bengaluru, Karnataka",8048249700,3264
