product_title,product_link,company_name,company_link,is_verified_exporter,city_region,city,address_details,phone_number,phone_number_extension
"Sivam Export Printed Organic Cotton Muslin Baby Blanket, 0 - 2 Years, Size: 100 X 100 Cm (L X W)",https://www.indiamart.com/proddetail/organic-cotton-muslin-baby-blanket-23929670388.html?pos=1&kwd=swaddler&tags=A||||8706.263|Price|product|||TS|rsf:gd-|-qr_nm:gd|res:RC3|com-cf:nl|ptrs:na|ktp:N0|mc:192827|mtp:S|qry_typ:P|lang:en|wc:1|flavl:0-2|cs:8449|v=4,Sivam Export,https://www.indiamart.com/sivamexport-karur/?pos=1&kwd=swaddler&tags=A||||8706.263|Price|product|||TS|rsf:gd-|-qr_nm:gd|res:RC3|com-cf:nl|ptrs:na|ktp:N0|mc:192827|mtp:S|qry_typ:P|lang:en|wc:1|flavl:0-2|cs:8449|v=4,False,,Karur,"6/1 Thiru Nagar,3rd Street, Karur - 639002, Dist.Karur, Tamil Nadu",8046050918,
"46"" Printed Cotton Muslin Fabric",https://www.indiamart.com/proddetail/46-printed-cotton-muslin-fabric-26464641355.html?pos=2&kwd=swaddler&tags=A||||8231.259|Price|product|||MDC|rsf:gd-|-qr_nm:gd|res:RC3|com-cf:nl|ptrs:na|ktp:N0|mc:192827|mtp:S|qry_typ:P|lang:en|wc:1|flavl:0-2|cs:8449|v=4,Hemp Ecotex,https://www.indiamart.com/hempecotex/?pos=2&kwd=swaddler&tags=A||||8231.259|Price|product|||MDC|rsf:gd-|-qr_nm:gd|res:RC3|com-cf:nl|ptrs:na|ktp:N0|mc:192827|mtp:S|qry_typ:P|lang:en|wc:1|flavl:0-2|cs:8449|v=4,False,Val,Bhiwandi,"1st Floor, H. No 1661/12 Gala No 106, BL-K, Dharam Complex, Phase-I, Rahnal Village, Val, Bhiwandi - 421302, Maharashtra",7949092530,
White Plain Muslin Swaddle Blankets,https://www.indiamart.com/proddetail/muslin-swaddle-blankets-2854117916091.html?pos=3&kwd=swaddler&tags=A||||8706.263|Price|product|||TS|rsf:gd-|-qr_nm:gd|res:RC3|com-cf:nl|ptrs:na|ktp:N0|mc:192827|mtp:S|qry_typ:P|lang:en|wc:1|flavl:0-2|cs:8449|v=4,P.R.Cottons,https://www.indiamart.com/prcottons/?pos=3&kwd=swaddler&tags=A||||8706.263|Price|product|||TS|rsf:gd-|-qr_nm:gd|res:RC3|com-cf:nl|ptrs:na|ktp:N0|mc:192827|mtp:S|qry_typ:P|lang:en|wc:1|flavl:0-2|cs:8449|v=4,True,Near,Karur,"Ground Floor Room No.1, Door No.79/1, Vaiyapurinagar Ist Cross, Near, Karur - 639002, Dist.Karur, Tamil Nadu",8048608767,
Blue Printed Swaddler,https://www.indiamart.com/proddetail/swaddler-2851621636655.html?pos=4&kwd=swaddler&tags=A||||8747.203|Price|product|||TS|rsf:gd-|-qr_nm:gd|res:RC3|com-cf:nl|ptrs:na|ktp:N0|mc:192827|mtp:S|qry_typ:P|lang:en|wc:1|flavl:0-2|cs:8449|v=4,Vardan Home Furnishings,https://www.vardanhomefurnishings.com/?pos=4&kwd=swaddler&tags=A||||8747.203|Price|product|||TS|rsf:gd-|-qr_nm:gd|res:RC3|com-cf:nl|ptrs:na|ktp:N0|mc:192827|mtp:S|qry_typ:P|lang:en|wc:1|flavl:0-2|cs:8449|v=4,False,Chowk,Panipat,"Pehlwan Chowk, Vardan Home Furnishings, Kutani Road, Chowk, Panipat - 132103, Dist.Panipat, Haryana",7942957417,
Baby Swaddle Wrapper Muslin,https://www.indiamart.com/proddetail/baby-swaddle-wrapper-muslin-2852806327797.html?pos=5&kwd=swaddler&tags=BA||||8954.051|Price|product|||TS|rsf:gd-|-qr_nm:gd|res:RC3|com-cf:nl|ptrs:na|ktp:N0|mc:192827|mtp:S|qry_typ:P|lang:en|wc:1|flavl:0-2|cs:8449|v=4,Tetra Clothing,https://www.tetraclothing.in/?pos=5&kwd=swaddler&tags=BA||||8954.051|Price|product|||TS|rsf:gd-|-qr_nm:gd|res:RC3|com-cf:nl|ptrs:na|ktp:N0|mc:192827|mtp:S|qry_typ:P|lang:en|wc:1|flavl:0-2|cs:8449|v=4,True,Gopichettipalaiyam,Chennai,"No. 59/28, Balu Building, Gopichettipalaiyam, Chennai - 638476, Dist.Chennai, Tamil Nadu",8048957951,
"Meenu's Manchesters White 100 percent premium cotton Swaddles, Size: Singe, New Born Babies",https://www.indiamart.com/proddetail/100-percent-premium-cotton-swaddles-2851565208891.html?pos=6&kwd=swaddler&tags=A||||8668.838|Price|product|||TS|rsf:gd-|-qr_nm:gd|res:RC3|com-cf:nl|ptrs:na|ktp:N0|mc:192827|mtp:S|qry_typ:P|lang:en|wc:1|flavl:0-2|cs:8449|v=4,Meenu's Manchesters,https://www.hotelbedsheet.in/?pos=6&kwd=swaddler&tags=A||||8668.838|Price|product|||TS|rsf:gd-|-qr_nm:gd|res:RC3|com-cf:nl|ptrs:na|ktp:N0|mc:192827|mtp:S|qry_typ:P|lang:en|wc:1|flavl:0-2|cs:8449|v=4,False,Edayankattuvalsu,Erode,"26, Nggo Colony, 1, Edayankattuvalsu, Erode - 638009, Dist.Erode, Tamil Nadu",8048609221,
"Muslin Colors Baby Cotton Swaddle Wrap, Size: Medium",https://www.indiamart.com/proddetail/baby-cotton-swaddle-wrap-2854190958855.html?pos=7&kwd=swaddler&tags=A||||8211.142|Price|product|||TS|rsf:gd-|-qr_nm:gd|res:RC3|com-cf:nl|ptrs:na|ktp:N0|mc:192827|mtp:S|qry_typ:P|lang:en|wc:1|flavl:0-2|cs:8449|v=4,Parass Trading,https://www.indiamart.com/parasstrading/?pos=7&kwd=swaddler&tags=A||||8211.142|Price|product|||TS|rsf:gd-|-qr_nm:gd|res:RC3|com-cf:nl|ptrs:na|ktp:N0|mc:192827|mtp:S|qry_typ:P|lang:en|wc:1|flavl:0-2|cs:8449|v=4,False,Chembur,Mumbai,"Room no 3, First Floor, Plot no 39, Next to Shivaji Nagar police station,Kherwadi Plot no 39, Chembur, Mumbai - 400071, Dist.Mumbai, Maharashtra",8047631170,
Cotton Printed Muslin Swaddler,https://www.indiamart.com/proddetail/cotton-printed-muslin-swaddler-23378501633.html?pos=8&kwd=swaddler&tags=A||||8307.81|Price|product|||TS|rsf:gd-|-qr_nm:gd|res:RC3|com-cf:nl|ptrs:na|ktp:N0|mc:192827|mtp:S|qry_typ:P|lang:en|wc:1|flavl:0-2|cs:8449|v=4,Lazytoddler Solutions Private Limited,https://www.indiamart.com/lazytoddler-solutions/?pos=8&kwd=swaddler&tags=A||||8307.81|Price|product|||TS|rsf:gd-|-qr_nm:gd|res:RC3|com-cf:nl|ptrs:na|ktp:N0|mc:192827|mtp:S|qry_typ:P|lang:en|wc:1|flavl:0-2|cs:8449|v=4,False,Wakad,Pune,"A2-1001, Fl-A1, Behind Madhuban Hotel, S.No-40, Armada Parkhe Wasti, Wakad, Wakad, Pune - 411057, Dist.Pune, Maharashtra",8043819563,
Blue Boys And Girls Cotton Bamboo Yarn Made Super Soft Swaddles,https://www.indiamart.com/proddetail/boys-and-girls-cotton-bamboo-yarn-made-super-soft-swaddles-24012486433.html?pos=9&kwd=swaddler&tags=BA||||8706.263|Price|product|||TS|rsf:gd-|-qr_nm:gd|res:RC3|com-cf:nl|ptrs:na|ktp:N0|mc:192827|mtp:S|qry_typ:P|lang:en|wc:1|flavl:0-2|cs:8449|v=4,Mercury Weavers,https://www.indiamart.com/mercuryweavers/?pos=9&kwd=swaddler&tags=BA||||8706.263|Price|product|||TS|rsf:gd-|-qr_nm:gd|res:RC3|com-cf:nl|ptrs:na|ktp:N0|mc:192827|mtp:S|qry_typ:P|lang:en|wc:1|flavl:0-2|cs:8449|v=4,False,Gowripuram,Karur,"35/3, 2nd Floor, Gandhi Nagar 3rd Cross, Karur Town, Gowripuram, Karur - 639001, Dist.Karur, Tamil Nadu",8047641180,
Swaddles,https://www.indiamart.com/proddetail/swaddles-22430263748.html?pos=10&kwd=swaddler&tags=A||||8663.873|Price|product|||TS|rsf:gd-|-qr_nm:gd|res:RC3|com-cf:nl|ptrs:na|ktp:N0|mc:192827|mtp:S|qry_typ:P|lang:en|wc:1|flavl:0-2|cs:8449|v=4,Alpha Organics Clothing India,https://www.indiamart.com/alphaorganicsclothingindia/?pos=10&kwd=swaddler&tags=A||||8663.873|Price|product|||TS|rsf:gd-|-qr_nm:gd|res:RC3|com-cf:nl|ptrs:na|ktp:N0|mc:192827|mtp:S|qry_typ:P|lang:en|wc:1|flavl:0-2|cs:8449|v=4,True,Indiranagar,Bengaluru,"NO.3037,INDIRANAGAR,8TH MAIN ROAD, HAL 2ND STAGE,BANGALORE, Indiranagar, Bengaluru - 560038, Dist.Bengaluru, Karnataka",7942540831,
"Multicolor Baby Cotton Muslin Swaddle, Size: Singe",https://www.indiamart.com/proddetail/baby-cotton-muslin-swaddle-2849329098130.html?pos=11&kwd=swaddler&tags=A||||8211.142|Price|product|||TS|rsf:gd-|-qr_nm:gd|res:RC3|com-cf:nl|ptrs:na|ktp:N0|mc:192827|mtp:S|qry_typ:P|lang:en|wc:1|flavl:0-2|cs:8449|v=4,ShanBuyers,https://www.indiamart.com/shanbuyers/?pos=11&kwd=swaddler&tags=A||||8211.142|Price|product|||TS|rsf:gd-|-qr_nm:gd|res:RC3|com-cf:nl|ptrs:na|ktp:N0|mc:192827|mtp:S|qry_typ:P|lang:en|wc:1|flavl:0-2|cs:8449|v=4,False,Dahisar East,Mumbai,"316, Floor No. 3rd, Sarita Building, Prabhat Ind Complex, Road Western Express Highway, Toll Naka, Dahisar, Dahisar East, Mumbai - 400068, Dist.Mumbai, Maharashtra",8047670828,
Cotton Muslin Baby Swaddles,https://www.indiamart.com/proddetail/cotton-muslin-baby-swaddles-7287363962.html?pos=12&kwd=swaddler&tags=A||||8559.269|Price|product|||TS|rsf:gd-|-qr_nm:gd|res:RC3|com-cf:nl|ptrs:na|ktp:N0|mc:192827|mtp:S|qry_typ:P|lang:en|wc:1|flavl:0-2|cs:8449|v=4,Central India Fabrics,https://www.centralindiafabrics.net/?pos=12&kwd=swaddler&tags=A||||8559.269|Price|product|||TS|rsf:gd-|-qr_nm:gd|res:RC3|com-cf:nl|ptrs:na|ktp:N0|mc:192827|mtp:S|qry_typ:P|lang:en|wc:1|flavl:0-2|cs:8449|v=4,True,Avantika Nagar,Indore,"2/A/C, Sector D, Sanwer Road Opposite Bandganga Police Station, Avantika Nagar, Indore - 452015, Dist.Indore, Madhya Pradesh",8048965370,
Printed Baby swaddler,https://www.indiamart.com/proddetail/baby-swaddler-2854504564448.html?pos=13&kwd=swaddler&tags=A||||8580.032|Price|product|||TS|rsf:gd-|-qr_nm:gd|res:RC3|com-cf:nl|ptrs:na|ktp:N0|mc:192827|mtp:S|qry_typ:P|lang:en|wc:1|flavl:0-2|cs:8449|v=4,Ritu Infants Care,https://www.indiamart.com/ritu-infants-care/?pos=13&kwd=swaddler&tags=A||||8580.032|Price|product|||TS|rsf:gd-|-qr_nm:gd|res:RC3|com-cf:nl|ptrs:na|ktp:N0|mc:192827|mtp:S|qry_typ:P|lang:en|wc:1|flavl:0-2|cs:8449|v=4,False,Sunder Nagar,Amritsar,"232, Tilak Nagar, Shivala Colony, Sunder Nagar, Amritsar - 143001, Dist.Amritsar, Punjab",7942712512,
Baby Swaddler,https://www.indiamart.com/proddetail/baby-swaddler-24461258733.html?pos=14&kwd=swaddler&tags=A||||8752.144|Price|product|||TS|rsf:gd-|-qr_nm:gd|res:RC3|com-cf:nl|ptrs:na|ktp:N0|mc:192827|mtp:S|qry_typ:P|lang:en|wc:1|flavl:0-2|cs:8449|v=4,Man Singh & Sons Private Limited,https://www.babyproductsmanufacturer.com/?pos=14&kwd=swaddler&tags=A||||8752.144|Price|product|||TS|rsf:gd-|-qr_nm:gd|res:RC3|com-cf:nl|ptrs:na|ktp:N0|mc:192827|mtp:S|qry_typ:P|lang:en|wc:1|flavl:0-2|cs:8449|v=4,False,Karol Bagh,New Delhi,"No. 13/24, 1st Floor, W. E. A., Karol Bagh, Karol Bagh, New Delhi - 110005, Dist.Delhi, Delhi",8048978579,
White Printed Baby Swaddler,https://www.indiamart.com/proddetail/baby-swaddler-2853518137133.html?pos=15&kwd=swaddler&tags=A||||8706.263|Price|product|||TS|rsf:gd-|-qr_nm:gd|res:RC3|com-cf:nl|ptrs:na|ktp:N0|mc:192827|mtp:S|qry_typ:P|lang:en|wc:1|cs:7591|v=4,Shree Garments,https://www.indiamart.com/shree-garments-karur/?pos=15&kwd=swaddler&tags=A||||8706.263|Price|product|||TS|rsf:gd-|-qr_nm:gd|res:RC3|com-cf:nl|ptrs:na|ktp:N0|mc:192827|mtp:S|qry_typ:P|lang:en|wc:1|cs:7591|v=4,False,Vengamedu,Karur,"6, Maruthamuthu Thottam, Opp To Sp Colony, Vengameduvengamedu,, Vengamedu, Karur - 639006, Dist.Karur, Tamil Nadu",7942719649,
Cotton Printed BORN BABY MUSLIN SWADDLE,https://www.indiamart.com/proddetail/born-baby-muslin-swaddle-2851209756133.html?pos=16&kwd=swaddler&tags=BA||||8668.838|Price|product|||TS|rsf:gd-|-qr_nm:gd|res:RC3|com-cf:nl|ptrs:na|ktp:N0|mc:192827|mtp:S|qry_typ:P|lang:en|wc:1|cs:7591|v=4,Ram Textiles,https://www.indiamart.com/ram-textiles/?pos=16&kwd=swaddler&tags=BA||||8668.838|Price|product|||TS|rsf:gd-|-qr_nm:gd|res:RC3|com-cf:nl|ptrs:na|ktp:N0|mc:192827|mtp:S|qry_typ:P|lang:en|wc:1|cs:7591|v=4,False,Veerappanchatram,Erode,"No. 131, M. G. R. Street-1, Veerappanchatram, Veerappanchatram, Erode - 638004, Dist.Erode, Tamil Nadu",8048611846,
Multicolor Baby Cotton Muslin Swaddles,https://www.indiamart.com/proddetail/baby-cotton-muslin-swaddles-2852518940088.html?pos=17&kwd=swaddler&tags=A||||8668.838|Price|product|||MDC|rsf:gd-|-qr_nm:gd|res:RC3|com-cf:nl|ptrs:na|ktp:N0|mc:192827|mtp:S|qry_typ:P|lang:en|wc:1|cs:7591|v=4,Rakshita Exports,https://www.indiamart.com/rakshita-exports/?pos=17&kwd=swaddler&tags=A||||8668.838|Price|product|||MDC|rsf:gd-|-qr_nm:gd|res:RC3|com-cf:nl|ptrs:na|ktp:N0|mc:192827|mtp:S|qry_typ:P|lang:en|wc:1|cs:7591|v=4,False,erode,Erode,"95/1, Bagiya Complex, Nasiyanur Road, Ondikkaranpalayam, erode, Erode - 638107, Dist.Erode, Tamil Nadu",7942708189,
Cotton Simple Soft Swaddles Muslin Fabrics For New Born Baby,https://www.indiamart.com/proddetail/simple-soft-swaddles-muslin-fabrics-for-new-born-baby-15062981048.html?pos=18&kwd=swaddler&tags=A||||8668.838|Price|product|||TS|rsf:gd-|-qr_nm:gd|res:RC3|com-cf:nl|ptrs:na|ktp:N0|mc:192827|mtp:S|qry_typ:P|lang:en|wc:1|cs:7591|v=4,Sri Kalyan Export Private Limited,https://www.organictextileindia.com/?pos=18&kwd=swaddler&tags=A||||8668.838|Price|product|||TS|rsf:gd-|-qr_nm:gd|res:RC3|com-cf:nl|ptrs:na|ktp:N0|mc:192827|mtp:S|qry_typ:P|lang:en|wc:1|cs:7591|v=4,False,Vilarasampatti,Erode,"192/4, Iswarya Garden, Vilarasampatti, Erode - 638107, Dist.Erode, Tamil Nadu",8048974551,
Swaddler,https://www.indiamart.com/proddetail/swaddler-2854328300030.html?pos=19&kwd=swaddler&tags=BA||||8706.263|Price|product|||MDC|rsf:gd-|-qr_nm:gd|res:RC3|com-cf:nl|ptrs:na|ktp:N0|mc:192827|mtp:S|qry_typ:P|lang:en|wc:1|cs:7591|v=4,RKND Traders,https://www.indiamart.com/rknd-traders/?pos=19&kwd=swaddler&tags=BA||||8706.263|Price|product|||MDC|rsf:gd-|-qr_nm:gd|res:RC3|com-cf:nl|ptrs:na|ktp:N0|mc:192827|mtp:S|qry_typ:P|lang:en|wc:1|cs:7591|v=4,False,,Karur,"No.86/66, Mettu Street, Karur - 639001, Dist.Karur, Tamil Nadu",8045730806,
Multicolor Printed Baby Hosiery Cotton Swaddle,https://www.indiamart.com/proddetail/baby-hosiery-cotton-swaddle-2854217596555.html?pos=20&kwd=swaddler&tags=BA||||8228.275|Price|product|||TS|rsf:gd-|-qr_nm:gd|res:RC3|com-cf:nl|ptrs:na|ktp:N0|mc:192827|mtp:S|qry_typ:P|lang:en|wc:1|cs:7591|v=4,King Enterprise,https://www.kingenterpriseindia.com/?pos=20&kwd=swaddler&tags=BA||||8228.275|Price|product|||TS|rsf:gd-|-qr_nm:gd|res:RC3|com-cf:nl|ptrs:na|ktp:N0|mc:192827|mtp:S|qry_typ:P|lang:en|wc:1|cs:7591|v=4,False,Opp. Haripura Bus Stand,Ahmedabad,"Block- E 28, Ground Floor, Abhishek Estate-1, Opp. Haripura Bus Stand, Ahmedabad - 380016, Dist.Ahmedabad, Gujarat",8047632934,
"mix Cotton Organic Muslin Baby Swaddle Wrap, Size: Small",https://www.indiamart.com/proddetail/organic-muslin-baby-swaddle-wrap-2852736202262.html?pos=21&kwd=swaddler&tags=A||||8211.142|Price|product|||TS|rsf:gd-|-qr_nm:gd|res:RC3|com-cf:nl|ptrs:na|ktp:N0|mc:192827|mtp:S|qry_typ:P|lang:en|wc:1|cs:7591|v=4,P For Panda Baby Products Private Limited,https://www.p4pandababyproducts.com/?pos=21&kwd=swaddler&tags=A||||8211.142|Price|product|||TS|rsf:gd-|-qr_nm:gd|res:RC3|com-cf:nl|ptrs:na|ktp:N0|mc:192827|mtp:S|qry_typ:P|lang:en|wc:1|cs:7591|v=4,False,Goregaon West,Mumbai,"904 A Wing,9 Th Floor,Triple S Heights,Jakeria Road, Goregaon West, Mumbai - 400064, Dist.Mumbai, Maharashtra",7942710871,
"KIDOCARE Multicolor Bamboo Cotton Swaddle, 0-18 Months, Size: 120 CM X 110 CM",https://www.indiamart.com/proddetail/bamboo-cotton-swaddle-2849392192262.html?pos=22&kwd=swaddler&tags=A||||8211.142|Price|product|||TS|rsf:gd-|-qr_nm:gd|res:RC3|com-cf:nl|ptrs:na|ktp:N0|mc:192827|mtp:S|qry_typ:P|lang:en|wc:1|cs:7591|v=4,Merayo Egrab LLP,https://www.indiamart.com/merayoegrabllp/?pos=22&kwd=swaddler&tags=A||||8211.142|Price|product|||TS|rsf:gd-|-qr_nm:gd|res:RC3|com-cf:nl|ptrs:na|ktp:N0|mc:192827|mtp:S|qry_typ:P|lang:en|wc:1|cs:7591|v=4,False,Borivali West,Mumbai,"11/9d Saibaba Nagar, Opp Saibaba Garden Eltee Apartment Borivali, Borivali West, Mumbai - 400092, Dist.Mumbai, Maharashtra",7942559613,
"Babymoon Rayon Newborn Baby Swaddle Wrap Photography Prop, 0-3 Months, Size: 152 X 48 X 0.1 cm",https://www.indiamart.com/proddetail/newborn-baby-swaddle-wrap-photography-prop-19518443997.html?pos=23&kwd=swaddler&tags=BA||||8228.275|Price|product|||MDC|rsf:gd-|-qr_nm:gd|res:RC3|com-cf:nl|ptrs:na|ktp:N0|mc:192827|mtp:S|qry_typ:P|lang:en|wc:1|cs:7591|v=4,Dream Works,https://www.indiamart.com/dreamworks-ahmedabad/?pos=23&kwd=swaddler&tags=BA||||8228.275|Price|product|||MDC|rsf:gd-|-qr_nm:gd|res:RC3|com-cf:nl|ptrs:na|ktp:N0|mc:192827|mtp:S|qry_typ:P|lang:en|wc:1|cs:7591|v=4,False,Sanathal,Ahmedabad,"5,Chanakya Bunglows,Nr Lad Society Common Plot,Vastrapur, Sanathal, Ahmedabad - 380054, Dist.Ahmedabad, Gujarat",8047663803,
Muslin Swaddle Blankets,https://www.indiamart.com/proddetail/muslin-swaddle-blankets-2854262216555.html?pos=24&kwd=swaddler&tags=BA||||8706.263|Price|product|||TS|rsf:gd-|-qr_nm:gd|res:RC3|com-cf:nl|ptrs:na|ktp:N0|mc:192827|mtp:S|qry_typ:P|lang:en|wc:1|cs:7591|v=4,L S Textiles And Exports Private Limited,https://www.indiamart.com/lstextiles/?pos=24&kwd=swaddler&tags=BA||||8706.263|Price|product|||TS|rsf:gd-|-qr_nm:gd|res:RC3|com-cf:nl|ptrs:na|ktp:N0|mc:192827|mtp:S|qry_typ:P|lang:en|wc:1|cs:7591|v=4,True,Punnam,Karur,"S.F.No.141/13 South Punnam Village, Pugalur Taluk Palamapuram, Punnam, Karur - 639136, Dist.Karur, Tamil Nadu",8047851645,
Printed Muslin Swaddle,https://www.indiamart.com/proddetail/printed-muslin-swaddle-16107671812.html?pos=25&kwd=swaddler&tags=BA||||8211.142||product|||MDC|rsf:gd-|-qr_nm:gd|res:RC3|com-cf:nl|ptrs:na|ktp:N0|mc:192827|mtp:S|qry_typ:P|lang:en|wc:1|cs:7591|v=4,Padam Kids,https://www.indiamart.com/padam-kids/?pos=25&kwd=swaddler&tags=BA||||8211.142||product|||MDC|rsf:gd-|-qr_nm:gd|res:RC3|com-cf:nl|ptrs:na|ktp:N0|mc:192827|mtp:S|qry_typ:P|lang:en|wc:1|cs:7591|v=4,False,,Mumbai,"CKP Colony, Near Dargah, Behind Dr. Manish Bhatt Eksar Road, Borivali West, Mumbai - 400092, Dist.Mumbai, Maharashtra",8046057613,
Newly Born Printed Muslin Baby Towels,https://www.indiamart.com/proddetail/newly-born-printed-muslin-baby-towels-2855018737030.html?pos=26&kwd=swaddler&tags=B||||8626.744|Price|product|||MDC|rsf:gd-|-qr_nm:gd|res:RC3|com-cf:nl|ptrs:na|ktp:N0|mc:192827|mtp:S|qry_typ:P|lang:en|wc:1|cs:7591|v=4,Bawse Baby,https://www.indiamart.com/bawseebaby/?pos=26&kwd=swaddler&tags=B||||8626.744|Price|product|||MDC|rsf:gd-|-qr_nm:gd|res:RC3|com-cf:nl|ptrs:na|ktp:N0|mc:192827|mtp:S|qry_typ:P|lang:en|wc:1|cs:7591|v=4,False,,Tiruppur,"1/125A Semmetuth Thottam, Kulathuputhur, Andipalayam, Tiruppur - 641687, Dist.Coimbatore, Tamil Nadu",8047552265,
Pink Printed Swaddler,https://www.indiamart.com/proddetail/swaddler-2853762663712.html?pos=27&kwd=swaddler&tags=BA||||8954.051|Price|product|||MDC|rsf:gd-|-qr_nm:gd|res:RC3|com-cf:nl|ptrs:na|ktp:N0|mc:192827|mtp:S|qry_typ:P|lang:en|wc:1|cs:7591|v=4,Mom's Fashion World,https://www.indiamart.com/moms-fashion-world/?pos=27&kwd=swaddler&tags=BA||||8954.051|Price|product|||MDC|rsf:gd-|-qr_nm:gd|res:RC3|com-cf:nl|ptrs:na|ktp:N0|mc:192827|mtp:S|qry_typ:P|lang:en|wc:1|cs:7591|v=4,False,Adyar,Chennai,"10/2 ,12th Street, Bakthavatchallam Nagar,Nanganallur, Adyar, Chennai - 600061, Dist.Chennai, Tamil Nadu",7949091874,
Infants Pamper Swaddler,https://www.indiamart.com/proddetail/infants-pamper-swaddler-2854274518288.html?pos=28&kwd=swaddler&tags=BB||||8752.144|Price|product|||TS|rsf:gd-|-qr_nm:gd|res:RC3|com-cf:nl|ptrs:na|ktp:N0|mc:192827|mtp:S|qry_typ:P|lang:en|wc:1|cs:7591|v=4,Mahi Enterprises,https://www.indiamart.com/mahi-entpdelhi/?pos=28&kwd=swaddler&tags=BB||||8752.144|Price|product|||TS|rsf:gd-|-qr_nm:gd|res:RC3|com-cf:nl|ptrs:na|ktp:N0|mc:192827|mtp:S|qry_typ:P|lang:en|wc:1|cs:7591|v=4,False,Kirari Suleman Nagar,New Delhi,"C-164,Pratap Vihar, Kirari Suleman Nagar, New Delhi - 110085, Dist.Delhi, Delhi",8046042788,
Pink Printed Swaddler Star Sherpa,https://www.indiamart.com/proddetail/swaddler-star-sherpa-23267225191.html?pos=29&kwd=swaddler&tags=BA||||8661.854|Price|product|||TS|rsf:gd-|-qr_nm:gd|res:RC3|com-cf:nl|ptrs:na|ktp:N0|mc:192827|mtp:S|qry_typ:P|lang:en|wc:1|cs:7591|v=4,Aggarwal Creations,https://www.aggarwalcreations.com/?pos=29&kwd=swaddler&tags=BA||||8661.854|Price|product|||TS|rsf:gd-|-qr_nm:gd|res:RC3|com-cf:nl|ptrs:na|ktp:N0|mc:192827|mtp:S|qry_typ:P|lang:en|wc:1|cs:7591|v=4,False,Ramesh Nagar,Ludhiana,"Geeta Nagar, Street No. 7, Tajpur Road, Ramesh Nagar, Ludhiana - 141008, Dist.Ludhiana, Punjab",8048962321,
Cotton Blue Baby Fur Blanket,https://www.indiamart.com/proddetail/baby-fur-blanket-2852672506655.html?pos=30&kwd=swaddler&tags=A||||8661.854|Price|product|||MDC|rsf:gd-|-qr_nm:gd|res:RC3|com-cf:nl|ptrs:na|ktp:N0|mc:192827|mtp:S|qry_typ:P|lang:en|wc:1|cs:7591|v=4,Raj Industries,https://www.indiamart.com/raj-industries-punjab/?pos=30&kwd=swaddler&tags=A||||8661.854|Price|product|||MDC|rsf:gd-|-qr_nm:gd|res:RC3|com-cf:nl|ptrs:na|ktp:N0|mc:192827|mtp:S|qry_typ:P|lang:en|wc:1|cs:7591|v=4,False,,Ludhiana,"H. No B 12 629, Kucha Anayat, Nr Div No 2 Brown Road, Ludhiana - 141008, Dist.Ludhiana, Punjab",7942800347,
Printed Baby Swaddler supplier,https://www.indiamart.com/proddetail/baby-swaddler-supplier-2854848143297.html?pos=31&kwd=swaddler&tags=BB||||8747.203|Price|product|||MDC|rsf:gd-|-qr_nm:gd|res:RC3|com-cf:nl|ptrs:na|ktp:N0|mc:192827|mtp:S|qry_typ:P|lang:en|wc:1|cs:7591|v=4,Delite Home Furnishings,https://www.indiamart.com/delitehomefurnishings/?pos=31&kwd=swaddler&tags=BB||||8747.203|Price|product|||MDC|rsf:gd-|-qr_nm:gd|res:RC3|com-cf:nl|ptrs:na|ktp:N0|mc:192827|mtp:S|qry_typ:P|lang:en|wc:1|cs:7591|v=4,False,Chowk,Panipat,"First Floor, H.No 1629, SEC 11, Near Sai Baba Chowk, Back Side of Pruthi Hospital, NHBC Sector 11, Chowk, Panipat - 132103, Dist.Panipat, Haryana",7942969606,
White Ground One Piece Baby Swaddler Pure Cotton Soft Adjustable Swaddle Wrap/ Envelope Swaddle For Newborn,https://www.indiamart.com/proddetail/pure-cotton-soft-adjustable-swaddle-wrap-envelope-swaddle-for-newborn-23147807488.html?pos=32&kwd=swaddler&tags=BA||||8778.123|Price|product|||TS|rsf:gd-|-qr_nm:gd|res:RC3|com-cf:nl|ptrs:na|ktp:N0|mc:192827|mtp:S|qry_typ:P|lang:en|wc:1|cs:7591|v=4,Oscar Overseas,https://www.oscar-india.com/?pos=32&kwd=swaddler&tags=BA||||8778.123|Price|product|||TS|rsf:gd-|-qr_nm:gd|res:RC3|com-cf:nl|ptrs:na|ktp:N0|mc:192827|mtp:S|qry_typ:P|lang:en|wc:1|cs:7591|v=4,False,,Noida,"A-99 Sector 5, Noida - 201301, Dist.Gautam Budh Nagar, Uttar Pradesh",8046058290,
Multicolor Printed Baby Muslin Swaddles,https://www.indiamart.com/proddetail/baby-swaddle-wrap-2854720231197.html?pos=33&kwd=swaddler&tags=BA||||8954.051|Price|product|||MDC|rsf:gd-|-qr_nm:gd|res:RC3|com-cf:nl|ptrs:na|ktp:N0|mc:192827|mtp:S|qry_typ:P|lang:en|wc:1|cs:7591|v=4,Tender Babe,https://www.indiamart.com/tenderbabe-chennai/?pos=33&kwd=swaddler&tags=BA||||8954.051|Price|product|||MDC|rsf:gd-|-qr_nm:gd|res:RC3|com-cf:nl|ptrs:na|ktp:N0|mc:192827|mtp:S|qry_typ:P|lang:en|wc:1|cs:7591|v=4,False,Tiruvallur,Chennai,"196/2A, Annai Teresa Street, Kavarapalayam Main Road,, Siranjivi Nagar, Avadi,, Tiruvallur, Chennai - 600054, Dist.Chennai, Tamil Nadu",7949323914,
Cartoon Print Baby Swaddler Blanket,https://www.indiamart.com/proddetail/cartoon-print-baby-swaddler-blanket-2853723074573.html?pos=34&kwd=swaddler&tags=BA||||9097.53|Price|product|||TS|rsf:gd-|-qr_nm:gd|res:RC3|com-cf:nl|ptrs:na|ktp:N0|mc:192827|mtp:S|qry_typ:P|lang:en|wc:1|cs:7591|v=4,My Bear Hugs,https://www.indiamart.com/bear-hugs/?pos=34&kwd=swaddler&tags=BA||||9097.53|Price|product|||TS|rsf:gd-|-qr_nm:gd|res:RC3|com-cf:nl|ptrs:na|ktp:N0|mc:192827|mtp:S|qry_typ:P|lang:en|wc:1|cs:7591|v=4,False,,Fatehpur,"44/38,,CHAUDHARANA,Fatehpur Ist Floor 44/38 Chaudharana,212601,, Fatehpur - 212601, Uttar Pradesh",,
Multicolor 1 Pc 120x120 Cm Baby Swaddle,https://www.indiamart.com/proddetail/baby-swaddle-22405004812.html?pos=35&kwd=swaddler&tags=BA||||8799.744|Price|product|||TS|rsf:gd-|-qr_nm:gd|res:RC3|com-cf:nl|ptrs:na|ktp:N0|mc:192827|mtp:S|qry_typ:P|lang:en|wc:1|cs:7591|v=4,National Fashion,https://www.indiamart.com/nationalfashion-uttarpradesh/?pos=35&kwd=swaddler&tags=BA||||8799.744|Price|product|||TS|rsf:gd-|-qr_nm:gd|res:RC3|com-cf:nl|ptrs:na|ktp:N0|mc:192827|mtp:S|qry_typ:P|lang:en|wc:1|cs:7591|v=4,False,Bank Colony,Modinagar,"95, Bank Colony, Bank Colony, Modinagar - 201204, Dist.Ghaziabad, Uttar Pradesh",8048963005,
Hand Block Printed Swaddle For baby,https://www.indiamart.com/proddetail/hand-block-printed-swaddle-for-baby-20825564748.html?pos=36&kwd=swaddler&tags=BB||||8601.347|Price|product|||TS|rsf:gd-|-qr_nm:gd|res:RC3|com-cf:nl|ptrs:na|ktp:N0|mc:192827|mtp:S|qry_typ:P|lang:en|wc:1|cs:7591|v=4,Myyra,https://www.indiamart.com/myyra-jaipur/?pos=36&kwd=swaddler&tags=BB||||8601.347|Price|product|||TS|rsf:gd-|-qr_nm:gd|res:RC3|com-cf:nl|ptrs:na|ktp:N0|mc:192827|mtp:S|qry_typ:P|lang:en|wc:1|cs:7591|v=4,False,Barh Shyopur,Jaipur,"E-966, 3rd Phase, RIICO, Barh Shyopur, Jaipur - 302022, Dist.Jaipur, Rajasthan",8046071280,
"DVK Handicraft 100% Cotton Handmade Baby Quilt, Size: 40x40 Inch,40x60",https://www.indiamart.com/proddetail/handmade-baby-quilt-19129799330.html?pos=37&kwd=swaddler&tags=BA||||8601.347|Price|product|||TS|rsf:gd-|-qr_nm:gd|res:RC3|com-cf:nl|ptrs:na|ktp:N0|mc:192827|mtp:S|qry_typ:P|lang:en|wc:1|cs:7591|v=4,DVK Handicraft Private Limited,https://www.dvkhandicraft.net/?pos=37&kwd=swaddler&tags=BA||||8601.347|Price|product|||TS|rsf:gd-|-qr_nm:gd|res:RC3|com-cf:nl|ptrs:na|ktp:N0|mc:192827|mtp:S|qry_typ:P|lang:en|wc:1|cs:7591|v=4,True,Vaishali Nagar,Jaipur,"B-24, Ground Floor Lalrpura Aayodhya Nagar Vaisha Gandhi Path, Vaishali Nagar, Vaishali Nagar, Jaipur - 302021, Dist.Jaipur, Rajasthan",8048608928,
White Printed Baby Muslin Swaddles,https://www.indiamart.com/proddetail/baby-muslin-swaddles-2853905633397.html?pos=38&kwd=swaddler&tags=BA||||8226.563|Price|product|||MDC|rsf:gd-|-qr_nm:gd|res:RC3|com-cf:nl|ptrs:na|ktp:N0|mc:192827|mtp:S|qry_typ:P|lang:en|wc:1|cs:7591|v=4,Vanbon Clothing Co.,https://www.indiamart.com/vanbon-clothing-co/?pos=38&kwd=swaddler&tags=BA||||8226.563|Price|product|||MDC|rsf:gd-|-qr_nm:gd|res:RC3|com-cf:nl|ptrs:na|ktp:N0|mc:192827|mtp:S|qry_typ:P|lang:en|wc:1|cs:7591|v=4,False,Vashi (Thane),Navi Mumbai,"1st Floor Ofice No.16, Plot No.73, D Wing Vallabh Bhai Patel Marg, Vashi (Thane), Navi Mumbai - 400703, Dist.Thane, Maharashtra",8044012603,
STRAWBERRY HOSIERY SWADDLE,https://www.indiamart.com/proddetail/strawberry-hosiery-swaddle-2854301478933.html?pos=39&kwd=swaddler&tags=BA||||8307.81|Price|product|||MDC|rsf:gd-|-qr_nm:gd|res:RC3|com-cf:nl|ptrs:na|ktp:N0|mc:192827|mtp:S|qry_typ:P|lang:en|wc:1|cs:7591|v=4,Tabaria Baby Mall,https://www.indiamart.com/tabaria-baby-mallpune/?pos=39&kwd=swaddler&tags=BA||||8307.81|Price|product|||MDC|rsf:gd-|-qr_nm:gd|res:RC3|com-cf:nl|ptrs:na|ktp:N0|mc:192827|mtp:S|qry_typ:P|lang:en|wc:1|cs:7591|v=4,False,Raviwar Peth,Pune,"1088,Manish Market,Raviwar Peth, Raviwar Peth, Pune - 411002, Dist.Pune, Maharashtra",7949092418,
Blue Printed Organic Cotton Baby Swaddle,https://www.indiamart.com/proddetail/organic-cotton-baby-swaddle-2854383935855.html?pos=40&kwd=swaddler&tags=BB||||8954.051|Price|product|||MDC|rsf:gd-|-qr_nm:gd|res:RC3|com-cf:nl|ptrs:na|ktp:N0|mc:192827|mtp:S|qry_typ:P|lang:en|wc:1|cs:7591|v=4,Earthwise Collective Private Limited,https://www.indiamart.com/earthwise-collective/?pos=40&kwd=swaddler&tags=BB||||8954.051|Price|product|||MDC|rsf:gd-|-qr_nm:gd|res:RC3|com-cf:nl|ptrs:na|ktp:N0|mc:192827|mtp:S|qry_typ:P|lang:en|wc:1|cs:7591|v=4,False,,Chennai,"9/2, 35/2, Bagirathiammal Street, T Nagar,, Chennai - 600017, Dist.Chennai, Tamil Nadu",7942801118,
"Tinynest Baby Swaddle Pack Of 1,2,3 Available",https://www.indiamart.com/proddetail/tinynest-baby-swaddle-pack-of-1-2-3-available-2853236067112.html?pos=41&kwd=swaddler&tags=BA||||8230.883|Price|product|||MDC|rsf:gd-|-qr_nm:gd|res:RC3|com-cf:nl|ptrs:na|ktp:N0|mc:192827|mtp:S|qry_typ:P|lang:en|wc:1|cs:7591|v=4,Jay Impex,https://www.indiamart.com/jayimpexsurat/?pos=41&kwd=swaddler&tags=BA||||8230.883|Price|product|||MDC|rsf:gd-|-qr_nm:gd|res:RC3|com-cf:nl|ptrs:na|ktp:N0|mc:192827|mtp:S|qry_typ:P|lang:en|wc:1|cs:7591|v=4,False,Athwa,Surat,"1st Floor, 77, Narmad Nagar Soc, Hirabaug,, Athwa, Surat - 395006, Dist.Surat, Gujarat",7942713335,
"White Printed Baby Cotton Muslin Swaddle, Size: Singe",https://www.indiamart.com/proddetail/baby-cotton-muslin-swaddle-2850900517748.html?pos=42&kwd=swaddler&tags=BA||||8717.363|Price|product|||TS|rsf:gd-|-qr_nm:gd|res:RC3|com-cf:nl|ptrs:na|ktp:N0|mc:192827|mtp:S|qry_typ:P|lang:en|wc:1|cs:7591|v=4,Hublot Impex,https://www.hublotimpex.in/?pos=42&kwd=swaddler&tags=BA||||8717.363|Price|product|||TS|rsf:gd-|-qr_nm:gd|res:RC3|com-cf:nl|ptrs:na|ktp:N0|mc:192827|mtp:S|qry_typ:P|lang:en|wc:1|cs:7591|v=4,False,Swamy Nagar,Namakkal,"Second Floor 3/227e5/2d West Street, Nalipalayam Bypass Road K J Complex Nallipalayam, Swamy Nagar, Namakkal - 637003, Dist.Namakkal, Tamil Nadu",8048600000,
Hand Block Printed Swaddle For baby,https://www.indiamart.com/proddetail/hand-block-printed-swaddle-for-baby-20825564748.html?pos=43&kwd=swaddler&tags=BB||||8601.347|Price|product|||TS|rsf:gd-|-qr_nm:gd|res:RC3|com-cf:nl|ptrs:na|ktp:N0|mc:192827|mtp:S|qry_typ:P|lang:en|wc:1|cs:7591|v=4,Myyra,https://www.indiamart.com/myyra-jaipur/?pos=43&kwd=swaddler&tags=BB||||8601.347|Price|product|||TS|rsf:gd-|-qr_nm:gd|res:RC3|com-cf:nl|ptrs:na|ktp:N0|mc:192827|mtp:S|qry_typ:P|lang:en|wc:1|cs:7591|v=4,False,Barh Shyopur,Jaipur,"E-966, 3rd Phase, RIICO, Barh Shyopur, Jaipur - 302022, Dist.Jaipur, Rajasthan",8046071280,
"DVK Handicraft 100% Cotton Handmade Baby Quilt, Size: 40x40 Inch,40x60",https://www.indiamart.com/proddetail/handmade-baby-quilt-19129799330.html?pos=44&kwd=swaddler&tags=BA||||8601.347|Price|product|||TS|rsf:gd-|-qr_nm:gd|res:RC3|com-cf:nl|ptrs:na|ktp:N0|mc:192827|mtp:S|qry_typ:P|lang:en|wc:1|cs:7591|v=4,DVK Handicraft Private Limited,https://www.dvkhandicraft.net/?pos=44&kwd=swaddler&tags=BA||||8601.347|Price|product|||TS|rsf:gd-|-qr_nm:gd|res:RC3|com-cf:nl|ptrs:na|ktp:N0|mc:192827|mtp:S|qry_typ:P|lang:en|wc:1|cs:7591|v=4,True,Vaishali Nagar,Jaipur,"B-24, Ground Floor Lalrpura Aayodhya Nagar Vaisha Gandhi Path, Vaishali Nagar, Vaishali Nagar, Jaipur - 302021, Dist.Jaipur, Rajasthan",8048608928,
White Printed Baby Muslin Swaddles,https://www.indiamart.com/proddetail/baby-muslin-swaddles-2853905633397.html?pos=45&kwd=swaddler&tags=BA||||8226.563|Price|product|||MDC|rsf:gd-|-qr_nm:gd|res:RC3|com-cf:nl|ptrs:na|ktp:N0|mc:192827|mtp:S|qry_typ:P|lang:en|wc:1|cs:7591|v=4,Vanbon Clothing Co.,https://www.indiamart.com/vanbon-clothing-co/?pos=45&kwd=swaddler&tags=BA||||8226.563|Price|product|||MDC|rsf:gd-|-qr_nm:gd|res:RC3|com-cf:nl|ptrs:na|ktp:N0|mc:192827|mtp:S|qry_typ:P|lang:en|wc:1|cs:7591|v=4,False,Vashi (Thane),Navi Mumbai,"1st Floor Ofice No.16, Plot No.73, D Wing Vallabh Bhai Patel Marg, Vashi (Thane), Navi Mumbai - 400703, Dist.Thane, Maharashtra",8044012603,
STRAWBERRY HOSIERY SWADDLE,https://www.indiamart.com/proddetail/strawberry-hosiery-swaddle-2854301478933.html?pos=46&kwd=swaddler&tags=BA||||8307.81|Price|product|||MDC|rsf:gd-|-qr_nm:gd|res:RC3|com-cf:nl|ptrs:na|ktp:N0|mc:192827|mtp:S|qry_typ:P|lang:en|wc:1|cs:7591|v=4,Tabaria Baby Mall,https://www.indiamart.com/tabaria-baby-mallpune/?pos=46&kwd=swaddler&tags=BA||||8307.81|Price|product|||MDC|rsf:gd-|-qr_nm:gd|res:RC3|com-cf:nl|ptrs:na|ktp:N0|mc:192827|mtp:S|qry_typ:P|lang:en|wc:1|cs:7591|v=4,False,Raviwar Peth,Pune,"1088,Manish Market,Raviwar Peth, Raviwar Peth, Pune - 411002, Dist.Pune, Maharashtra",7949092418,
Blue Printed Organic Cotton Baby Swaddle,https://www.indiamart.com/proddetail/organic-cotton-baby-swaddle-2854383935855.html?pos=47&kwd=swaddler&tags=BB||||8954.051|Price|product|||MDC|rsf:gd-|-qr_nm:gd|res:RC3|com-cf:nl|ptrs:na|ktp:N0|mc:192827|mtp:S|qry_typ:P|lang:en|wc:1|cs:7591|v=4,Earthwise Collective Private Limited,https://www.indiamart.com/earthwise-collective/?pos=47&kwd=swaddler&tags=BB||||8954.051|Price|product|||MDC|rsf:gd-|-qr_nm:gd|res:RC3|com-cf:nl|ptrs:na|ktp:N0|mc:192827|mtp:S|qry_typ:P|lang:en|wc:1|cs:7591|v=4,False,,Chennai,"9/2, 35/2, Bagirathiammal Street, T Nagar,, Chennai - 600017, Dist.Chennai, Tamil Nadu",7942801118,
"Tinynest Baby Swaddle Pack Of 1,2,3 Available",https://www.indiamart.com/proddetail/tinynest-baby-swaddle-pack-of-1-2-3-available-2853236067112.html?pos=48&kwd=swaddler&tags=BA||||8230.883|Price|product|||MDC|rsf:gd-|-qr_nm:gd|res:RC3|com-cf:nl|ptrs:na|ktp:N0|mc:192827|mtp:S|qry_typ:P|lang:en|wc:1|cs:7591|v=4,Jay Impex,https://www.indiamart.com/jayimpexsurat/?pos=48&kwd=swaddler&tags=BA||||8230.883|Price|product|||MDC|rsf:gd-|-qr_nm:gd|res:RC3|com-cf:nl|ptrs:na|ktp:N0|mc:192827|mtp:S|qry_typ:P|lang:en|wc:1|cs:7591|v=4,False,Athwa,Surat,"1st Floor, 77, Narmad Nagar Soc, Hirabaug,, Athwa, Surat - 395006, Dist.Surat, Gujarat",7942713335,
"Babymoon Rayon Newborn Baby Swaddle Wrap Photography Prop, 0-3 Months, Size: 152 X 48 X 0.1 cm",https://www.indiamart.com/proddetail/newborn-baby-swaddle-wrap-photography-prop-19518443997.html?pos=49&kwd=swaddler&tags=BA||||8228.275|Price|product|||MDC|rsf:gd-|-qr_nm:gd|res:RC3|com-cf:nl|ptrs:na|ktp:N0|mc:192827|mtp:S|qry_typ:P|lang:en|wc:1|cs:7591|v=4,Dream Works,https://www.indiamart.com/dreamworks-ahmedabad/?pos=49&kwd=swaddler&tags=BA||||8228.275|Price|product|||MDC|rsf:gd-|-qr_nm:gd|res:RC3|com-cf:nl|ptrs:na|ktp:N0|mc:192827|mtp:S|qry_typ:P|lang:en|wc:1|cs:7591|v=4,False,Sanathal,Ahmedabad,"5,Chanakya Bunglows,Nr Lad Society Common Plot,Vastrapur, Sanathal, Ahmedabad - 380054, Dist.Ahmedabad, Gujarat",8047663803,
"White Printed Baby Cotton Muslin Swaddle, Size: Singe",https://www.indiamart.com/proddetail/baby-cotton-muslin-swaddle-2850900517748.html?pos=50&kwd=swaddler&tags=BA||||8717.363|Price|product|||TS|rsf:gd-|-qr_nm:gd|res:RC3|com-cf:nl|ptrs:na|ktp:N0|mc:192827|mtp:S|qry_typ:P|lang:en|wc:1|cs:7591|v=4,Hublot Impex,https://www.hublotimpex.in/?pos=50&kwd=swaddler&tags=BA||||8717.363|Price|product|||TS|rsf:gd-|-qr_nm:gd|res:RC3|com-cf:nl|ptrs:na|ktp:N0|mc:192827|mtp:S|qry_typ:P|lang:en|wc:1|cs:7591|v=4,False,Swamy Nagar,Namakkal,"Second Floor 3/227e5/2d West Street, Nalipalayam Bypass Road K J Complex Nallipalayam, Swamy Nagar, Namakkal - 637003, Dist.Namakkal, Tamil Nadu",8048600000,
Muslin Multicolor Baby Swaddle Wrap,https://www.indiamart.com/proddetail/baby-swaddle-wrap-2853640727655.html?pos=51&kwd=swaddler&tags=BA||||8706.263|Price|product|||TS|rsf:gd-|-qr_nm:gd|res:RC3|com-cf:nl|ptrs:na|ktp:N0|mc:192827|mtp:S|qry_typ:P|lang:en|wc:1|cs:7591|v=4,Bowerbird Interios,https://www.organicfabricmanufacturer.com/?pos=51&kwd=swaddler&tags=BA||||8706.263|Price|product|||TS|rsf:gd-|-qr_nm:gd|res:RC3|com-cf:nl|ptrs:na|ktp:N0|mc:192827|mtp:S|qry_typ:P|lang:en|wc:1|cs:7591|v=4,False,Ramanujam Nagar,Karur,"1/137, Covai Road South, Ramanujam Nagar, Karur - 639002, Dist.Karur, Tamil Nadu",8048971552,
"Cotton Blue Baby Swaddles Blanket Wrap, Size: Medium",https://www.indiamart.com/proddetail/baby-swaddles-blanket-wrap-2851261763097.html?pos=52&kwd=swaddler&tags=BA||||8211.142||product|||TS|rsf:gd-|-qr_nm:gd|res:RC3|com-cf:nl|ptrs:na|ktp:N0|mc:192827|mtp:S|qry_typ:P|lang:en|wc:1|cs:7591|v=4,Mansvi Artts,https://www.indiamart.com/mansvi-artts/?pos=52&kwd=swaddler&tags=BA||||8211.142||product|||TS|rsf:gd-|-qr_nm:gd|res:RC3|com-cf:nl|ptrs:na|ktp:N0|mc:192827|mtp:S|qry_typ:P|lang:en|wc:1|cs:7591|v=4,False,Malad East,Mumbai,"Room No.39 Kurar Village Sai Darshan Niwas, Shiv Shakti Colony, Malad East, Mumbai - 400097, Dist.Mumbai, Maharashtra",8047551199,
Gray Cotton Newborn Baby Swaddle Wrap,https://www.indiamart.com/proddetail/newborn-baby-swaddle-wrap-2849909944412.html?pos=53&kwd=swaddler&tags=BA||||8601.347|Price|product|||TS|rsf:gd-|-qr_nm:gd|res:RC3|com-cf:nl|ptrs:na|ktp:N0|mc:192827|mtp:S|qry_typ:P|lang:en|wc:1|cs:7591|v=4,Vandana Handicraft,https://www.vandanahandicraft.net/?pos=53&kwd=swaddler&tags=BA||||8601.347|Price|product|||TS|rsf:gd-|-qr_nm:gd|res:RC3|com-cf:nl|ptrs:na|ktp:N0|mc:192827|mtp:S|qry_typ:P|lang:en|wc:1|cs:7591|v=4,True,Sitapura Industrial Area,Jaipur,"Plot No. H-1167, Sitapura Industrial Area, Phase III, Sitapura Industrial Area, Jaipur - 302022, Dist.Jaipur, Rajasthan",8046049036,
THE OLLIE BABY SWADDLES,https://www.indiamart.com/proddetail/the-ollie-baby-swaddles-2850261538862.html?pos=54&kwd=swaddler&tags=BA||||8626.744|Price|product|||TS|rsf:gd-|-qr_nm:gd|res:RC3|com-cf:nl|ptrs:na|ktp:N0|mc:192827|mtp:S|qry_typ:P|lang:en|wc:1|cs:7591|v=4,Sree Raj Kondal Export Enterprises,https://www.indiamart.com/sreerajkondalexportenterprises/?pos=54&kwd=swaddler&tags=BA||||8626.744|Price|product|||TS|rsf:gd-|-qr_nm:gd|res:RC3|com-cf:nl|ptrs:na|ktp:N0|mc:192827|mtp:S|qry_typ:P|lang:en|wc:1|cs:7591|v=4,False,Gandhi Nagar,Tiruppur,"8/191 E, A V P Layout, Angeripalayam, Gandhi Nagar, Tiruppur - 641603, Dist.Coimbatore, Tamil Nadu",8043890249,
"Cotton White Baby Swaddle Wrap, Size: Medium",https://www.indiamart.com/proddetail/baby-swaddle-wrap-2853100102555.html?pos=55&kwd=swaddler&tags=BA||||8734.695|Price|product|||TS|rsf:gd-|-qr_nm:gd|res:RC3|com-cf:nl|ptrs:na|ktp:N0|mc:192827|mtp:S|qry_typ:P|lang:en|wc:1|cs:7591|v=4,Welcome Polymers India Private Limited,https://www.welcomepolymers.com/?pos=55&kwd=swaddler&tags=BA||||8734.695|Price|product|||TS|rsf:gd-|-qr_nm:gd|res:RC3|com-cf:nl|ptrs:na|ktp:N0|mc:192827|mtp:S|qry_typ:P|lang:en|wc:1|cs:7591|v=4,False,Sector 17,Bahadurgarh,"Plot No.270, Sector 17, Sector 17, Bahadurgarh - 124507, Dist.Jhajjar, Haryana",8048986357,
Cotton Muslin baby Swaddle Blanket Printed with appropriate baby prints,https://www.indiamart.com/proddetail/cotton-muslin-baby-swaddle-blanket-printed-with-appropriate-baby-prints-2851877901212.html?pos=56&kwd=swaddler&tags=BA||||8668.838|Price|product|||TS|rsf:gd-|-qr_nm:gd|res:RC3|com-cf:nl|ptrs:na|ktp:N0|mc:192827|mtp:S|qry_typ:P|lang:en|wc:1|cs:7591|v=4,Manish Mills,https://www.manishmills.in/?pos=56&kwd=swaddler&tags=BA||||8668.838|Price|product|||TS|rsf:gd-|-qr_nm:gd|res:RC3|com-cf:nl|ptrs:na|ktp:N0|mc:192827|mtp:S|qry_typ:P|lang:en|wc:1|cs:7591|v=4,False,Erode Fort,Erode,"Suki Towers, No. 261, Easwaran Koil Street, Erode Fort, Erode - 638001, Dist.Erode, Tamil Nadu",8048961063,
"White Cotton Muslin Baby Swaddles, Size: Singe",https://www.indiamart.com/proddetail/cotton-muslin-baby-swaddles-2851759300348.html?pos=57&kwd=swaddler&tags=BA||||8668.838|Price|product|||TS|rsf:gd-|-qr_nm:gd|res:RC3|com-cf:nl|ptrs:na|ktp:N0|mc:192827|mtp:S|qry_typ:P|lang:en|wc:1|cs:7591|v=4,Jain Company Exports,https://www.indianweavingmills.com/?pos=57&kwd=swaddler&tags=BA||||8668.838|Price|product|||TS|rsf:gd-|-qr_nm:gd|res:RC3|com-cf:nl|ptrs:na|ktp:N0|mc:192827|mtp:S|qry_typ:P|lang:en|wc:1|cs:7591|v=4,False,Karungalpalayam,Erode,"Door No. 24-25, Mosikirnar Street, Indra Nagar, Karungalpalayam, Erode - 638003, Dist.Erode, Tamil Nadu",7942547594,
"Blue,Pink Newborn Baby Cotton Wrappers, Size: Small",https://www.indiamart.com/proddetail/newborn-baby-cotton-wrappers-2853262387212.html?pos=58&kwd=swaddler&tags=BB||||8752.144|Price|product|||MDC|rsf:gd-|-qr_nm:gd|res:RC3|com-cf:nl|ptrs:na|ktp:N0|mc:192827|mtp:S|qry_typ:P|lang:en|wc:1|cs:7591|v=4,A.D. Enterprises,https://www.indiamart.com/adenterprises-burari-newdelhi/?pos=58&kwd=swaddler&tags=BB||||8752.144|Price|product|||MDC|rsf:gd-|-qr_nm:gd|res:RC3|com-cf:nl|ptrs:na|ktp:N0|mc:192827|mtp:S|qry_typ:P|lang:en|wc:1|cs:7591|v=4,False,North,New Delhi,"K.No-12/1, Main 25 FT. Road, Near Shyam Sweets, Uttranchal Enclave ,Kamal Pur, Burari, North, New Delhi - 110084, Dist.Delhi, Delhi",8044565004,
"Size: Single Cotton Baby Swaddle Sheet, For Home, Cream",https://www.indiamart.com/proddetail/baby-swaddle-sheet-2853263250773.html?pos=59&kwd=swaddler&tags=BA||||8559.269||product|||MDC|rsf:gd-|-qr_nm:gd|res:RC3|com-cf:nl|ptrs:na|ktp:N0|mc:192827|mtp:S|qry_typ:P|lang:en|wc:1|cs:7591|v=4,Sugan Overseas,https://www.indiamart.com/sugan-overseas/?pos=59&kwd=swaddler&tags=BA||||8559.269||product|||MDC|rsf:gd-|-qr_nm:gd|res:RC3|com-cf:nl|ptrs:na|ktp:N0|mc:192827|mtp:S|qry_typ:P|lang:en|wc:1|cs:7591|v=4,False,Sukhlia,Indore,"414/20, Agrawal Compound, Khatipura, Sukhliya, Sukhlia, Indore - 452010, Dist.Indore, Madhya Pradesh",7942625794,
"White Baby Swaddle Wrap, Size: Medium",https://www.indiamart.com/proddetail/baby-swaddle-wrap-2853184895962.html?pos=60&kwd=swaddler&tags=BA||||8413.825|Price|product|||MDC|rsf:gd-|-qr_nm:gd|res:RC3|com-cf:nl|ptrs:na|ktp:N0|mc:192827|mtp:S|qry_typ:P|lang:en|wc:1|cs:7591|v=4,Urban Hive,https://www.indiamart.com/urbanhive/?pos=60&kwd=swaddler&tags=BA||||8413.825|Price|product|||MDC|rsf:gd-|-qr_nm:gd|res:RC3|com-cf:nl|ptrs:na|ktp:N0|mc:192827|mtp:S|qry_typ:P|lang:en|wc:1|cs:7591|v=4,False,Vidya Nagar,Hubli,"First Floor, 26/3549/B, Ramakrishna Layout, Near Shirur Park, More Supermarket, Ramakrishna ,Dharwad, Vidya Nagar, Hubli - 580031, Dist.Dharwad, Karnataka",7942962352,
Baby Flannel Flat Sheets,https://www.indiamart.com/proddetail/baby-flannel-flat-sheets-13442227655.html?pos=61&kwd=swaddler&tags=BA||||8559.269|Price|product|||MDC|rsf:gd-|-qr_nm:gd|res:RC3|com-cf:nl|ptrs:na|ktp:N0|mc:192827|mtp:S|qry_typ:P|lang:en|wc:1|cs:7591|v=4,Navkar Textiles,https://www.indiamart.com/navkartextilesindore/?pos=61&kwd=swaddler&tags=BA||||8559.269|Price|product|||MDC|rsf:gd-|-qr_nm:gd|res:RC3|com-cf:nl|ptrs:na|ktp:N0|mc:192827|mtp:S|qry_typ:P|lang:en|wc:1|cs:7591|v=4,False,Shivaji Nagar,Indore,"No. 339, Shivaji Nagar, Behind Hukumchand Mill, Shivaji Nagar, Indore - 452003, Dist.Indore, Madhya Pradesh",8046069243,
Taruna Tex,,Taruna Tex,https://www.indiamart.com/taruna-tex-karur/?pos=62&kwd=swaddler&tags=A||||8706.263||bl|||TS|rsf:gd-|-qr_nm:gd|res:RC3|com-cf:nl|ptrs:na|ktp:N0|mc:192827|mtp:S|qry_typ:P|lang:en|wc:1|cs:7591|v=4,True,Veluswamypuram,Karur,"137, Nanthavana Street, Velusamypuram IV Cross, Andankoil West, Veluswamypuram, Karur - 639002, Dist.Karur, Tamil Nadu",7942874999,
Verma Enterprises,,Verma Enterprises,https://www.styaloindia.com/?pos=63&kwd=swaddler&tags=A||||8752.144||bl|||TS|rsf:gd-|-qr_nm:gd|res:RC3|com-cf:nl|ptrs:na|ktp:N0|mc:192827|mtp:S|qry_typ:P|lang:en|wc:1|cs:7591|v=4,False,Samaypur,New Delhi,"Plot No.180/1-B, Kh.No. 955/1, 1st, Block-C, Raja Vihar, Siraspur, Badli, North West Delhi, Samaypur, New Delhi - 110042, Dist.Delhi, Delhi",8047654672,
Taruna Tex,,Taruna Tex,https://www.indiamart.com/taruna-tex-karur/?pos=64&kwd=swaddler&tags=A||||8706.263||bl|||TS|rsf:gd-|-qr_nm:gd|res:RC3|com-cf:nl|ptrs:na|ktp:N0|mc:192827|mtp:S|qry_typ:P|lang:en|wc:1|cs:7591|v=4,True,Veluswamypuram,Karur,"137, Nanthavana Street, Velusamypuram IV Cross, Andankoil West, Veluswamypuram, Karur - 639002, Dist.Karur, Tamil Nadu",7942874999,
Verma Enterprises,,Verma Enterprises,https://www.styaloindia.com/?pos=65&kwd=swaddler&tags=A||||8752.144||bl|||TS|rsf:gd-|-qr_nm:gd|res:RC3|com-cf:nl|ptrs:na|ktp:N0|mc:192827|mtp:S|qry_typ:P|lang:en|wc:1|cs:7591|v=4,False,Samaypur,New Delhi,"Plot No.180/1-B, Kh.No. 955/1, 1st, Block-C, Raja Vihar, Siraspur, Badli, North West Delhi, Samaypur, New Delhi - 110042, Dist.Delhi, Delhi",8047654672,
Aara Exports,,Aara Exports,https://www.indiamart.com/aara-exports-erode/?pos=66&kwd=swaddler&tags=BA||||8668.838||bl|||TS|rsf:gd-|-qr_nm:gd|res:RC3|com-cf:nl|ptrs:na|ktp:N0|mc:192827|mtp:S|qry_typ:P|lang:en|wc:1|cs:7591|v=4,False,Karungalpalayam,Erode,"193/4, Ramamoorthi Nagar, Karungalpalayam, Karungalpalayam, Erode - 638003, Dist.Erode, Tamil Nadu",7949372457,
Aara Exports,,Aara Exports,https://www.indiamart.com/aara-exports-erode/?pos=67&kwd=swaddler&tags=BA||||8668.838||bl|||TS|rsf:gd-|-qr_nm:gd|res:RC3|com-cf:nl|ptrs:na|ktp:N0|mc:192827|mtp:S|qry_typ:P|lang:en|wc:1|cs:7591|v=4,False,Karungalpalayam,Erode,"193/4, Ramamoorthi Nagar, Karungalpalayam, Karungalpalayam, Erode - 638003, Dist.Erode, Tamil Nadu",7949372457,
3 Pieces White (Base) 100% Cotton Baby Muslin Swaddle Cloth,https://www.indiamart.com/proddetail/100-cotton-baby-muslin-swaddle-cloth-23697152362.html?pos=68&kwd=swaddler&tags=BB||||8663.873|Price|product|||NA|rsf:gd-|-qr_nm:gd|res:RC3|com-cf:nl|ptrs:na|ktp:N0|mc:192827|mtp:S|qry_typ:P|lang:en|wc:1|cs:7591|v=4,Easyfaind,https://www.indiamart.com/easyfaind/?pos=68&kwd=swaddler&tags=BB||||8663.873|Price|product|||NA|rsf:gd-|-qr_nm:gd|res:RC3|com-cf:nl|ptrs:na|ktp:N0|mc:192827|mtp:S|qry_typ:P|lang:en|wc:1|cs:7591|v=4,False,Maratalli,Bengaluru,"986, 2nd Cross Road, 7th Main Road, Tulasi Theatre Road Chowdeshwari Layout, Maratalli, North Urban, Maratalli, Bengaluru - 560037, Dist.Bengaluru, Karnataka",8047623471,
"Woolen Printed Fancy Baby Swaddle, Packaging Type: Polythene Bag",https://www.indiamart.com/proddetail/fancy-baby-swaddle-21518413612.html?pos=69&kwd=swaddler&tags=A||||8661.854|Price|product|||NA|rsf:gd-|-qr_nm:gd|res:RC3|com-cf:nl|ptrs:na|ktp:N0|mc:192827|mtp:S|qry_typ:P|lang:en|wc:1|cs:7591|v=4,Sai Trading Company,https://www.indiamart.com/sai-trading-company/?pos=69&kwd=swaddler&tags=A||||8661.854|Price|product|||NA|rsf:gd-|-qr_nm:gd|res:RC3|com-cf:nl|ptrs:na|ktp:N0|mc:192827|mtp:S|qry_typ:P|lang:en|wc:1|cs:7591|v=4,False,Naya Mohalla,Ludhiana,"139-B-Viii, Mochpura Bazar, Naya Mohalla, Ludhiana - 141008, Dist.Ludhiana, Punjab",8046057087,
L T Textiles,,L T Textiles,https://www.indiamart.com/lttextiles/?pos=70&kwd=swaddler&tags=BA||||8752.144||bl|||MDC|rsf:gd-|-qr_nm:gd|res:RC3|com-cf:nl|ptrs:na|ktp:N0|mc:192827|mtp:S|qry_typ:P|lang:en|wc:1|cs:7591|v=4,False,Pahari Dhiraj,New Delhi,"5189-90 Main Road, Sadar Bazar, Pahari Dhiraj, New Delhi - 110006, Dist.Delhi, Delhi",7942958455,
"White Printed Baby Muslin Hooded Swaddler, 0-3 Years, Size: 90x90cm (lxw)",https://www.indiamart.com/proddetail/white-printed-baby-muslin-hooded-swaddler-2851671775191.html?pos=76&kwd=swaddler&tags=BB||||8584.299||product|||NA|rsf:gd-|-qr_nm:gd|res:RC3|com-cf:nl|ptrs:na|ktp:N0|mc:192827|mtp:S|qry_typ:P|lang:en|wc:1|cs:7591|v=4,Buttercup Baby Clothing,https://www.indiamart.com/buttercup-baby-clothing/?pos=76&kwd=swaddler&tags=BB||||8584.299||product|||NA|rsf:gd-|-qr_nm:gd|res:RC3|com-cf:nl|ptrs:na|ktp:N0|mc:192827|mtp:S|qry_typ:P|lang:en|wc:1|cs:7591|v=4,False,,Coimbatore,"33-8, East Ponnurangam Road, RS Puram, Coimbatore - 641002, Dist.Coimbatore, Tamil Nadu",8043824974,
Newborn Baby Gift Set,https://www.indiamart.com/proddetail/newborn-baby-gift-set-2854613618588.html?pos=72&kwd=swaddler&tags=BA||||8281.036|Price|product|||NA|rsf:gd-|-qr_nm:gd|res:RC3|com-cf:nl|ptrs:na|ktp:N0|mc:192827|mtp:S|qry_typ:P|lang:en|wc:1|cs:7591|v=4,Blueshield Textiles LLP,https://www.indiamart.com/blueshield-textiles-llp/?pos=72&kwd=swaddler&tags=BA||||8281.036|Price|product|||NA|rsf:gd-|-qr_nm:gd|res:RC3|com-cf:nl|ptrs:na|ktp:N0|mc:192827|mtp:S|qry_typ:P|lang:en|wc:1|cs:7591|v=4,False,MAKARPURA ROAD,Vadodara,"408/2-3 GIDC GIDC, MAKARPURA ROAD, Vadodara - 390010, Dist.Vadodara, Gujarat",8046053134,
White Printed Swaddler,https://www.indiamart.com/proddetail/swaddler-2854632597330.html?pos=73&kwd=swaddler&tags=BB||||8752.144|Price|product|||NA|rsf:gd-|-qr_nm:gd|res:RC3|com-cf:nl|ptrs:na|ktp:N0|mc:192827|mtp:S|qry_typ:P|lang:en|wc:1|cs:7591|v=4,Aurusco Traders,https://www.indiamart.com/company/85889684/?pos=73&kwd=swaddler&tags=BB||||8752.144|Price|product|||NA|rsf:gd-|-qr_nm:gd|res:RC3|com-cf:nl|ptrs:na|ktp:N0|mc:192827|mtp:S|qry_typ:P|lang:en|wc:1|cs:7591|v=4,False,Lajpat Nagar 2,New Delhi,", Lajpat Nagar 2, New Delhi - 110024, Dist.Delhi, Delhi",8048249727,4549
"muzee Fur And Cotton Swaddler, Size: 70X70",https://www.indiamart.com/proddetail/swaddler-2851948284833.html?pos=74&kwd=swaddler&tags=BA||||8493.708|Price|product|||NA|rsf:gd-|-qr_nm:gd|res:RC3|com-cf:nl|ptrs:na|ktp:N0|mc:192827|mtp:S|qry_typ:P|lang:en|wc:1|cs:7591|v=4,Emmicare Industries Private Limited,https://www.indiamart.com/emmicare-industries-kerala/?pos=74&kwd=swaddler&tags=BA||||8493.708|Price|product|||NA|rsf:gd-|-qr_nm:gd|res:RC3|com-cf:nl|ptrs:na|ktp:N0|mc:192827|mtp:S|qry_typ:P|lang:en|wc:1|cs:7591|v=4,False,Vadakkangara,Manjeri,"7/162 ,B-Square Estate, Mankada Road, Koottilangadi,, Vadakkangara, Manjeri - 679324, Dist.Malappuram, Kerala",7942803958,
"Cotton Red (base) New Baby Born Plush Swaddler, 3 Month, Size: 75x 45x 20mm (lxwxh)",https://www.indiamart.com/proddetail/new-baby-born-plush-swaddler-2850307504230.html?pos=75&kwd=swaddler&tags=BB||||8661.854|Price|product|||NA|rsf:gd-|-qr_nm:gd|res:RC3|com-cf:nl|ptrs:na|ktp:N0|mc:192827|mtp:S|qry_typ:P|lang:en|wc:1|cs:7591|v=4,Shri Parasnath. Inc,https://www.indiamart.com/shriparasnathinc/?pos=75&kwd=swaddler&tags=BB||||8661.854|Price|product|||NA|rsf:gd-|-qr_nm:gd|res:RC3|com-cf:nl|ptrs:na|ktp:N0|mc:192827|mtp:S|qry_typ:P|lang:en|wc:1|cs:7591|v=4,False,New Subhash Nagar,Ludhiana,"House No. 8093 New Shastri Nagar Basti Jodhewal, New Subhash Nagar, Ludhiana - 141007, Dist.Ludhiana, Punjab",8047802844,
"White Printed Baby Muslin Hooded Swaddler, 0-3 Years, Size: 90x90cm (lxw)",https://www.indiamart.com/proddetail/white-printed-baby-muslin-hooded-swaddler-2851671775191.html?pos=76&kwd=swaddler&tags=BB||||8584.299||product|||NA|rsf:gd-|-qr_nm:gd|res:RC3|com-cf:nl|ptrs:na|ktp:N0|mc:192827|mtp:S|qry_typ:P|lang:en|wc:1|cs:7591|v=4,Buttercup Baby Clothing,https://www.indiamart.com/buttercup-baby-clothing/?pos=76&kwd=swaddler&tags=BB||||8584.299||product|||NA|rsf:gd-|-qr_nm:gd|res:RC3|com-cf:nl|ptrs:na|ktp:N0|mc:192827|mtp:S|qry_typ:P|lang:en|wc:1|cs:7591|v=4,False,,Coimbatore,"33-8, East Ponnurangam Road, RS Puram, Coimbatore - 641002, Dist.Coimbatore, Tamil Nadu",8043824974,
New Born Baby Blanket / Baby Wrap / Baby Swaddler,https://www.indiamart.com/proddetail/new-born-baby-blanket-baby-wrap-baby-swaddler-2853623534812.html?pos=77&kwd=swaddler&tags=BA||||8624.416|Price|product|||NA|rsf:gd-|-qr_nm:gd|res:RC3|com-cf:nl|ptrs:na|ktp:N0|mc:192827|mtp:S|qry_typ:P|lang:en|wc:1|cs:7591|v=4,Vasdev Traders Hisar,https://www.indiamart.com/vasdev-traders-hisar/?pos=77&kwd=swaddler&tags=BA||||8624.416|Price|product|||NA|rsf:gd-|-qr_nm:gd|res:RC3|com-cf:nl|ptrs:na|ktp:N0|mc:192827|mtp:S|qry_typ:P|lang:en|wc:1|cs:7591|v=4,False,,Hisar,"Jindal chowk , Hisar, Hisar - 125005, Dist.Hisar, Haryana",8048249961,237
"Tiny Hugs White Premium Organic Cotton Muslin Swaddle, New Born Baby, Size: 120*120 Cm",https://www.indiamart.com/proddetail/premium-organic-cotton-muslin-swaddle-22753175533.html?pos=78&kwd=swaddler&tags=BA||||8663.873||product|||NA|rsf:gd-|-qr_nm:gd|res:RC3|com-cf:nl|ptrs:na|ktp:N0|mc:192827|mtp:S|qry_typ:P|lang:en|wc:1|cs:7591|v=4,Tiny Hugs,https://www.indiamart.com/tiny-hugs/?pos=78&kwd=swaddler&tags=BA||||8663.873||product|||NA|rsf:gd-|-qr_nm:gd|res:RC3|com-cf:nl|ptrs:na|ktp:N0|mc:192827|mtp:S|qry_typ:P|lang:en|wc:1|cs:7591|v=4,False,Malleshwaram West,Bengaluru,"Shop No. 159, 9th Cross, Near Central Library, Sampige Road, Malleswaram, Malleshwaram West, Bengaluru - 560003, Dist.Bengaluru, Karnataka",8069023914,641
3 Pieces White (Base) 100% Cotton Baby Muslin Swaddle Cloth,https://www.indiamart.com/proddetail/100-cotton-baby-muslin-swaddle-cloth-23697152362.html?pos=79&kwd=swaddler&tags=BB||||8663.873|Price|product|||NA|rsf:gd-|-qr_nm:gd|res:RC3|com-cf:nl|ptrs:na|ktp:N0|mc:192827|mtp:S|qry_typ:P|lang:en|wc:1|cs:7591|v=4,Easyfaind,https://www.indiamart.com/easyfaind/?pos=79&kwd=swaddler&tags=BB||||8663.873|Price|product|||NA|rsf:gd-|-qr_nm:gd|res:RC3|com-cf:nl|ptrs:na|ktp:N0|mc:192827|mtp:S|qry_typ:P|lang:en|wc:1|cs:7591|v=4,False,Maratalli,Bengaluru,"986, 2nd Cross Road, 7th Main Road, Tulasi Theatre Road Chowdeshwari Layout, Maratalli, North Urban, Maratalli, Bengaluru - 560037, Dist.Bengaluru, Karnataka",8047623471,
MulMul 2 layer baby swaddle,https://www.indiamart.com/proddetail/mulmul-2-layer-baby-swaddle-2850409614130.html?pos=80&kwd=swaddler&tags=BA||||8810.737|Price|product|||NA|rsf:gd-|-qr_nm:gd|res:RC3|com-cf:nl|ptrs:na|ktp:N0|mc:192827|mtp:S|qry_typ:P|lang:en|wc:1|cs:7591|v=4,Mifa Handlooms,https://www.indiamart.com/mifa-handlooms/?pos=80&kwd=swaddler&tags=BA||||8810.737|Price|product|||NA|rsf:gd-|-qr_nm:gd|res:RC3|com-cf:nl|ptrs:na|ktp:N0|mc:192827|mtp:S|qry_typ:P|lang:en|wc:1|cs:7591|v=4,False,,Saharanpur,"Opp- Zakiya Masjid Near Rashid Garden,Vardhman Colony,Chilkana Road,Saharanpur,Saharanpur, Saharanpur - 247001, Dist.Saharanpur, Uttar Pradesh",8069033754,858
"Supreme apperals White Baby Muslin Swaddle, Bonbaby, Size: 42x42",https://www.indiamart.com/proddetail/baby-muslin-swaddle-21400054591.html?pos=81&kwd=swaddler&tags=BB||||8211.142|Price|product|||NA|rsf:gd-|-qr_nm:gd|res:RC3|com-cf:nl|ptrs:na|ktp:N0|mc:192827|mtp:S|qry_typ:P|lang:en|wc:1|cs:7591|v=4,Supreme Apparels,https://www.indiamart.com/supremeapparels-mumbai/?pos=81&kwd=swaddler&tags=BB||||8211.142|Price|product|||NA|rsf:gd-|-qr_nm:gd|res:RC3|com-cf:nl|ptrs:na|ktp:N0|mc:192827|mtp:S|qry_typ:P|lang:en|wc:1|cs:7591|v=4,False,kandvali east,Mumbai,"FLAT NO- 305,,SHREE VALLABH KUNJ,MATHURADAS ROAD,,KANDIVALI WEST m d road,400001,Mumbai, kandvali east, Mumbai - 400067, Dist.Mumbai, Maharashtra",8046054755,
Cotton Baby Swaddles Pod,https://www.indiamart.com/proddetail/baby-swaddles-pod-19510221762.html?pos=82&kwd=swaddler&tags=BA||||8211.142|Price|product|||NA|rsf:gd-|-qr_nm:gd|res:RC3|com-cf:nl|ptrs:na|ktp:N0|mc:192827|mtp:S|qry_typ:P|lang:en|wc:1|cs:7591|v=4,Rachna Creation,https://www.indiamart.com/rachna-creation/?pos=82&kwd=swaddler&tags=BA||||8211.142|Price|product|||NA|rsf:gd-|-qr_nm:gd|res:RC3|com-cf:nl|ptrs:na|ktp:N0|mc:192827|mtp:S|qry_typ:P|lang:en|wc:1|cs:7591|v=4,False,Dadar (East),Mumbai,"Plot No. 155, Tarwala House, Shop No. 5 Saint Paul Street, Hindmata, Dadar (East), Mumbai - 400014, Dist.Mumbai, Maharashtra",8047681234,
3 Piece White Printed Bamboo Cotton Swaddle,https://www.indiamart.com/proddetail/white-printed-bamboo-cotton-swaddle-25743754491.html?pos=83&kwd=swaddler&tags=BB||||8661.854||product|||NA|rsf:gd-|-qr_nm:gd|res:RC3|com-cf:nl|ptrs:na|ktp:N0|mc:192827|mtp:S|qry_typ:P|lang:en|wc:1|cs:7591|v=4,DAYAL DASS TRADERS,https://www.indiamart.com/dayaldasstraders/?pos=83&kwd=swaddler&tags=BB||||8661.854||product|||NA|rsf:gd-|-qr_nm:gd|res:RC3|com-cf:nl|ptrs:na|ktp:N0|mc:192827|mtp:S|qry_typ:P|lang:en|wc:1|cs:7591|v=4,False,,Ludhiana,"123, New Raj Guru Nagar,, Ludhiana - 141001, Dist.Ludhiana, Punjab",8047650977,
Mix Printed Muslin Swaddle (115cm x 115cm),https://www.indiamart.com/proddetail/muslin-swaddle-115cm-x-115cm-21206765197.html?pos=84&kwd=swaddler&tags=BA||||8228.275|Price|product|||NA|rsf:gd-|-qr_nm:gd|res:RC3|com-cf:nl|ptrs:na|ktp:N0|mc:192827|mtp:S|qry_typ:P|lang:en|wc:1|cs:7591|v=4,Eclat Globalbiz LLP,https://www.indiamart.com/eclatglobalbiz/?pos=84&kwd=swaddler&tags=BA||||8228.275|Price|product|||NA|rsf:gd-|-qr_nm:gd|res:RC3|com-cf:nl|ptrs:na|ktp:N0|mc:192827|mtp:S|qry_typ:P|lang:en|wc:1|cs:7591|v=4,False,,Ahmedabad,"Shilp Zaveri, Ahmedabad - 380004, Dist.Ahmedabad, Gujarat",8047627244,
Blue Cotton Muslin Swaddle,https://www.indiamart.com/proddetail/muslin-swaddle-2850556007633.html?pos=85&kwd=swaddler&tags=BA||||8954.051|Price|product|||NA|rsf:gd-|-qr_nm:gd|res:RC3|com-cf:nl|ptrs:na|ktp:N0|mc:192827|mtp:S|qry_typ:P|lang:en|wc:1|cs:7591|v=4,MFS Fashions,https://www.indiamart.com/mfsfashions/?pos=85&kwd=swaddler&tags=BA||||8954.051|Price|product|||NA|rsf:gd-|-qr_nm:gd|res:RC3|com-cf:nl|ptrs:na|ktp:N0|mc:192827|mtp:S|qry_typ:P|lang:en|wc:1|cs:7591|v=4,False,Perambur,Chennai,"New No. 42/2, Old No. 15/2, Venkatraman Street, Perambur, Perambur, Chennai - 600011, Dist.Chennai, Tamil Nadu",8043804409,
"White(Base) Printed Organic Cotton Muslin Swaddle, Size: Large",https://www.indiamart.com/proddetail/organic-cotton-muslin-swaddle-2852667075133.html?pos=86&kwd=swaddler&tags=BA||||8307.81|Price|product|||NA|rsf:gd-|-qr_nm:gd|res:RC3|com-cf:nl|ptrs:na|ktp:N0|mc:192827|mtp:S|qry_typ:P|lang:en|wc:1|cs:7591|v=4,Simply Soft,https://www.indiamart.com/simplysoftthane/?pos=86&kwd=swaddler&tags=BA||||8307.81|Price|product|||NA|rsf:gd-|-qr_nm:gd|res:RC3|com-cf:nl|ptrs:na|ktp:N0|mc:192827|mtp:S|qry_typ:P|lang:en|wc:1|cs:7591|v=4,False,,Pune,"F-1505,Western Avenue, Mumbai Pune Bypass, Wakad, Pune, Pune - 411057, Dist.Pune, Maharashtra",7942718617,
"Muslin Swaddle, Size: Large",https://www.indiamart.com/proddetail/muslin-swaddle-2854745947091.html?pos=87&kwd=swaddler&tags=BB||||8626.744|Price|product|||NA|rsf:gd-|-qr_nm:gd|res:RC3|com-cf:nl|ptrs:na|ktp:N0|mc:192827|mtp:S|qry_typ:P|lang:en|wc:1|cs:7591|v=4,Avira Associates,https://www.indiamart.com/avira-associates/?pos=87&kwd=swaddler&tags=BB||||8626.744|Price|product|||NA|rsf:gd-|-qr_nm:gd|res:RC3|com-cf:nl|ptrs:na|ktp:N0|mc:192827|mtp:S|qry_typ:P|lang:en|wc:1|cs:7591|v=4,False,,Tiruppur,"65/37-38 1st Street, Tiruppur - 641604, Dist.Coimbatore, Tamil Nadu",8048370714,5276
"White Baby Swaddle Wrapper Muslin, Size: Medium",https://www.indiamart.com/proddetail/baby-swaddle-wrapper-muslin-2853698901491.html?pos=92&kwd=swaddler&tags=BA||||8230.883|Price|product|||NA|rsf:gd-|-qr_nm:gd|res:RC3|com-cf:nl|ptrs:na|ktp:N0|mc:192827|mtp:S|qry_typ:P|lang:en|wc:1|cs:7591|v=4,Pooja Enterprise,https://www.indiamart.com/poojaenterprise-159125404/?pos=92&kwd=swaddler&tags=BA||||8230.883|Price|product|||NA|rsf:gd-|-qr_nm:gd|res:RC3|com-cf:nl|ptrs:na|ktp:N0|mc:192827|mtp:S|qry_typ:P|lang:en|wc:1|cs:7591|v=4,False,,Surat,"G4, Achkan Bazaar Baroda Prestige, Varachha, Surat, Surat - 395006, Dist.Surat, Gujarat",8041011891,
Cotton muslin swaddle blanket,,Made By India,https://www.indiamart.com/made-by-india/?pos=89&kwd=swaddler&tags=BB||||8788.382||product|||NA|rsf:gd-|-qr_nm:gd|res:RC3|com-cf:nl|ptrs:na|ktp:N0|mc:192827|mtp:S|qry_typ:P|lang:en|wc:1|cs:7591|v=4,False,Unit I,Greater Noida,"Plot 99,1, Ecotech 3,UdyogKendra -2 Unit- I, Plot No. 99, Udhyog Kendra Extension- 2, Ecotech-3,201308,Greater Noida, Unit I, Greater Noida - 201306, Dist.Gautam Budh Nagar, Uttar Pradesh",8062245031,145
"Cushion Villa Velvet Baby Fleece Blanket, 0-24 Months, Size: 100*75 CM",https://www.indiamart.com/proddetail/baby-fleece-blanket-25190964933.html?pos=90&kwd=swaddler&tags=BB||||8230.883|Price|product|||NA|rsf:gd-|-qr_nm:gd|res:RC3|com-cf:nl|ptrs:na|ktp:N0|mc:192827|mtp:S|qry_typ:P|lang:en|wc:1|cs:7591|v=4,Cushion Villa,https://www.indiamart.com/cushion-villa/?pos=90&kwd=swaddler&tags=BB||||8230.883|Price|product|||NA|rsf:gd-|-qr_nm:gd|res:RC3|com-cf:nl|ptrs:na|ktp:N0|mc:192827|mtp:S|qry_typ:P|lang:en|wc:1|cs:7591|v=4,False,Aambatalavdi,Surat,"304,Zircon Plus, Opp Avalon Business Centre, Katargam, Aambatalavdi, Surat - 395004, Dist.Surat, Gujarat",8047797428,
"Muslin Blue & Pink Newborn Baby Swaddle Wrap, Size: Medium",https://www.indiamart.com/proddetail/newborn-baby-swaddle-wrap-2853211970055.html?pos=91&kwd=swaddler&tags=BA||||8211.142|Price|product|||NA|rsf:gd-|-qr_nm:gd|res:RC3|com-cf:nl|ptrs:na|ktp:N0|mc:192827|mtp:S|qry_typ:P|lang:en|wc:1|cs:7591|v=4,Snowhite Baby Products,https://www.indiamart.com/company/1143719/?pos=91&kwd=swaddler&tags=BA||||8211.142|Price|product|||NA|rsf:gd-|-qr_nm:gd|res:RC3|com-cf:nl|ptrs:na|ktp:N0|mc:192827|mtp:S|qry_typ:P|lang:en|wc:1|cs:7591|v=4,False,Malad West,Mumbai,"SHOP NO.14,LINKWAY ESTATE, LINK ROAD, MALAD WEST LINK ROAD, MALAD WEST, Malad West, Mumbai - 400063, Dist.Mumbai, Maharashtra",8069707383,253
"White Baby Swaddle Wrapper Muslin, Size: Medium",https://www.indiamart.com/proddetail/baby-swaddle-wrapper-muslin-2853698901491.html?pos=92&kwd=swaddler&tags=BA||||8230.883|Price|product|||NA|rsf:gd-|-qr_nm:gd|res:RC3|com-cf:nl|ptrs:na|ktp:N0|mc:192827|mtp:S|qry_typ:P|lang:en|wc:1|cs:7591|v=4,Pooja Enterprise,https://www.indiamart.com/poojaenterprise-159125404/?pos=92&kwd=swaddler&tags=BA||||8230.883|Price|product|||NA|rsf:gd-|-qr_nm:gd|res:RC3|com-cf:nl|ptrs:na|ktp:N0|mc:192827|mtp:S|qry_typ:P|lang:en|wc:1|cs:7591|v=4,False,,Surat,"G4, Achkan Bazaar Baroda Prestige, Varachha, Surat, Surat - 395006, Dist.Surat, Gujarat",8041011891,
pink blue peach green Little Cubs Cotton Baby Swaddle Cum Wrapper,https://www.indiamart.com/proddetail/little-cubs-cotton-baby-swaddle-cum-wrapper-23714661733.html?pos=93&kwd=swaddler&tags=BB||||8752.144|Price|product|||NA|rsf:gd-|-qr_nm:gd|res:RC3|com-cf:nl|ptrs:na|ktp:N0|mc:192827|mtp:S|qry_typ:P|lang:en|wc:1|cs:7591|v=4,Navkaar Traders,https://www.indiamart.com/navkaartraders/?pos=93&kwd=swaddler&tags=BB||||8752.144|Price|product|||NA|rsf:gd-|-qr_nm:gd|res:RC3|com-cf:nl|ptrs:na|ktp:N0|mc:192827|mtp:S|qry_typ:P|lang:en|wc:1|cs:7591|v=4,False,Mahendru Enclave,New Delhi,"C-37, 1st Floor, Gali No. 3, Mahendru Enclave, Mahendru Enclave, New Delhi - 110033, Dist.Delhi, Delhi",7942532296,
Masleen Baby Wrapper,https://www.indiamart.com/proddetail/masleen-baby-wrapper-22497038897.html?pos=94&kwd=swaddler&tags=BA||||8211.142|Price|product|||NA|rsf:gd-|-qr_nm:gd|res:RC3|com-cf:nl|ptrs:na|ktp:N0|mc:192827|mtp:S|qry_typ:P|lang:en|wc:1|cs:7591|v=4,Keval Enterprises,https://www.indiamart.com/keval-enterprises-mumbai/?pos=94&kwd=swaddler&tags=BA||||8211.142|Price|product|||NA|rsf:gd-|-qr_nm:gd|res:RC3|com-cf:nl|ptrs:na|ktp:N0|mc:192827|mtp:S|qry_typ:P|lang:en|wc:1|cs:7591|v=4,False,Dadar West,Mumbai,"Shop No. 20, Madhani Industrial Estate Senapati Bapat Marg, Dadar West, Mumbai - 400028, Dist.Mumbai, Maharashtra",8048951266,
Plain BABY MUSLIN SWADDLE WARP OR MUSLIN SWADDLE BLANKET,https://www.indiamart.com/proddetail/baby-muslin-swaddle-warp-or-muslin-swaddle-blanket-2849665520073.html?pos=95&kwd=swaddler&tags=BA||||8626.744|Price|product|||NA|rsf:gd-|-qr_nm:gd|res:RC3|com-cf:nl|ptrs:na|ktp:N0|mc:192827|mtp:S|qry_typ:P|lang:en|wc:1|cs:7591|v=4,Sedulous Clothings,https://www.indiamart.com/sedulous-clothings/?pos=95&kwd=swaddler&tags=BA||||8626.744|Price|product|||NA|rsf:gd-|-qr_nm:gd|res:RC3|com-cf:nl|ptrs:na|ktp:N0|mc:192827|mtp:S|qry_typ:P|lang:en|wc:1|cs:7591|v=4,False,,Tiruppur,"1/402 KNP Colony Post K Chettipalayam Dharapuram Road, Tiruppur - 641608, Dist.Coimbatore, Tamil Nadu",7942794994,
"Multicolor Baby Printed Swaddle Wrap, Size: Small",https://www.indiamart.com/proddetail/baby-printed-swaddle-wrap-2854158449912.html?pos=96&kwd=swaddler&tags=CC||||8661.854|Price|product|||MDC|rsf:gd-|-qr_nm:gd|res:RC3|com-cf:nl|ptrs:na|ktp:N0|mc:192827|mtp:S|qry_typ:P|lang:en|wc:1|cs:7591|v=4,Sai Trading Company,https://www.indiamart.com/sai-tradingcompany-ludhiana/?pos=96&kwd=swaddler&tags=CC||||8661.854|Price|product|||MDC|rsf:gd-|-qr_nm:gd|res:RC3|com-cf:nl|ptrs:na|ktp:N0|mc:192827|mtp:S|qry_typ:P|lang:en|wc:1|cs:7591|v=4,False,Chaura Bazar Area,Ludhiana,"Mochpura Bazar, No. 139 Block Viii, Rajesh Shawls, Chaura Bazar Area, Ludhiana - 141008, Dist.Ludhiana, Punjab",8045736579,
Swaddler,https://www.indiamart.com/proddetail/swaddler-2854007356630.html?pos=97&kwd=swaddler&tags=CC||||8747.203|Price|product|||TS|rsf:gd-|-qr_nm:gd|res:RC3|com-cf:nl|ptrs:na|ktp:N0|mc:192827|mtp:S|qry_typ:P|lang:en|wc:1|cs:7591|v=4,Tulsi Handicraft,https://www.indiamart.com/tulsihandicraftpanipat/?pos=97&kwd=swaddler&tags=CC||||8747.203|Price|product|||TS|rsf:gd-|-qr_nm:gd|res:RC3|com-cf:nl|ptrs:na|ktp:N0|mc:192827|mtp:S|qry_typ:P|lang:en|wc:1|cs:7591|v=4,False,Netaji Colony,Panipat,"10, Gangapuri Road, Netaji Colony, Panipat - 132103, Dist.Panipat, Haryana",7942837797,
Fleece Multicolor Printed Baby Blanket,https://www.indiamart.com/proddetail/printed-baby-blanket-2853713691355.html?pos=98&kwd=swaddler&tags=CC||||8747.203|Price|product|||TS|rsf:gd-|-qr_nm:gd|res:RC3|com-cf:nl|ptrs:na|ktp:N0|mc:192827|mtp:S|qry_typ:P|lang:en|wc:1|cs:7591|v=4,Cotton Bolls Textiles,https://www.indiamart.com/cottonbollstextilespanipat/?pos=98&kwd=swaddler&tags=CC||||8747.203|Price|product|||TS|rsf:gd-|-qr_nm:gd|res:RC3|com-cf:nl|ptrs:na|ktp:N0|mc:192827|mtp:S|qry_typ:P|lang:en|wc:1|cs:7591|v=4,False,Huda,Panipat,"House No - 485 Sector 13-17, Huda, Panipat - 132103, Dist.Panipat, Haryana",8043855324,
Multicolor Baby Muslin Swaddles,https://www.indiamart.com/proddetail/baby-muslin-swaddles-2854264316812.html?pos=99&kwd=swaddler&tags=CC||||8668.838|Price|product|||TS|rsf:gd-|-qr_nm:gd|res:RC3|com-cf:nl|ptrs:na|ktp:N0|mc:192827|mtp:S|qry_typ:P|lang:en|wc:1|cs:7591|v=4,New Asia Textiles,https://www.indiamart.com/new-asia-textiles/?pos=99&kwd=swaddler&tags=CC||||8668.838|Price|product|||TS|rsf:gd-|-qr_nm:gd|res:RC3|com-cf:nl|ptrs:na|ktp:N0|mc:192827|mtp:S|qry_typ:P|lang:en|wc:1|cs:7591|v=4,False,,Erode,"42, Mosikeeranar Street-4 indra nagar, Erode - 638003, Dist.Erode, Tamil Nadu",8046070169,
Cotton Baby Swaddle,https://www.indiamart.com/proddetail/baby-swaddle-20844145297.html?pos=100&kwd=swaddler&tags=CC||||8038.093|Price|product|||TS|rsf:gd-|-qr_nm:gd|res:RC3|com-cf:nl|ptrs:na|ktp:N0|mc:192827|mtp:S|qry_typ:P|lang:en|wc:1|cs:7591|v=4,Radiance Impex International,https://www.indiamart.com/radianceimpexinternational/?pos=100&kwd=swaddler&tags=CC||||8038.093|Price|product|||TS|rsf:gd-|-qr_nm:gd|res:RC3|com-cf:nl|ptrs:na|ktp:N0|mc:192827|mtp:S|qry_typ:P|lang:en|wc:1|cs:7591|v=4,True,Vidya Nagar,Rajkot,"No. 310, Siddhivinayak Complex, Vidya Nagar, Rajkot - 360001, Dist.Rajkot, Gujarat",8046044349,
"White (Base) Jamdani Cotton Baby Swaddle, 6 Month, Size: 30 X 30 Inch",https://www.indiamart.com/proddetail/jamdani-cotton-baby-swaddle-2850387149388.html?pos=101&kwd=swaddler&tags=CC||||9839.57|Price|product|||MDC|rsf:gd-|-qr_nm:gd|res:RC3|com-cf:nl|ptrs:na|ktp:N0|mc:192827|mtp:S|qry_typ:P|lang:en|wc:1|cs:7591|v=4,ARS Fabrics And Embroidery,https://www.indiamart.com/arsfabrics-embroidery/?pos=101&kwd=swaddler&tags=CC||||9839.57|Price|product|||MDC|rsf:gd-|-qr_nm:gd|res:RC3|com-cf:nl|ptrs:na|ktp:N0|mc:192827|mtp:S|qry_typ:P|lang:en|wc:1|cs:7591|v=4,False,Santoshpur,Kolkata,"Bl-A/16, Flat-4D, 4 Floor, Saptrishi Apartment, Nandan Kanan, Kalikapur, Santoshpur Link Road, Santoshpur, Kolkata - 700075, Dist.Kolkata, West Bengal",7942818233,
Indilittle Global Export,,Indilittle Global Export,https://www.indiamart.com/indilittleglobalexport/?pos=102&kwd=swaddler&tags=||||9842.824||bl|||TS|rsf:gd-|-qr_nm:gd|res:RC3|com-cf:nl|ptrs:na|ktp:N0|mc:192827|mtp:S|qry_typ:P|lang:en|wc:1|cs:7591|v=4,False,Haripal,Hooghly,"BRAHMANPARA, NALIKUL PASCHIM, HARIPAL, Haripal, Hooghly - 712405, Dist.Hooghly, West Bengal",8048977919,
Universal Traders,,Universal Traders,https://www.indiamart.com/universaltraderspunjab/?pos=103&kwd=swaddler&tags=||||8661.854||bl|||MDC|rsf:gd-|-qr_nm:gd|res:RC3|com-cf:nl|ptrs:na|ktp:N0|mc:192827|mtp:S|qry_typ:P|lang:en|wc:1|cs:7591|v=4,False,Iqbal Ganj,Ludhiana,"B-X- 435, Telian Street, Near Iqbal Ganj Chowk, Iqbal Ganj, Ludhiana - 141008, Dist.Ludhiana, Punjab",8045731865,
Swaddler,,Babies Bloom Store,https://www.indiamart.com/babies-bloom-store/?pos=104&kwd=swaddler&tags=CC||||8752.144||product|||NA|rsf:gd-|-qr_nm:gd|res:RC3|com-cf:nl|ptrs:na|ktp:N0|mc:192827|mtp:S|qry_typ:P|lang:en|wc:1|cs:7591|v=4,False,Paschim Vihar,New Delhi,"IST FLOOR,670,GH-14,,PASCHIM VIHAR,,,, Paschim Vihar, New Delhi - 110087, Dist.Delhi, Delhi",8062245014,210
Plain Receiving Swaddler,https://www.indiamart.com/proddetail/receiving-swaddler-22410172755.html?pos=105&kwd=swaddler&tags=CC||||8507.67|Price|product|||NA|rsf:gd-|-qr_nm:gd|res:RC3|com-cf:nl|ptrs:na|ktp:N0|mc:192827|mtp:S|qry_typ:P|lang:en|wc:1|cs:7591|v=4,First Baby,https://www.indiamart.com/first-baby/?pos=105&kwd=swaddler&tags=CC||||8507.67|Price|product|||NA|rsf:gd-|-qr_nm:gd|res:RC3|com-cf:nl|ptrs:na|ktp:N0|mc:192827|mtp:S|qry_typ:P|lang:en|wc:1|cs:7591|v=4,False,Aluva,Ernakulam,"Puthuvassery, Nedumbassery PO, Aluva, Ernakulam - 683585, Dist.Ernakulam, Kerala",8048250217,632
Baby Swaddler,,Shaheen Kids Bazar,https://www.indiamart.com/shaheen-kids-bazar/?pos=106&kwd=swaddler&tags=CC||||8223.226||product|||NA|rsf:gd-|-qr_nm:gd|res:RC3|com-cf:nl|ptrs:na|ktp:N0|mc:192827|mtp:S|qry_typ:P|lang:en|wc:1|cs:7591|v=4,False,Mira Road East,Thane,"Shop No.1, E/1, Star Narendra Park Building Mira Road, Mira Road East, Thane - 401107, Dist.Thane, Maharashtra",8045849681,903
Organic Cotton Muslin Swaddle Blanket Large Size - Set of 2 - Colorful Polka and Whale,https://www.indiamart.com/proddetail/organic-cotton-muslin-swaddle-blanket-large-size-set-of-2-colorful-polka-and-whale-23436425130.html?pos=107&kwd=swaddler&tags=CB||||8211.142|Price|product|||NA|rsf:gd-|-qr_nm:gd|res:RC3|com-cf:nl|ptrs:na|ktp:N0|mc:192827|mtp:S|qry_typ:P|lang:en|wc:1|cs:7591|v=4,Kindermum India,https://www.indiamart.com/kindermum-india/?pos=107&kwd=swaddler&tags=CB||||8211.142|Price|product|||NA|rsf:gd-|-qr_nm:gd|res:RC3|com-cf:nl|ptrs:na|ktp:N0|mc:192827|mtp:S|qry_typ:P|lang:en|wc:1|cs:7591|v=4,False,Kandivali West B- Wing,Mumbai,"Pushp Excellancy Society, Mathuradas Ext Road, Kandivali West B- Wing, Mumbai - 400067, Dist.Mumbai, Maharashtra",8047812307,
"100% Cotton 1 Hand Block Printed Baby Swaddle, Size: 110 x 110 cm, 0 - 2 Year",https://www.indiamart.com/proddetail/hand-block-printed-baby-swaddle-22281706248.html?pos=108&kwd=swaddler&tags=CC||||8601.347|Price|product|||NA|rsf:gd-|-qr_nm:gd|res:RC3|com-cf:nl|ptrs:na|ktp:N0|mc:192827|mtp:S|qry_typ:P|lang:en|wc:1|cs:7591|v=4,Awrin,https://www.indiamart.com/awrin-jaipur/?pos=108&kwd=swaddler&tags=CC||||8601.347|Price|product|||NA|rsf:gd-|-qr_nm:gd|res:RC3|com-cf:nl|ptrs:na|ktp:N0|mc:192827|mtp:S|qry_typ:P|lang:en|wc:1|cs:7591|v=4,False,,Jaipur,"27-B Near 35 sector Pratap nagar Krishna Vihar,Ramsinghpura Sanganer, Jaipur - 302029, Dist.Jaipur, Rajasthan",8048372805,689
Abracadabra Swaddles (Set Of 3) Savanna,https://www.indiamart.com/proddetail/abracadabra-swaddles-set-of-3-savanna-2853606866962.html?pos=109&kwd=swaddler&tags=CC||||8752.144|Price|product|||NA|rsf:gd-|-qr_nm:gd|res:RC3|com-cf:nl|ptrs:na|ktp:N0|mc:192827|mtp:S|qry_typ:P|lang:en|wc:1|cs:7591|v=4,BD Impex,https://www.indiamart.com/company/2395482/?pos=109&kwd=swaddler&tags=CC||||8752.144|Price|product|||NA|rsf:gd-|-qr_nm:gd|res:RC3|com-cf:nl|ptrs:na|ktp:N0|mc:192827|mtp:S|qry_typ:P|lang:en|wc:1|cs:7591|v=4,False,,New Delhi,"The Moms Darling - Baby Shop 163, Kapil Vihar, Pitampura, New Delhi - 110034, Dist.Delhi, Delhi",,
Musculin Baby Swaddle,https://www.indiamart.com/proddetail/musculin-baby-swaddle-2851525752948.html?pos=110&kwd=swaddler&tags=CC||||8626.744|Price|product|||NA|rsf:gd-|-qr_nm:gd|res:RC3|com-cf:nl|ptrs:na|ktp:N0|mc:192827|mtp:S|qry_typ:P|lang:en|wc:1|cs:7591|v=4,Togs Exports,https://www.indiamart.com/togs-exports/?pos=110&kwd=swaddler&tags=CC||||8626.744|Price|product|||NA|rsf:gd-|-qr_nm:gd|res:RC3|com-cf:nl|ptrs:na|ktp:N0|mc:192827|mtp:S|qry_typ:P|lang:en|wc:1|cs:7591|v=4,False,PALLADAM ROAD,Tiruppur,"NO.2/313 B16, VADUGAN KADU, KUNGUMAM PALAYAM PIRIVU,, PALLADAM ROAD, Tiruppur - 641605, Dist.Coimbatore, Tamil Nadu",8048247120,9779
Mini Car Random Printed Muslin Swaddle Blanket For Baby By MM - 1 Pc,https://www.indiamart.com/proddetail/mini-car-random-printed-muslin-swaddle-blanket-for-baby-by-mm-1-pc-2849559131330.html?pos=111&kwd=swaddler&tags=CC||||8752.144|Price|product|||NA|rsf:gd-|-qr_nm:gd|res:RC3|com-cf:nl|ptrs:na|ktp:N0|mc:192827|mtp:S|qry_typ:P|lang:en|wc:1|cs:7591|v=4,Glitzz Interiors,https://www.indiamart.com/glitzzinteriors-new-delhi/?pos=111&kwd=swaddler&tags=CC||||8752.144|Price|product|||NA|rsf:gd-|-qr_nm:gd|res:RC3|com-cf:nl|ptrs:na|ktp:N0|mc:192827|mtp:S|qry_typ:P|lang:en|wc:1|cs:7591|v=4,False,,New Delhi,"Glitzz Interiors, 10 D Palm Residency, khasra no 714, opposity DLF Hanuman Mandir, Chattarpur, New Delhi - 110074, Dist.Delhi, Delhi",,
Printed Baby Swaddle,https://www.indiamart.com/proddetail/baby-swaddle-2850838989255.html?pos=112&kwd=swaddler&tags=CC||||8239.3955|Price|product|||NA|rsf:gd-|-qr_nm:gd|res:RC3|com-cf:nl|ptrs:na|ktp:N0|mc:192827|mtp:S|qry_typ:P|lang:en|wc:1|cs:7591|v=4,Navya,https://www.indiamart.com/navya-shop-kalyan/?pos=112&kwd=swaddler&tags=CC||||8239.3955|Price|product|||NA|rsf:gd-|-qr_nm:gd|res:RC3|com-cf:nl|ptrs:na|ktp:N0|mc:192827|mtp:S|qry_typ:P|lang:en|wc:1|cs:7591|v=4,False,,Kalyan,"Shop No 4/5,Shri Datta Kripa Hsg Soc,Murbad Road,Kalyan,Thane, Kalyan - 421301, Dist.Thane, Maharashtra",8048247115,2865
Dbabst6 - Planet Print Newborn Swaddles,https://www.indiamart.com/proddetail/dbabst6-planet-print-newborn-swaddles-2853135829033.html?pos=113&kwd=swaddler&tags=CC||||8842.817|Price|product|||NA|rsf:gd-|-qr_nm:gd|res:RC3|com-cf:nl|ptrs:na|ktp:N0|mc:192827|mtp:S|qry_typ:P|lang:en|wc:1|cs:7591|v=4,Deekart,https://www.indiamart.com/deekartscom/?pos=113&kwd=swaddler&tags=CC||||8842.817|Price|product|||NA|rsf:gd-|-qr_nm:gd|res:RC3|com-cf:nl|ptrs:na|ktp:N0|mc:192827|mtp:S|qry_typ:P|lang:en|wc:1|cs:7591|v=4,False,,Villupuram,"No.20/1b, Plot No.20 Maruthamalai Murugan Nagar, 2nd Floor, K K Road, Villupuram - 605602, Dist.Villupuram, Tamil Nadu",,
Printed Muslin swaddle,https://www.indiamart.com/proddetail/muslin-swaddle-2852588574262.html?pos=114&kwd=swaddler&tags=CC||||8211.142|Price|product|||NA|rsf:gd-|-qr_nm:gd|res:RC3|com-cf:nl|ptrs:na|ktp:N0|mc:192827|mtp:S|qry_typ:P|lang:en|wc:1|cs:7591|v=4,Siddi Creation,https://www.indiamart.com/siddhicreation-76285775/?pos=114&kwd=swaddler&tags=CC||||8211.142|Price|product|||NA|rsf:gd-|-qr_nm:gd|res:RC3|com-cf:nl|ptrs:na|ktp:N0|mc:192827|mtp:S|qry_typ:P|lang:en|wc:1|cs:7591|v=4,False,,Mumbai,"7/17 Near Jay Shastri Nagar, Mulund Colony New Rahul Nagar Mulund West, Mumbai - 400082, Dist.Mumbai, Maharashtra",8047841034,
Baby Blanket/Baby Wrap/Baby Swaddle,https://www.indiamart.com/proddetail/baby-blanket-baby-wrap-baby-swaddle-2852744274333.html?pos=115&kwd=swaddler&tags=CC||||8624.416|Price|product|||NA|rsf:gd-|-qr_nm:gd|res:RC3|com-cf:nl|ptrs:na|ktp:N0|mc:192827|mtp:S|qry_typ:P|lang:en|wc:1|cs:7591|v=4,Shri Dayal Traders,https://www.indiamart.com/shri-dayal-traders-hisar/?pos=115&kwd=swaddler&tags=CC||||8624.416|Price|product|||NA|rsf:gd-|-qr_nm:gd|res:RC3|com-cf:nl|ptrs:na|ktp:N0|mc:192827|mtp:S|qry_typ:P|lang:en|wc:1|cs:7591|v=4,False,,Hisar,"Jindal Chowk, HIsar, Hisar - 125001, Dist.Hisar, Haryana",8048249680,9131
Sunshine Set - 100% Pure Organic Cotton Muslin Swaddle & Handkerchief,https://www.indiamart.com/proddetail/sunshine-set-100-pure-organic-cotton-muslin-swaddle-handkerchief-2853899456597.html?pos=116&kwd=swaddler&tags=CC||||8752.144|Price|product|||NA|rsf:gd-|-qr_nm:gd|res:RC3|com-cf:nl|ptrs:na|ktp:N0|mc:192827|mtp:S|qry_typ:P|lang:en|wc:1|cs:7591|v=4,HOZ,https://www.indiamart.com/hoz-delhi/?pos=116&kwd=swaddler&tags=CC||||8752.144|Price|product|||NA|rsf:gd-|-qr_nm:gd|res:RC3|com-cf:nl|ptrs:na|ktp:N0|mc:192827|mtp:S|qry_typ:P|lang:en|wc:1|cs:7591|v=4,False,,Delhi,"Bijwasan 369, Karta Ram Complex, Bijwasin Main Road, Bijwasin, Delhi, Delhi - 110061, Dist.Delhi, Delhi",,
"Cotton Printed Sunbaby White Cocoon Swaddle Baby Bath Towel, For Bed",https://www.indiamart.com/proddetail/sunbaby-white-cocoon-swaddle-baby-bath-towel-24759009930.html?pos=117&kwd=swaddler&tags=CC||||8752.144|Price|product|||NA|rsf:gd-|-qr_nm:gd|res:RC3|com-cf:nl|ptrs:na|ktp:N0|mc:192827|mtp:S|qry_typ:P|lang:en|wc:1|cs:7591|v=4,Krona Liquatec Ltd.,https://www.indiamart.com/kronaliquatec/?pos=117&kwd=swaddler&tags=CC||||8752.144|Price|product|||NA|rsf:gd-|-qr_nm:gd|res:RC3|com-cf:nl|ptrs:na|ktp:N0|mc:192827|mtp:S|qry_typ:P|lang:en|wc:1|cs:7591|v=4,False,,New Delhi,"B Ii/96, M.C.I.E, Badarpur, South Delhi, New Delhi - 110044, Dist.Delhi, Delhi",8047303429,
Printed Cotton Baby Swaddle,https://www.indiamart.com/proddetail/cotton-baby-swaddle-22296442430.html?pos=118&kwd=swaddler&tags=CC||||8559.269||product|||NA|rsf:gd-|-qr_nm:gd|res:RC3|com-cf:nl|ptrs:na|ktp:N0|mc:192827|mtp:S|qry_typ:P|lang:en|wc:1|cs:7591|v=4,Jainam Toys & Gift Center,https://www.indiamart.com/jainamtoysgiftcenter/?pos=118&kwd=swaddler&tags=CC||||8559.269||product|||NA|rsf:gd-|-qr_nm:gd|res:RC3|com-cf:nl|ptrs:na|ktp:N0|mc:192827|mtp:S|qry_typ:P|lang:en|wc:1|cs:7591|v=4,False,Indore GPO,Indore,"36, Sikh Mohalla, Main Road, Aditya Villa Basement, Indore GPO, Indore - 452001, Dist.Indore, Madhya Pradesh",8043833004,
"100% Cotton 1 Hand Block Printed Baby Swaddle, Size: 110 x 110 cm, 0 - 2 Year",https://www.indiamart.com/proddetail/hand-block-printed-baby-swaddle-22281706248.html?pos=119&kwd=swaddler&tags=CC||||8601.347|Price|product|||NA|rsf:gd-|-qr_nm:gd|res:RC3|com-cf:nl|ptrs:na|ktp:N0|mc:192827|mtp:S|qry_typ:P|lang:en|wc:1|cs:7591|v=4,Awrin,https://www.indiamart.com/awrin-jaipur/?pos=119&kwd=swaddler&tags=CC||||8601.347|Price|product|||NA|rsf:gd-|-qr_nm:gd|res:RC3|com-cf:nl|ptrs:na|ktp:N0|mc:192827|mtp:S|qry_typ:P|lang:en|wc:1|cs:7591|v=4,False,,Jaipur,"27-B Near 35 sector Pratap nagar Krishna Vihar,Ramsinghpura Sanganer, Jaipur - 302029, Dist.Jaipur, Rajasthan",8048372805,689
Assroted Prints 1 Pcs Baby Swaddle,https://www.indiamart.com/proddetail/baby-swaddle-13510577373.html?pos=120&kwd=swaddler&tags=CC||||8239.3955|Price|product|||NA|rsf:gd-|-qr_nm:gd|res:RC3|com-cf:nl|ptrs:na|ktp:N0|mc:192827|mtp:S|qry_typ:P|lang:en|wc:1|cs:7591|v=4,Tiny Toes,https://www.indiamart.com/tiny-toes/?pos=120&kwd=swaddler&tags=CC||||8239.3955|Price|product|||NA|rsf:gd-|-qr_nm:gd|res:RC3|com-cf:nl|ptrs:na|ktp:N0|mc:192827|mtp:S|qry_typ:P|lang:en|wc:1|cs:7591|v=4,False,,Kalyan,"Shop No 4, Jai Sonali Building Dr. Ambedkar road, Kalyan - 421301, Dist.Thane, Maharashtra",8047699360,
Abracadabra Swaddles (Set Of 3) Savanna,https://www.indiamart.com/proddetail/abracadabra-swaddles-set-of-3-savanna-2853606866962.html?pos=121&kwd=swaddler&tags=CC||||8752.144|Price|product|||NA|rsf:gd-|-qr_nm:gd|res:RC3|com-cf:nl|ptrs:na|ktp:N0|mc:192827|mtp:S|qry_typ:P|lang:en|wc:1|cs:7591|v=4,BD Impex,https://www.indiamart.com/company/2395482/?pos=121&kwd=swaddler&tags=CC||||8752.144|Price|product|||NA|rsf:gd-|-qr_nm:gd|res:RC3|com-cf:nl|ptrs:na|ktp:N0|mc:192827|mtp:S|qry_typ:P|lang:en|wc:1|cs:7591|v=4,False,,New Delhi,"The Moms Darling - Baby Shop 163, Kapil Vihar, Pitampura, New Delhi - 110034, Dist.Delhi, Delhi",,
"Blue Printed Baby Cotton Swaddle, 1 To 5 Year, Size: 50x50cm (lxw)",https://www.indiamart.com/proddetail/baby-cotton-swaddle-2852171074897.html?pos=122&kwd=swaddler&tags=CC||||8954.051|Price|product|||NA|rsf:gd-|-qr_nm:gd|res:RC3|com-cf:nl|ptrs:na|ktp:N0|mc:192827|mtp:S|qry_typ:P|lang:en|wc:1|cs:7591|v=4,Radhe Kids Mart,https://www.indiamart.com/radhekidsmartchennai/?pos=122&kwd=swaddler&tags=CC||||8954.051|Price|product|||NA|rsf:gd-|-qr_nm:gd|res:RC3|com-cf:nl|ptrs:na|ktp:N0|mc:192827|mtp:S|qry_typ:P|lang:en|wc:1|cs:7591|v=4,False,Purasawalkam,Chennai,"Door No 51 B Saravana Perumal Street Purasawalkam, Purasawalkam, Chennai - 600084, Dist.Chennai, Tamil Nadu",7942656302,
Cotton Soft Swaddlers/Wrap/Sleeping Bag/Wrapper Envelope Swaddle Adjustable,https://www.indiamart.com/proddetail/cotton-soft-swaddlers-wrap-sleeping-bag-wrapper-envelope-swaddle-adjustable-22797753033.html?pos=123&kwd=swaddler&tags=CC||||8307.81|Price|product|||NA|rsf:gd-|-qr_nm:gd|res:RC3|com-cf:nl|ptrs:na|ktp:N0|mc:192827|mtp:S|qry_typ:P|lang:en|wc:1|cs:7591|v=4,Dream Collection,https://www.indiamart.com/dream-collection-pune/?pos=123&kwd=swaddler&tags=CC||||8307.81|Price|product|||NA|rsf:gd-|-qr_nm:gd|res:RC3|com-cf:nl|ptrs:na|ktp:N0|mc:192827|mtp:S|qry_typ:P|lang:en|wc:1|cs:7591|v=4,False,Rahatani,Pune,"38 FL-A/202 ,, Garmala cly ,, Rahatani, Pune, Maharashtra, 411017 Garmala colony, Rahatani, Pune - 411017, Dist.Pune, Maharashtra",8046073893,
Bamboo Swaddle(Set of 3),https://www.indiamart.com/proddetail/bamboo-swaddle-set-of-3-2852597029555.html?pos=124&kwd=swaddler&tags=CC||||8741.812|Price|product|||NA|rsf:gd-|-qr_nm:gd|res:RC3|com-cf:nl|ptrs:na|ktp:N0|mc:192827|mtp:S|qry_typ:P|lang:en|wc:1|cs:7591|v=4,Keta Anjani Impex,https://www.indiamart.com/ketaanjaniimpex/?pos=124&kwd=swaddler&tags=CC||||8741.812|Price|product|||NA|rsf:gd-|-qr_nm:gd|res:RC3|com-cf:nl|ptrs:na|ktp:N0|mc:192827|mtp:S|qry_typ:P|lang:en|wc:1|cs:7591|v=4,False,Sector 90,Gurugram,"SF-221, 2nd Floor, IT Complex JMD Megapolis, Village Tikri, Sohna Road, Sector 90, Gurugram - 122001, Dist.Gurgaon, Haryana",,
Baby Swaddle,,Kiddies,https://www.indiamart.com/kiddies-company/?pos=125&kwd=swaddler&tags=CC||||8281.036||product|||NA|rsf:gd-|-qr_nm:gd|res:RC3|com-cf:nl|ptrs:na|ktp:N0|mc:192827|mtp:S|qry_typ:P|lang:en|wc:1|cs:7591|v=4,False,harni road,Vadodara,"107 vedant complex meera char rasta harni road HARNI ROAD BAORDA, harni road, Vadodara - 390005, Dist.Vadodara, Gujarat",8047791180,
Musculin Baby Swaddle,https://www.indiamart.com/proddetail/musculin-baby-swaddle-2851525752948.html?pos=126&kwd=swaddler&tags=CC||||8626.744|Price|product|||NA|rsf:gd-|-qr_nm:gd|res:RC3|com-cf:nl|ptrs:na|ktp:N0|mc:192827|mtp:S|qry_typ:P|lang:en|wc:1|cs:7591|v=4,Togs Exports,https://www.indiamart.com/togs-exports/?pos=126&kwd=swaddler&tags=CC||||8626.744|Price|product|||NA|rsf:gd-|-qr_nm:gd|res:RC3|com-cf:nl|ptrs:na|ktp:N0|mc:192827|mtp:S|qry_typ:P|lang:en|wc:1|cs:7591|v=4,False,PALLADAM ROAD,Tiruppur,"NO.2/313 B16, VADUGAN KADU, KUNGUMAM PALAYAM PIRIVU,, PALLADAM ROAD, Tiruppur - 641605, Dist.Coimbatore, Tamil Nadu",8048247120,9779
Assroted Prints 1 Pcs Baby Swaddle,https://www.indiamart.com/proddetail/baby-swaddle-13510577373.html?pos=127&kwd=swaddler&tags=CC||||8239.3955|Price|product|||NA|rsf:gd-|-qr_nm:gd|res:RC3|com-cf:nl|ptrs:na|ktp:N0|mc:192827|mtp:S|qry_typ:P|lang:en|wc:1|cs:7591|v=4,Tiny Toes,https://www.indiamart.com/tiny-toes/?pos=127&kwd=swaddler&tags=CC||||8239.3955|Price|product|||NA|rsf:gd-|-qr_nm:gd|res:RC3|com-cf:nl|ptrs:na|ktp:N0|mc:192827|mtp:S|qry_typ:P|lang:en|wc:1|cs:7591|v=4,False,,Kalyan,"Shop No 4, Jai Sonali Building Dr. Ambedkar road, Kalyan - 421301, Dist.Thane, Maharashtra",8047699360,
Mini Car Random Printed Muslin Swaddle Blanket For Baby By MM - 1 Pc,https://www.indiamart.com/proddetail/mini-car-random-printed-muslin-swaddle-blanket-for-baby-by-mm-1-pc-2849559131330.html?pos=128&kwd=swaddler&tags=CC||||8752.144|Price|product|||NA|rsf:gd-|-qr_nm:gd|res:RC3|com-cf:nl|ptrs:na|ktp:N0|mc:192827|mtp:S|qry_typ:P|lang:en|wc:1|cs:7591|v=4,Glitzz Interiors,https://www.indiamart.com/glitzzinteriors-new-delhi/?pos=128&kwd=swaddler&tags=CC||||8752.144|Price|product|||NA|rsf:gd-|-qr_nm:gd|res:RC3|com-cf:nl|ptrs:na|ktp:N0|mc:192827|mtp:S|qry_typ:P|lang:en|wc:1|cs:7591|v=4,False,,New Delhi,"Glitzz Interiors, 10 D Palm Residency, khasra no 714, opposity DLF Hanuman Mandir, Chattarpur, New Delhi - 110074, Dist.Delhi, Delhi",,
Bamboo Swaddle(Set of 3),https://www.indiamart.com/proddetail/bamboo-swaddle-set-of-3-2852597029555.html?pos=129&kwd=swaddler&tags=CC||||8741.812|Price|product|||NA|rsf:gd-|-qr_nm:gd|res:RC3|com-cf:nl|ptrs:na|ktp:N0|mc:192827|mtp:S|qry_typ:P|lang:en|wc:1|cs:7591|v=4,Keta Anjani Impex,https://www.indiamart.com/ketaanjaniimpex/?pos=129&kwd=swaddler&tags=CC||||8741.812|Price|product|||NA|rsf:gd-|-qr_nm:gd|res:RC3|com-cf:nl|ptrs:na|ktp:N0|mc:192827|mtp:S|qry_typ:P|lang:en|wc:1|cs:7591|v=4,False,Sector 90,Gurugram,"SF-221, 2nd Floor, IT Complex JMD Megapolis, Village Tikri, Sohna Road, Sector 90, Gurugram - 122001, Dist.Gurgaon, Haryana",,
Baby Swaddle,,Kiddies,https://www.indiamart.com/kiddies-company/?pos=130&kwd=swaddler&tags=CC||||8281.036||product|||NA|rsf:gd-|-qr_nm:gd|res:RC3|com-cf:nl|ptrs:na|ktp:N0|mc:192827|mtp:S|qry_typ:P|lang:en|wc:1|cs:7591|v=4,False,harni road,Vadodara,"107 vedant complex meera char rasta harni road HARNI ROAD BAORDA, harni road, Vadodara - 390005, Dist.Vadodara, Gujarat",8047791180,
Musculin Baby Swaddle,https://www.indiamart.com/proddetail/musculin-baby-swaddle-2851525752948.html?pos=131&kwd=swaddler&tags=CC||||8626.744|Price|product|||NA|rsf:gd-|-qr_nm:gd|res:RC3|com-cf:nl|ptrs:na|ktp:N0|mc:192827|mtp:S|qry_typ:P|lang:en|wc:1|cs:7591|v=4,Togs Exports,https://www.indiamart.com/togs-exports/?pos=131&kwd=swaddler&tags=CC||||8626.744|Price|product|||NA|rsf:gd-|-qr_nm:gd|res:RC3|com-cf:nl|ptrs:na|ktp:N0|mc:192827|mtp:S|qry_typ:P|lang:en|wc:1|cs:7591|v=4,False,PALLADAM ROAD,Tiruppur,"NO.2/313 B16, VADUGAN KADU, KUNGUMAM PALAYAM PIRIVU,, PALLADAM ROAD, Tiruppur - 641605, Dist.Coimbatore, Tamil Nadu",8048247120,9779
100% Muslin Swaddle / Towel Combo (pack Of 3),https://www.indiamart.com/proddetail/100-muslin-swaddle-towel-combo-pack-of-3-2854444372412.html?pos=132&kwd=swaddler&tags=CC||||8571.301|Price|product|||NA|rsf:gd-|-qr_nm:gd|res:RC3|com-cf:nl|ptrs:na|ktp:N0|mc:192827|mtp:S|qry_typ:P|lang:en|wc:1|cs:7591|v=4,Zizuka Retail,https://www.indiamart.com/zizuka-retail/?pos=132&kwd=swaddler&tags=CC||||8571.301|Price|product|||NA|rsf:gd-|-qr_nm:gd|res:RC3|com-cf:nl|ptrs:na|ktp:N0|mc:192827|mtp:S|qry_typ:P|lang:en|wc:1|cs:7591|v=4,False,Thiruvananthapuram,Thiruvananthapuram,"Tc 24/3088 Devaswom Board Janction Ushasandhya Devaswom Board Janction Ushasandhya, Thiruvananthapuram, Thiruvananthapuram - 695003, Dist.Thiruvananthapuram, Kerala",,
Printed Baby Swaddle,https://www.indiamart.com/proddetail/baby-swaddle-2850838989255.html?pos=133&kwd=swaddler&tags=CC||||8239.3955|Price|product|||NA|rsf:gd-|-qr_nm:gd|res:RC3|com-cf:nl|ptrs:na|ktp:N0|mc:192827|mtp:S|qry_typ:P|lang:en|wc:1|cs:7591|v=4,Navya,https://www.indiamart.com/navya-shop-kalyan/?pos=133&kwd=swaddler&tags=CC||||8239.3955|Price|product|||NA|rsf:gd-|-qr_nm:gd|res:RC3|com-cf:nl|ptrs:na|ktp:N0|mc:192827|mtp:S|qry_typ:P|lang:en|wc:1|cs:7591|v=4,False,,Kalyan,"Shop No 4/5,Shri Datta Kripa Hsg Soc,Murbad Road,Kalyan,Thane, Kalyan - 421301, Dist.Thane, Maharashtra",8048247115,2865
Baby Swaddle Blanket,https://www.indiamart.com/proddetail/baby-swaddle-blanket-5367227888.html?pos=134&kwd=swaddler&tags=CC||||8778.123|Price|product|||NA|rsf:gd-|-qr_nm:gd|res:RC3|com-cf:nl|ptrs:na|ktp:N0|mc:192827|mtp:S|qry_typ:P|lang:en|wc:1|cs:7591|v=4,Net Paradigm India Private Limited,https://www.indiamart.com/organicandmore-in-63428/?pos=134&kwd=swaddler&tags=CC||||8778.123|Price|product|||NA|rsf:gd-|-qr_nm:gd|res:RC3|com-cf:nl|ptrs:na|ktp:N0|mc:192827|mtp:S|qry_typ:P|lang:en|wc:1|cs:7591|v=4,False,Sector 63,Noida,"D-129, Sector 63, Noida - 201301, Dist.Gautam Budh Nagar, Uttar Pradesh",8048371958,106
Blue Ben Benny Baby Wrapper,https://www.indiamart.com/proddetail/baby-wrapper-16839155391.html?pos=139&kwd=swaddler&tags=CC||||8211.142|Price|product|||NA|rsf:gd-|-qr_nm:gd|res:RC3|com-cf:nl|ptrs:na|ktp:N0|mc:192827|mtp:S|qry_typ:P|lang:en|wc:1|cs:7591|v=4,J.B. International,https://www.indiamart.com/jbinternationalmumbai/?pos=139&kwd=swaddler&tags=CC||||8211.142|Price|product|||NA|rsf:gd-|-qr_nm:gd|res:RC3|com-cf:nl|ptrs:na|ktp:N0|mc:192827|mtp:S|qry_typ:P|lang:en|wc:1|cs:7591|v=4,False,Bandra West,Mumbai,"C/4,Lilaram CHS,Dr Ambedkar Road,Khar West C-4, Lilaram Bhavan, Dr Ambedkar Road, Khar West,401208,Mumbai, Bandra West, Mumbai - 400052, Dist.Mumbai, Maharashtra",8069023915,235
Baby Wrapper,,Shree Traders,https://www.indiamart.com/shree-tradersdelhi/?pos=136&kwd=swaddler&tags=CC||||8752.144||product|||NA|rsf:gd-|-qr_nm:gd|res:RC3|com-cf:nl|ptrs:na|ktp:N0|mc:192827|mtp:S|qry_typ:P|lang:en|wc:1|cs:7591|v=4,False,Shahdara North East delhi,New Delhi,"1/4545 A RAM NAGAR RAM NAGAR, MANDOLI ROAD,110032, Shahdara North East delhi, New Delhi - 110032, Dist.Delhi, Delhi",8048371991,427
Baby Wrapper,https://www.indiamart.com/proddetail/baby-wrapper-2601012530.html?pos=137&kwd=swaddler&tags=CC||||8954.051||product|||NA|rsf:gd-|-qr_nm:gd|res:RC3|com-cf:nl|ptrs:na|ktp:N0|mc:192827|mtp:S|qry_typ:P|lang:en|wc:1|cs:7591|v=4,Utility Textiles,https://www.indiamart.com/utility-textiles/?pos=137&kwd=swaddler&tags=CC||||8954.051||product|||NA|rsf:gd-|-qr_nm:gd|res:RC3|com-cf:nl|ptrs:na|ktp:N0|mc:192827|mtp:S|qry_typ:P|lang:en|wc:1|cs:7591|v=4,False,Anna Nagar Shanthi Colony,Chennai,"AH 231, Ground Floor, 4th Street, Shanthi Colony, Anna Nagar, Anna Nagar Shanthi Colony, Chennai - 600040, Dist.Chennai, Tamil Nadu",8062245137,423
Multicolor Female Baby Wrappers,https://www.indiamart.com/proddetail/baby-wrappers-16751006397.html?pos=138&kwd=swaddler&tags=CC||||8752.144|Price|product|||NA|rsf:gd-|-qr_nm:gd|res:RC3|com-cf:nl|ptrs:na|ktp:N0|mc:192827|mtp:S|qry_typ:P|lang:en|wc:1|cs:7591|v=4,Baby Comfort Everything For Babies,https://www.indiamart.com/babycomfort/?pos=138&kwd=swaddler&tags=CC||||8752.144|Price|product|||NA|rsf:gd-|-qr_nm:gd|res:RC3|com-cf:nl|ptrs:na|ktp:N0|mc:192827|mtp:S|qry_typ:P|lang:en|wc:1|cs:7591|v=4,False,Krishna Nagar,New Delhi,"925-B, Jwala Nagar, Shahdara, Near Indira Park, Krishna Nagar, New Delhi - 110032, Dist.Delhi, Delhi",8062245024,594
Blue Ben Benny Baby Wrapper,https://www.indiamart.com/proddetail/baby-wrapper-16839155391.html?pos=139&kwd=swaddler&tags=CC||||8211.142|Price|product|||NA|rsf:gd-|-qr_nm:gd|res:RC3|com-cf:nl|ptrs:na|ktp:N0|mc:192827|mtp:S|qry_typ:P|lang:en|wc:1|cs:7591|v=4,J.B. International,https://www.indiamart.com/jbinternationalmumbai/?pos=139&kwd=swaddler&tags=CC||||8211.142|Price|product|||NA|rsf:gd-|-qr_nm:gd|res:RC3|com-cf:nl|ptrs:na|ktp:N0|mc:192827|mtp:S|qry_typ:P|lang:en|wc:1|cs:7591|v=4,False,Bandra West,Mumbai,"C/4,Lilaram CHS,Dr Ambedkar Road,Khar West C-4, Lilaram Bhavan, Dr Ambedkar Road, Khar West,401208,Mumbai, Bandra West, Mumbai - 400052, Dist.Mumbai, Maharashtra",8069023915,235
Baby Wrapper,https://www.indiamart.com/proddetail/baby-wrapper-6916901112.html?pos=140&kwd=swaddler&tags=CC||||8559.269||product|||NA|rsf:gd-|-qr_nm:gd|res:RC3|com-cf:nl|ptrs:na|ktp:N0|mc:192827|mtp:S|qry_typ:P|lang:en|wc:1|cs:7591|v=4,Jainum Enterprises,https://www.indiamart.com/jainumenterprises/?pos=140&kwd=swaddler&tags=CC||||8559.269||product|||NA|rsf:gd-|-qr_nm:gd|res:RC3|com-cf:nl|ptrs:na|ktp:N0|mc:192827|mtp:S|qry_typ:P|lang:en|wc:1|cs:7591|v=4,False,Rajwada,Indore,"37, Narsingh Bazar, Rajwada, Indore - 452002, Dist.Indore, Madhya Pradesh",8043887886,
My Kid Baby Wrapper ( Cotton Velvet),,First Touch International,https://www.indiamart.com/firsttouch-international/?pos=141&kwd=swaddler&tags=CC||||8584.299||product|||NA|rsf:gd-|-qr_nm:gd|res:RC3|com-cf:nl|ptrs:na|ktp:N0|mc:192827|mtp:S|qry_typ:P|lang:en|wc:1|cs:7591|v=4,False,Sulur,Coimbatore,"No.1E, Sengathurai Road, Mathialagan Nagar Mathialagan Nagar, Sulur, Coimbatore - 641402, Dist.Coimbatore, Tamil Nadu",8047697382,
Comfortable Baby Sleeping Wrapper,https://www.indiamart.com/proddetail/comfortable-baby-sleeping-wrapper-12712727330.html?pos=142&kwd=swaddler&tags=CC||||8752.144||product|||NA|rsf:gd-|-qr_nm:gd|res:RC3|com-cf:nl|ptrs:na|ktp:N0|mc:192827|mtp:S|qry_typ:P|lang:en|wc:1|cs:7591|v=4,Rishav Handicrafts,https://www.indiamart.com/rishavhandicraft/?pos=142&kwd=swaddler&tags=CC||||8752.144||product|||NA|rsf:gd-|-qr_nm:gd|res:RC3|com-cf:nl|ptrs:na|ktp:N0|mc:192827|mtp:S|qry_typ:P|lang:en|wc:1|cs:7591|v=4,False,Karol Bagh,New Delhi,"No. 30/3232, Beadon Pura, Karol Bagh Saraswati Marg, Karol Bagh, New Delhi - 110005, Dist.Delhi, Delhi",8047669026,
Baby Hooded Wrappers,https://www.indiamart.com/proddetail/baby-hooded-wrappers-18116605062.html?pos=143&kwd=swaddler&tags=CC||||8237.554|Price|product|||NA|rsf:gd-|-qr_nm:gd|res:RC3|com-cf:nl|ptrs:na|ktp:N0|mc:192827|mtp:S|qry_typ:P|lang:en|wc:1|cs:7591|v=4,Ttt Kids & New Born Garment & Accessories,https://www.indiamart.com/ttt-kids-accessories/?pos=143&kwd=swaddler&tags=CC||||8237.554|Price|product|||NA|rsf:gd-|-qr_nm:gd|res:RC3|com-cf:nl|ptrs:na|ktp:N0|mc:192827|mtp:S|qry_typ:P|lang:en|wc:1|cs:7591|v=4,False,Bartan Bazar,Gandhinagar,"302, Nakoda Tower, Near Rajwada, Bartan Bazar, Gandhinagar - 452001, Gujarat",8048361217,269
Swaddler,,Orbit Enterprises,https://www.indiamart.com/orbit-ent/?pos=144&kwd=swaddler&tags=CC||||8211.142||product|||NA|rsf:gd-|-qr_nm:gd|res:RC3|com-cf:nl|ptrs:na|ktp:N0|mc:192827|mtp:S|qry_typ:P|lang:en|wc:1|cs:7591|v=4,False,,Mumbai,"Gali No. 5, 2nd Floor, Diamond Shivagiri House, Khairani Road Nair Wadi Sakinaka, Mumbai - 400072, Dist.Mumbai, Maharashtra",8048372790,681
Fancy Baby Wrapper,https://www.indiamart.com/proddetail/fancy-baby-wrapper-10638549688.html?pos=145&kwd=swaddler&tags=CC||||8210.732||product|||NA|rsf:gd-|-qr_nm:gd|res:RC3|com-cf:nl|ptrs:na|ktp:N0|mc:192827|mtp:S|qry_typ:P|lang:en|wc:1|cs:7591|v=4,Suncity Enterprises,https://www.indiamart.com/suncityentp/?pos=145&kwd=swaddler&tags=CC||||8210.732||product|||NA|rsf:gd-|-qr_nm:gd|res:RC3|com-cf:nl|ptrs:na|ktp:N0|mc:192827|mtp:S|qry_typ:P|lang:en|wc:1|cs:7591|v=4,False,,Vasai,"Gala No. 203, 2nd Floor, Parmar Industrial, Vasai East, Vasai - 401208, Dist.Thane, Maharashtra",8047796091,
Printed Baby Swaddle Wrap,https://www.indiamart.com/proddetail/baby-swaddle-wrap-22378052012.html?pos=146&kwd=swaddler&tags=CC||||8500.97|Price|product|||NA|rsf:gd-|-qr_nm:gd|res:RC3|com-cf:nl|ptrs:na|ktp:N0|mc:192827|mtp:S|qry_typ:P|lang:en|wc:1|cs:7591|v=4,G.K. Tradings,https://www.indiamart.com/g-k-tradings/?pos=146&kwd=swaddler&tags=CC||||8500.97|Price|product|||NA|rsf:gd-|-qr_nm:gd|res:RC3|com-cf:nl|ptrs:na|ktp:N0|mc:192827|mtp:S|qry_typ:P|lang:en|wc:1|cs:7591|v=4,False,Thriprayar,Thrissur,"Ix/626,627, 628 Triprayar Nattika, Thriprayar, Thrissur - 680566, Dist.Thrissur, Kerala",7942560526,
"Pink Cotton Baby Wrapper, Size: Medium",https://www.indiamart.com/proddetail/baby-wrapper-14947542430.html?pos=147&kwd=swaddler&tags=CC||||8211.142|Price|product|||NA|rsf:gd-|-qr_nm:gd|res:RC3|com-cf:nl|ptrs:na|ktp:N0|mc:192827|mtp:S|qry_typ:P|lang:en|wc:1|cs:7591|v=4,Thakkar Enterprises,https://www.indiamart.com/thakkar-enterprises/?pos=147&kwd=swaddler&tags=CC||||8211.142|Price|product|||NA|rsf:gd-|-qr_nm:gd|res:RC3|com-cf:nl|ptrs:na|ktp:N0|mc:192827|mtp:S|qry_typ:P|lang:en|wc:1|cs:7591|v=4,False,Mulund West,Mumbai,"No. 22/5, Powai Chowk, G. G. S. Marg, Mulund West, Mumbai - 400082, Dist.Mumbai, Maharashtra",8043873219,
Baby Wrapper,https://www.indiamart.com/proddetail/baby-wrapper-13443199297.html?pos=148&kwd=swaddler&tags=CC||||8211.142|Price|product|||NA|rsf:gd-|-qr_nm:gd|res:RC3|com-cf:nl|ptrs:na|ktp:N0|mc:192827|mtp:S|qry_typ:P|lang:en|wc:1|cs:7591|v=4,Vasantrai Ratilal And Company,https://www.indiamart.com/vasantrairatilalmumbai/?pos=148&kwd=swaddler&tags=CC||||8211.142|Price|product|||NA|rsf:gd-|-qr_nm:gd|res:RC3|com-cf:nl|ptrs:na|ktp:N0|mc:192827|mtp:S|qry_typ:P|lang:en|wc:1|cs:7591|v=4,False,Masjid Bandar,Mumbai,"26, Chakla Street, Masjid Bunder West, Masjid Bandar, Mumbai - 400003, Dist.Mumbai, Maharashtra",8048247132,4561
Baby Printed Wrappers,https://www.indiamart.com/proddetail/baby-printed-wrappers-3936017373.html?pos=149&kwd=swaddler&tags=CC||||9839.57||product|||NA|rsf:gd-|-qr_nm:gd|res:RC3|com-cf:nl|ptrs:na|ktp:N0|mc:192827|mtp:S|qry_typ:P|lang:en|wc:1|cs:7591|v=4,Ambika Traders,https://www.indiamart.com/bebworld/?pos=149&kwd=swaddler&tags=CC||||9839.57||product|||NA|rsf:gd-|-qr_nm:gd|res:RC3|com-cf:nl|ptrs:na|ktp:N0|mc:192827|mtp:S|qry_typ:P|lang:en|wc:1|cs:7591|v=4,False,Munshi Sadruddin Lane,Kolkata,"No. 7, 3rd Floor, Munshi Sadruddin Lane, Kolkata - 700007, Dist.Kolkata, West Bengal",8048372775,590
Baby Swaddle,,Kidzfavor,https://www.indiamart.com/kidzfavor/?pos=150&kwd=swaddler&tags=CC||||8480.976||product|||NA|rsf:gd-|-qr_nm:gd|res:RC3|com-cf:nl|ptrs:na|ktp:N0|mc:192827|mtp:S|qry_typ:P|lang:en|wc:1|cs:7591|v=4,False,,Fazilka,"H No 43 Street No 3 Babu Lal Fazilka Fazilka, Fazilka - 152123, Dist.Firozpur, Punjab",8047308777,7867
Baby Wrapper,,Melisa baby needs,https://www.indiamart.com/littlechamps-sanvordem/?pos=151&kwd=swaddler&tags=CC||||8295.25|Price|product|||NA|rsf:gd-|-qr_nm:gd|res:RC3|com-cf:nl|ptrs:na|ktp:N0|mc:192827|mtp:S|qry_typ:P|lang:en|wc:1|cs:7591|v=4,False,Silvanagar,Ponda,"Silva Nagar, Silvanagar, Ponda - 403401, Dist.South Goa, Goa",8048247126,1021
Swaddler,,Akbar Woollen,https://www.indiamart.com/akbar-woollen-amroha/?pos=152&kwd=swaddler&tags=CC||||8886.723|Price|product|||NA|rsf:gd-|-qr_nm:gd|res:RC3|com-cf:nl|ptrs:na|ktp:N0|mc:192827|mtp:S|qry_typ:P|lang:en|wc:1|cs:7591|v=4,False,near Victoria public school,Amroha,"Amroha Khass Bahar Chungi Near Victoria School Naugawan Road, near Victoria public school, Amroha - 244221, Dist.Amroha, Uttar Pradesh",8069196721,171
Swaddler,,Baby Line,https://www.indiamart.com/baby-line/?pos=153&kwd=swaddler&tags=CC||||8663.873||product|||NA|rsf:gd-|-qr_nm:gd|res:RC3|com-cf:nl|ptrs:na|ktp:N0|mc:192827|mtp:S|qry_typ:P|lang:en|wc:1|cs:7591|v=4,False,Sanjay Nagar,Bengaluru,"#156,1st Stage, Rmv 2nd Stage, Between Syndicate Bank And Reliance Fresh, Sanjaynagar, Sanjay Nagar, Bengaluru - 560094, Dist.Bengaluru, Karnataka",8062245141,784
Baby Swaddler,,Cute Moms Darling,https://www.indiamart.com/cutemoms-darling/?pos=154&kwd=swaddler&tags=CC||||8752.144||product|||NA|rsf:gd-|-qr_nm:gd|res:RC3|com-cf:nl|ptrs:na|ktp:N0|mc:192827|mtp:S|qry_typ:P|lang:en|wc:1|cs:7591|v=4,False,Rohini,New Delhi,"C-7/112,ROHINI, Rohini, New Delhi - 110085, Dist.Delhi, Delhi",8048372061,572
Knotstots,,Emusa Sustainable Private Limited,https://www.indiamart.com/emusa-sustainable-private-limited-hyderabad/?pos=162&kwd=swaddler&tags=CC||||8786.56|Price|product|||NA|rsf:gd-|-qr_nm:gd|res:RC3|com-cf:nl|ptrs:na|ktp:N0|mc:192827|mtp:S|qry_typ:P|lang:en|wc:1|cs:7591|v=4,False,,Hyderabad,"H No-8-2-293, Plot No - 394, Phase -iii Road Number 81, Hyderabad - 500033, Dist.Hyderabad, Telangana",8048958329,
Baby Swaddle,,Vishal Kids,https://www.indiamart.com/vishal-kids/?pos=166&kwd=swaddler&tags=CC||||8476.868||product|||NA|rsf:gd-|-qr_nm:gd|res:RC3|com-cf:nl|ptrs:na|ktp:N0|mc:192827|mtp:S|qry_typ:P|lang:en|wc:1|cs:7591|v=4,False,Aurangabad,Aurangabad,"House No. 3-5-28 Sarafa Road, Aurangabad, Aurangabad - 431001, Maharashtra",8062245080,517
Soft Swaddle Wrappers Plush,,Shiva Texyarn Limited,https://www.indiamart.com/shivatexyarnlimited-34357699/?pos=157&kwd=swaddler&tags=CC||||8584.299||product|||NA|rsf:gd-|-qr_nm:gd|res:RC3|com-cf:nl|ptrs:na|ktp:N0|mc:192827|mtp:S|qry_typ:P|lang:en|wc:1|cs:7591|v=4,False,,Coimbatore,", Coimbatore, Dist.Coimbatore, Tamil Nadu",8045849946,730
Baby Swaddle,,nn trading co.,https://www.indiamart.com/m-kumarbengaluru/?pos=158&kwd=swaddler&tags=CC||||8663.873||product|||NA|rsf:gd-|-qr_nm:gd|res:RC3|com-cf:nl|ptrs:na|ktp:N0|mc:192827|mtp:S|qry_typ:P|lang:en|wc:1|cs:7591|v=4,False,Virupakshapura,Bengaluru,"no.475,1st floor, rajeev gandhi nagar, Virupakshapura, Bengaluru - 560092, Dist.Bengaluru, Karnataka",8062270227,193
Cotton Muslin Swaddle / Squares,,MND Exports,https://www.indiamart.com/mnd-exports/?pos=159&kwd=swaddler&tags=CC||||8668.838|Price|product|||NA|rsf:gd-|-qr_nm:gd|res:RC3|com-cf:nl|ptrs:na|ktp:N0|mc:192827|mtp:S|qry_typ:P|lang:en|wc:1|cs:7591|v=4,False,,Erode,"36,37,KANNAIYAN STREET,,THIRUNAGAR COLONY, Erode - 638003, Dist.Erode, Tamil Nadu",8048361338,883
Baby Swaddle,,R.K.Exports (Karur) Private Limited,https://www.indiamart.com/the-world-fame-textiles/?pos=160&kwd=swaddler&tags=CC||||8893.88||product|||NA|rsf:gd-|-qr_nm:gd|res:RC3|com-cf:nl|ptrs:na|ktp:N0|mc:192827|mtp:S|qry_typ:P|lang:en|wc:1|cs:7591|v=4,False,Kattumannarkovil,Cuddalore,"494 Subramaniya Koil Street, Kattumannarkovil, Cuddalore - 639002, Dist.Cuddalore, Tamil Nadu",8069033825,371
Soft Swaddle Wrappers Plush,,Shiva Texyarn Limited,https://www.indiamart.com/shivatexyarnlimited-34172348/?pos=161&kwd=swaddler&tags=CC||||8584.299||product|||NA|rsf:gd-|-qr_nm:gd|res:RC3|com-cf:nl|ptrs:na|ktp:N0|mc:192827|mtp:S|qry_typ:P|lang:en|wc:1|cs:7591|v=4,False,East Bashyakaralu Road,Coimbatore,"No.52 R.S.puram, East Bashyakaralu Road, Coimbatore - 641002, Dist.Coimbatore, Tamil Nadu",8045849993,747
Knotstots,,Emusa Sustainable Private Limited,https://www.indiamart.com/emusa-sustainable-private-limited-hyderabad/?pos=162&kwd=swaddler&tags=CC||||8786.56|Price|product|||NA|rsf:gd-|-qr_nm:gd|res:RC3|com-cf:nl|ptrs:na|ktp:N0|mc:192827|mtp:S|qry_typ:P|lang:en|wc:1|cs:7591|v=4,False,,Hyderabad,"H No-8-2-293, Plot No - 394, Phase -iii Road Number 81, Hyderabad - 500033, Dist.Hyderabad, Telangana",8048958329,
Baby Swaddle,,Etexpro Inde,https://www.indiamart.com/etexpro-inde-karur/?pos=163&kwd=swaddler&tags=CC||||8706.263||product|||NA|rsf:gd-|-qr_nm:gd|res:RC3|com-cf:nl|ptrs:na|ktp:N0|mc:192827|mtp:S|qry_typ:P|lang:en|wc:1|cs:7591|v=4,False,,Karur,"29 Kamarajapuram North First Cross, Karur - 639002, Dist.Karur, Tamil Nadu",8069196704,751
soft swaddle wrappers,,Siva Yarn,https://www.indiamart.com/siva-yarn/?pos=164&kwd=swaddler&tags=CC||||8706.587||product|||NA|rsf:gd-|-qr_nm:gd|res:RC3|com-cf:nl|ptrs:na|ktp:N0|mc:192827|mtp:S|qry_typ:P|lang:en|wc:1|cs:7591|v=4,False,,Madurai,"168a/1,Na,Kamarajar Road,Maduraimadurai,Madurai, Madurai - 625009, Dist.Madurai, Tamil Nadu",8048372772,903
sodler,,Meghjyoti Impex Private Limited,https://www.indiamart.com/meghjyoti-impex-private-limited/?pos=165&kwd=swaddler&tags=CC||||8228.275||product|||NA|rsf:gd-|-qr_nm:gd|res:RC3|com-cf:nl|ptrs:na|ktp:N0|mc:192827|mtp:S|qry_typ:P|lang:en|wc:1|cs:7591|v=4,False,Navrangpura Post Office,Ahmedabad,"2-C Dhawal Complex 2nd Floor B/H, Navrangpura Post Office, Ahmedabad - 380009, Dist.Ahmedabad, Gujarat",8048249681,9121
Baby Swaddle,,Vishal Kids,https://www.indiamart.com/vishal-kids/?pos=166&kwd=swaddler&tags=CC||||8476.868||product|||NA|rsf:gd-|-qr_nm:gd|res:RC3|com-cf:nl|ptrs:na|ktp:N0|mc:192827|mtp:S|qry_typ:P|lang:en|wc:1|cs:7591|v=4,False,Aurangabad,Aurangabad,"House No. 3-5-28 Sarafa Road, Aurangabad, Aurangabad - 431001, Maharashtra",8062245080,517
Baby Swaddle Wrapper Muslin,,Times Fibrefill Pvt. Ltd.,https://www.indiamart.com/times-fibrefill-pvt-ltd-kolkata/?pos=167&kwd=swaddler&tags=CC||||9839.57||product|||NA|rsf:gd-|-qr_nm:gd|res:RC3|com-cf:nl|ptrs:na|ktp:N0|mc:192827|mtp:S|qry_typ:P|lang:en|wc:1|cs:7591|v=4,False,,Kolkata,"13th Floor Module No 28, Plot No 3 Sector-v, Salt Lake Salt Lake, Kolkata - 700091, Dist.Kolkata, West Bengal",8069033784,739
Baby Swaddle-Brown,,Okeey Club,https://www.indiamart.com/okeey-club/?pos=168&kwd=swaddler&tags=CC||||9572.14|Price|product|||NA|rsf:gd-|-qr_nm:gd|res:RC3|com-cf:nl|ptrs:na|ktp:N0|mc:192827|mtp:S|qry_typ:P|lang:en|wc:1|cs:7591|v=4,False,,Bhubaneswar,"Ground Floor Plot No-43 Bhouma Nagar Bhubaneswar Khordha Ground Floor Plot No-43 Bhouma, Bhubaneswar - 751001, Dist.Khorda, Odisha",8069017439,610
Muslin Swaddle - Dream Big,,Aariro,https://www.indiamart.com/aariro/?pos=169&kwd=swaddler&tags=CC||||8706.263||product|||NA|rsf:gd-|-qr_nm:gd|res:RC3|com-cf:nl|ptrs:na|ktp:N0|mc:192827|mtp:S|qry_typ:P|lang:en|wc:1|cs:7591|v=4,False,,Karur,"9/1040 Madurai Bye Pass Road Karur Karur 9/1040 Madurai Bye Pass Road Karur Karur, Karur - 639008, Dist.Karur, Tamil Nadu",8045849084,8445
Knots & Tots Swaddle Set- Pack Of 3,,Lil Thugs LLP,https://www.indiamart.com/lil-thugs/?pos=170&kwd=swaddler&tags=CC||||8307.81||product|||NA|rsf:gd-|-qr_nm:gd|res:RC3|com-cf:nl|ptrs:na|ktp:N0|mc:192827|mtp:S|qry_typ:P|lang:en|wc:1|cs:7591|v=4,False,,Pune,"Pl 20,Sn 129/130,Anandpark Parishram Bunglow Aundh,Pune,Pune, Pune - 411007, Dist.Pune, Maharashtra",8047309009,6195
Baby Swaddle,,Softdripp International,https://www.indiamart.com/softdripp-international/?pos=171&kwd=swaddler&tags=CC||||8717.056||product|||NA|rsf:gd-|-qr_nm:gd|res:RC3|com-cf:nl|ptrs:na|ktp:N0|mc:192827|mtp:S|qry_typ:P|lang:en|wc:1|cs:7591|v=4,False,,Salem,"1/2, Balamurugan Street Military Road, Opp. Sakthi Kailash Women College, Salem - 636003, Dist.Salem, Tamil Nadu",8048249691,3176
Baby Swaddle,,The Balgopal,https://www.indiamart.com/the-balgopal/?pos=172&kwd=swaddler&tags=CC||||8211.142||product|||NA|rsf:gd-|-qr_nm:gd|res:RC3|com-cf:nl|ptrs:na|ktp:N0|mc:192827|mtp:S|qry_typ:P|lang:en|wc:1|cs:7591|v=4,False,,Mumbai,"Mulund East, Shri Kripa Building, Mumbai - 400081, Dist.Mumbai, Maharashtra",8048372548,185
Infant Jumpers,,Aarryamaan Knit Fashions,https://www.indiamart.com/aarryamaan-knit-fashions/?pos=173&kwd=swaddler&tags=CC||||8626.744||product|||NA|rsf:gd-|-qr_nm:gd|res:RC3|com-cf:nl|ptrs:na|ktp:N0|mc:192827|mtp:S|qry_typ:P|lang:en|wc:1|cs:7591|v=4,False,,Tiruppur,"9/378, Ground Floor, Karaipudur Road, Veerapandi Via, Karaipudur, Palladam Taluk, Tiruppur - 641605, Dist.Coimbatore, Tamil Nadu",8069023904,871
Swaddle Me,,Shakshi Baby,https://www.indiamart.com/shakshibaby-mumbai/?pos=174&kwd=swaddler&tags=CC||||8211.142|Price|product|||NA|rsf:gd-|-qr_nm:gd|res:RC3|com-cf:nl|ptrs:na|ktp:N0|mc:192827|mtp:S|qry_typ:P|lang:en|wc:1|cs:7591|v=4,False,Kandivali East,Mumbai,"Shop No. 19, E-2, Highway Park, Thakur Complex, Kandivali East, Mumbai - 400101, Dist.Mumbai, Maharashtra",8062245081,904
Oyo Baby Printed Single Swaddling,,Baby Doll,https://www.indiamart.com/baby-doll-kochi/?pos=175&kwd=swaddler&tags=CC||||8507.67||product|||NA|rsf:gd-|-qr_nm:gd|res:RC3|com-cf:nl|ptrs:na|ktp:N0|mc:192827|mtp:S|qry_typ:P|lang:en|wc:1|cs:7591|v=4,False,Vadutha,Ernakulam,"43/3596,Ground Floor, Namboothiris Building, Pallisary Road,Thammanam P O Vadutha,Vadutha,682023,Kochi, Vadutha, Ernakulam - 682032, Dist.Ernakulam, Kerala",8047311003,3308
Animal Kingdom Muslin Swaddle Set,,Lill Mulbery,https://www.indiamart.com/company/31348118/?pos=176&kwd=swaddler&tags=CC||||8663.873|Price|product|||NA|rsf:gd-|-qr_nm:gd|res:RC3|com-cf:nl|ptrs:na|ktp:N0|mc:192827|mtp:S|qry_typ:P|lang:en|wc:1|cs:7591|v=4,False,,Bengaluru,"103, 19th cross, 12th main, HSR Layout Sector 7, Bengaluru - 560102, Dist.Bengaluru, Karnataka",8048249781,8319
Swimpllers,,Bharat Polymers,https://www.indiamart.com/bharatpolymers-rajkot/?pos=177&kwd=swaddler&tags=CC||||8038.093||product|||NA|rsf:gd-|-qr_nm:gd|res:RC3|com-cf:nl|ptrs:na|ktp:N0|mc:192827|mtp:S|qry_typ:P|lang:en|wc:1|cs:7591|v=4,False,Kothariya,Rajkot,"Plot No.20, Floor-atlas Ind Area, Near Sabras Soda, Maldhari Crossinng, National Highway 8- B, Kothariya, Rajkot - 360002, Dist.Rajkot, Gujarat",8048249712,9451
Linen Swaddle,,Zed Aar Overseas,https://www.indiamart.com/zed-aar-overseas/?pos=178&kwd=swaddler&tags=CC||||9704.348||product|||NA|rsf:gd-|-qr_nm:gd|res:RC3|com-cf:nl|ptrs:na|ktp:N0|mc:192827|mtp:S|qry_typ:P|lang:en|wc:1|cs:7591|v=4,False,CHAMPANAGAR,Bhagalpur,"Narga Bazar ZED AAR OVERSEAS, CHAMPANAGAR, Bhagalpur - 812004, Dist.Bhagalpur, Bihar",8048249735,1004
Baby Swaddles,,Stanvik Trading Company,https://www.indiamart.com/stanvik-trading-company/?pos=179&kwd=swaddler&tags=CC||||8663.873||product|||NA|rsf:gd-|-qr_nm:gd|res:RC3|com-cf:nl|ptrs:na|ktp:N0|mc:192827|mtp:S|qry_typ:P|lang:en|wc:1|cs:7591|v=4,False,,Bengaluru,"105,1st Floor,Cbr Aavani Appt,16/1 K No 42/16/1 Hosapalya Main Road,Bengaluru, Bengaluru - 560068, Dist.Bengaluru, Karnataka",8047311026,9699
Baby Swaddle,,nn trading co.,https://www.indiamart.com/m-kumarbengaluru/?pos=180&kwd=swaddler&tags=CC||||8663.873||product|||NA|rsf:gd-|-qr_nm:gd|res:RC3|com-cf:nl|ptrs:na|ktp:N0|mc:192827|mtp:S|qry_typ:P|lang:en|wc:1|cs:7591|v=4,False,Virupakshapura,Bengaluru,"no.475,1st floor, rajeev gandhi nagar, Virupakshapura, Bengaluru - 560092, Dist.Bengaluru, Karnataka",8062270227,193
Swaddle (set of 20,,Tiny Giggles LLP,https://www.indiamart.com/tiny-giggles-llp/?pos=181&kwd=swaddler&tags=CC||||8211.142||product|||NA|rsf:gd-|-qr_nm:gd|res:RC3|com-cf:nl|ptrs:na|ktp:N0|mc:192827|mtp:S|qry_typ:P|lang:en|wc:1|cs:7591|v=4,False,,Mumbai,"F. No. 501 Gaurav Garden Comp, Bunder Pakhadi Rd Gunjan B Chs Ltd, Mumbai - 400067, Dist.Mumbai, Maharashtra",8069264895,534
Mulmul Swaddle,,Mymini Buds,https://www.indiamart.com/mymini-buds-tiruppur/?pos=182&kwd=swaddler&tags=CC||||8626.744|Price|product|||NA|rsf:gd-|-qr_nm:gd|res:RC3|com-cf:nl|ptrs:na|ktp:N0|mc:192827|mtp:S|qry_typ:P|lang:en|wc:1|cs:7591|v=4,False,Tirupur,Tiruppur,"No.63a, Sankar Nagar, Dharapuram Road, Tirupur, Tiruppur - 641604, Dist.Coimbatore, Tamil Nadu",8048370135,6660
Baby Wrapper,,Super Care Sales,https://www.indiamart.com/super-care-sales/?pos=183&kwd=swaddler&tags=CC||||8211.142||product|||NA|rsf:gd-|-stype:graph|qr_nm:gd|res:RC2|com-cf:nl|ptrs:na|ktp:N0|mc:192827|mtp:S|qry_typ:P|lang:en|wc:1|cs:8867|v=4,False,Mulund West,Mumbai,"Shanti Industrial Estate, Unit No. 235, A-wing , 2nd Floor Sarcjan Nadu Road , Mukund, Mulund West, Mumbai - 400080, Dist.Mumbai, Maharashtra",8069707357,938
Cotton Muslin Swaddle Blanket,,Earthy Lanes,https://www.indiamart.com/earthy-lanes-indore/?pos=184&kwd=swaddler&tags=CC||||8559.269||product|||NA|rsf:gd-|-stype:graph|qr_nm:gd|res:RC2|com-cf:nl|ptrs:na|ktp:N0|mc:192827|mtp:S|qry_typ:P|lang:en|wc:1|cs:8867|v=4,False,Sangam Nagar,Indore,"107, Sector B Sangam Nagar Indore Indore, Sangam Nagar, Indore - 452006, Dist.Indore, Madhya Pradesh",8069023795,385
Baby Wrapper,,Super Care Sales,https://www.indiamart.com/super-care-sales/?pos=185&kwd=swaddler&tags=CC||||8211.142||product|||NA|rsf:gd-|-stype:graph|qr_nm:gd|res:RC2|com-cf:nl|ptrs:na|ktp:N0|mc:192827|mtp:S|qry_typ:P|lang:en|wc:1|cs:8867|v=4,False,Mulund West,Mumbai,"Shanti Industrial Estate, Unit No. 235, A-wing , 2nd Floor Sarcjan Nadu Road , Mukund, Mulund West, Mumbai - 400080, Dist.Mumbai, Maharashtra",8069707357,938
Baby Wrappers,,Baby World,https://www.indiamart.com/babyworld-kakinada/?pos=186&kwd=swaddler&tags=CC||||9183.349||product|||NA|rsf:gd-|-stype:graph|qr_nm:gd|res:RC2|com-cf:nl|ptrs:na|ktp:N0|mc:192827|mtp:S|qry_typ:P|lang:en|wc:1|cs:8867|v=4,False,Main Road,Kakinada,"Door No. 27-9-7/1, Pulavarthibari Street, Main Road, East Godavari District, Main Road, Kakinada - 533001, Dist.East Godavari, Andhra Pradesh",8048371613,247
Baby Wrapper,,Aakash Handloom,https://www.indiamart.com/aakash-handloom/?pos=187&kwd=swaddler&tags=CC||||8319.425||product|||NA|rsf:gd-|-stype:graph|qr_nm:gd|res:RC2|com-cf:nl|ptrs:na|ktp:N0|mc:192827|mtp:S|qry_typ:P|lang:en|wc:1|cs:8867|v=4,False,Sardarpura,Jodhpur,"Shop. No. 6, Near Hanuman Temple , St B Road, Sardarpura, Sardarpura, Jodhpur - 342001, Dist.Jodhpur, Rajasthan",8048264065,609
"Multicolor King Soft Mink Blankets 2500 gram, Size: Double, The Textile",https://www.indiamart.com/proddetail/soft-mink-blankets-2500-gram-2850516022673.html?pos=188&kwd=swaddler&tags=||||9045.955|Price|product|||MDC|rsf:gd-|-stype:graph|qr_nm:gd|res:RC2|com-cf:nl|ptrs:na|ktp:N0|mc:192827|mtp:S|qry_typ:P|lang:en|wc:1|cs:8867|v=4,The Textiles,https://www.indiamart.com/textiles-kanpur/?pos=188&kwd=swaddler&tags=||||9045.955|Price|product|||MDC|rsf:gd-|-stype:graph|qr_nm:gd|res:RC2|com-cf:nl|ptrs:na|ktp:N0|mc:192827|mtp:S|qry_typ:P|lang:en|wc:1|cs:8867|v=4,False,Meerpur Cantt,Kanpur,"66, Faithful Ganj Kanpur Nagar, Meerpur Cantt, Kanpur - 208004, Uttar Pradesh",7942865242,
Baby Wrapper,https://www.indiamart.com/proddetail/baby-wrapper-23018258233.html?pos=189&kwd=swaddler&tags=||||8752.144|Price|product|||NA|rsf:gd-|-stype:graph|qr_nm:gd|res:RC2|com-cf:nl|ptrs:na|ktp:N0|mc:192827|mtp:S|qry_typ:P|lang:en|wc:1|cs:8867|v=4,PRG Mart,https://www.indiamart.com/prg-mart/?pos=189&kwd=swaddler&tags=||||8752.144|Price|product|||NA|rsf:gd-|-stype:graph|qr_nm:gd|res:RC2|com-cf:nl|ptrs:na|ktp:N0|mc:192827|mtp:S|qry_typ:P|lang:en|wc:1|cs:8867|v=4,False,,Delhi,"112 Uttam Nagar, Delhi - 110059, Dist.Delhi, Delhi",8048371711,617
Baby wrapper,https://www.indiamart.com/proddetail/baby-wrapper-21580925373.html?pos=190&kwd=swaddler&tags=||||8747.203|Price|product|||NA|rsf:gd-|-stype:graph|qr_nm:gd|res:RC2|com-cf:nl|ptrs:na|ktp:N0|mc:192827|mtp:S|qry_typ:P|lang:en|wc:1|cs:8867|v=4,Kanha Traders,https://www.indiamart.com/kanha-traders-panipat/?pos=190&kwd=swaddler&tags=||||8747.203|Price|product|||NA|rsf:gd-|-stype:graph|qr_nm:gd|res:RC2|com-cf:nl|ptrs:na|ktp:N0|mc:192827|mtp:S|qry_typ:P|lang:en|wc:1|cs:8867|v=4,False,Sethi Chowk,Panipat,"Ward No. 800/8, Sethi Chowk, Panipat - 132103, Dist.Panipat, Haryana",8047680445,
"Baby blanket, Size: Singe",https://www.indiamart.com/proddetail/baby-blanket-2854061876588.html?pos=191&kwd=swaddler&tags=||||8747.203|Price|product|||NA|rsf:gd-|-stype:graph|qr_nm:gd|res:RC2|com-cf:nl|ptrs:na|ktp:N0|mc:192827|mtp:S|qry_typ:P|lang:en|wc:1|cs:8867|v=4,Vansh Handloom,https://www.indiamart.com/company/220884842/?pos=191&kwd=swaddler&tags=||||8747.203|Price|product|||NA|rsf:gd-|-stype:graph|qr_nm:gd|res:RC2|com-cf:nl|ptrs:na|ktp:N0|mc:192827|mtp:S|qry_typ:P|lang:en|wc:1|cs:8867|v=4,False,,Panipat,", Panipat - 132103, Dist.Panipat, Haryana",8048372563,347
Swaddler,,Babies Bloom Store,https://www.indiamart.com/babies-bloom-store/?pos=192&kwd=swaddler&tags=CC||||8752.144||product|||NA|rsf:gr-|-stype:graph|qr_nm:gd|res:RC2|com-cf:nl|ptrs:na|ktp:N0|mc:192827|mtp:S|qry_typ:P|lang:en|wc:1|cs:8867|v=4,False,Paschim Vihar,New Delhi,"IST FLOOR,670,GH-14,,PASCHIM VIHAR,,,, Paschim Vihar, New Delhi - 110087, Dist.Delhi, Delhi",8062245014,210
Swaddler,,Aara Exports,https://www.indiamart.com/aara-exports-erode/?pos=193&kwd=swaddler&tags=BA||||8668.838||product|||TS|rsf:gr-|-stype:graph|qr_nm:gd|res:RC2|com-cf:nl|ptrs:na|ktp:N0|mc:192827|mtp:S|qry_typ:P|lang:en|wc:1|cs:8867|v=4,False,Karungalpalayam,Erode,"193/4, Ramamoorthi Nagar, Karungalpalayam, Karungalpalayam, Erode - 638003, Dist.Erode, Tamil Nadu",7949372457,
Swaddler,https://www.indiamart.com/proddetail/swaddler-2854007356630.html?pos=194&kwd=swaddler&tags=CC||||8747.203|Price|product|||TS|rsf:gr-|-stype:graph|qr_nm:gd|res:RC2|com-cf:nl|ptrs:na|ktp:N0|mc:192827|mtp:S|qry_typ:P|lang:en|wc:1|cs:8867|v=4,Tulsi Handicraft,https://www.indiamart.com/tulsihandicraftpanipat/?pos=194&kwd=swaddler&tags=CC||||8747.203|Price|product|||TS|rsf:gr-|-stype:graph|qr_nm:gd|res:RC2|com-cf:nl|ptrs:na|ktp:N0|mc:192827|mtp:S|qry_typ:P|lang:en|wc:1|cs:8867|v=4,False,Netaji Colony,Panipat,"10, Gangapuri Road, Netaji Colony, Panipat - 132103, Dist.Panipat, Haryana",7942837797,
Swaddler,,L T Textiles,https://www.indiamart.com/lttextiles/?pos=195&kwd=swaddler&tags=BA||||8752.144||product|||MDC|rsf:gr-|-stype:graph|qr_nm:gd|res:RC2|com-cf:nl|ptrs:na|ktp:N0|mc:192827|mtp:S|qry_typ:P|lang:en|wc:1|cs:8867|v=4,False,Pahari Dhiraj,New Delhi,"5189-90 Main Road, Sadar Bazar, Pahari Dhiraj, New Delhi - 110006, Dist.Delhi, Delhi",7942958455,
Swaddler,https://www.indiamart.com/proddetail/swaddler-2854328300030.html?pos=196&kwd=swaddler&tags=BA||||8706.263|Price|product|||MDC|rsf:gr-|-stype:graph|qr_nm:gd|res:RC2|com-cf:nl|ptrs:na|ktp:N0|mc:192827|mtp:S|qry_typ:P|lang:en|wc:1|cs:8867|v=4,RKND Traders,https://www.indiamart.com/rknd-traders/?pos=196&kwd=swaddler&tags=BA||||8706.263|Price|product|||MDC|rsf:gr-|-stype:graph|qr_nm:gd|res:RC2|com-cf:nl|ptrs:na|ktp:N0|mc:192827|mtp:S|qry_typ:P|lang:en|wc:1|cs:8867|v=4,False,,Karur,"No.86/66, Mettu Street, Karur - 639001, Dist.Karur, Tamil Nadu",8045730806,
