product_title,product_link,company_name,company_link,is_verified_exporter,city_region,city,address_details,phone_number,phone_number_extension
Chic Buddy Silicone Baby Tiny Cup with Spoon for Infants First Stage Training,https://www.indiamart.com/proddetail/chic-buddy-silicone-baby-tiny-cup-with-spoon-for-infants-first-stage-training-2848988232762.html?pos=1&kwd=training cup&tags=BA||||8786.56|Price|product|||TS|rsf:gd-|-stype:attr=1|qr_nm:gd|res:RC2|com-cf:nl|ptrs:na|ktp:N0|mc:40137|mtp:S|qry_typ:P|lang:en|wc:2|flavl:0|cs:9592|v=4,Totcase Services Private Limited,https://www.totcase.com/?pos=1&kwd=training cup&tags=BA||||8786.56|Price|product|||TS|rsf:gd-|-stype:attr=1|qr_nm:gd|res:RC2|com-cf:nl|ptrs:na|ktp:N0|mc:40137|mtp:S|qry_typ:P|lang:en|wc:2|flavl:0|cs:9592|v=4,False,Alwal,Hyderabad,"1-4-177/ A13/402 Shivasai Residency Greenwood Colony Old Alwal, Alwal, Hyderabad - 500010, Dist.Hyderabad, Telangana",8045910096,
Dolphin Multicolor Champion Sipping Cup II,https://www.indiamart.com/proddetail/champion-sipping-cup-ii-2597195788.html?pos=2&kwd=training cup&tags=BB||||8752.144|Price|product|||TS|rsf:gd-|-stype:attr=1|qr_nm:gd|res:RC2|com-cf:nl|ptrs:na|ktp:N0|mc:40137|mtp:S|qry_typ:P|lang:en|wc:2|flavl:0|cs:9592|v=4,Dolphin Baby Product,https://www.dolphinbabyproducts.com/?pos=2&kwd=training cup&tags=BB||||8752.144|Price|product|||TS|rsf:gd-|-stype:attr=1|qr_nm:gd|res:RC2|com-cf:nl|ptrs:na|ktp:N0|mc:40137|mtp:S|qry_typ:P|lang:en|wc:2|flavl:0|cs:9592|v=4,False,Inderlok,New Delhi,"No. 488, 1st Floor, Shahzada Bagh, Industrial Area Phase 1, Inderlok, New Delhi - 110035, Dist.Delhi, Delhi",8048965296,
Baby Cup With Flip Straw,https://www.indiamart.com/proddetail/baby-cup-with-flip-straw-4292202612.html?pos=3&kwd=training cup&tags=BB||||8223.226|Price|product|||MDC|rsf:gd-|-stype:attr=1|qr_nm:gd|res:RC2|com-cf:nl|ptrs:na|ktp:N0|mc:40137|mtp:S|qry_typ:P|lang:en|wc:2|flavl:0|cs:9592|v=4,Wecare Solutions,https://www.indiamart.com/wecare-solutions/?pos=3&kwd=training cup&tags=BB||||8223.226|Price|product|||MDC|rsf:gd-|-stype:attr=1|qr_nm:gd|res:RC2|com-cf:nl|ptrs:na|ktp:N0|mc:40137|mtp:S|qry_typ:P|lang:en|wc:2|flavl:0|cs:9592|v=4,False,Valiv,Thane,"Gala No. F-19-20, 1st Floor, Rajprabha Anand Industrial Estate Naikpada, Waliv, Valiv, Thane - 401208, Dist.Thane, Maharashtra",8047631791,
"Twinkle Blue And White Johhny Ample Training Cup, 3-12 Months",https://www.indiamart.com/proddetail/johhny-ample-training-cup-23528593348.html?pos=4&kwd=training cup&tags=BA||||8228.275|Price|product|||TS|rsf:gd-|-stype:attr=1|qr_nm:gd|res:RC2|com-cf:nl|ptrs:na|ktp:N0|mc:40137|mtp:S|qry_typ:P|lang:en|wc:2|flavl:0|cs:9592|v=4,Madhu Products,https://www.indiamart.com/madhu-products-ahmedabad/?pos=4&kwd=training cup&tags=BA||||8228.275|Price|product|||TS|rsf:gd-|-stype:attr=1|qr_nm:gd|res:RC2|com-cf:nl|ptrs:na|ktp:N0|mc:40137|mtp:S|qry_typ:P|lang:en|wc:2|flavl:0|cs:9592|v=4,False,Saraspur,Ahmedabad,"825, Kadiawad, Saraspur, Saraspur, Ahmedabad - 380018, Dist.Ahmedabad, Gujarat",8046075412,
"Round Pink 200ml Baby Training Cup, Capacity: 150 mL, 3-12 Months",https://www.indiamart.com/proddetail/200ml-baby-training-cup-2851537241897.html?pos=5&kwd=training cup&tags=BA||||8769.508|Price|product|||MDC|rsf:gd-|-stype:attr=1|qr_nm:gd|res:RC2|com-cf:nl|ptrs:na|ktp:N0|mc:40137|mtp:S|qry_typ:P|lang:en|wc:2|flavl:0|cs:9592|v=4,Anand Enterprises,https://www.indiamart.com/anand-enterprisesfaridabad/?pos=5&kwd=training cup&tags=BA||||8769.508|Price|product|||MDC|rsf:gd-|-stype:attr=1|qr_nm:gd|res:RC2|com-cf:nl|ptrs:na|ktp:N0|mc:40137|mtp:S|qry_typ:P|lang:en|wc:2|flavl:0|cs:9592|v=4,False,Sect,Faridabad,"72 Kheri Road Kastori Faridabad, Sect, Faridabad - 121002, Dist.Faridabad, Haryana",7942703101,
"167ml Ocean Delight One Scoop Cup - P02615, For Restaurant",https://www.indiamart.com/proddetail/167ml-ocean-delight-one-scoop-cup-p02615-2854620801030.html?pos=6&kwd=training cup&tags=BB||||8778.123|Price|product|||TS|rsf:gd-|-stype:attr=1|qr_nm:gd|res:RC2|com-cf:nl|ptrs:na|ktp:N0|mc:40137|mtp:S|qry_typ:P|lang:en|wc:2|flavl:0|cs:9592|v=4,Horecamate,https://www.indiamart.com/horecamate/?pos=6&kwd=training cup&tags=BB||||8778.123|Price|product|||TS|rsf:gd-|-stype:attr=1|qr_nm:gd|res:RC2|com-cf:nl|ptrs:na|ktp:N0|mc:40137|mtp:S|qry_typ:P|lang:en|wc:2|flavl:0|cs:9592|v=4,False,Sector 8,Noida,"28 B, D4 Sector 82 Udyog Vihar Noida Gautambuddha Nagar Uttar Pradesh, Sector 8, Noida - 201301, Dist.Gautam Budh Nagar, Uttar Pradesh",7949091631,
Plastic Baby Straw Sipper Cup - BLUE,https://www.indiamart.com/proddetail/baby-straw-sipper-cup-blue-2852506857955.html?pos=7&kwd=training cup&tags=CC||||8752.144|Price|product|||TS|rsf:gd-|-stype:attr=1|qr_nm:gd|res:RC2|com-cf:nl|ptrs:na|ktp:N0|mc:40137|mtp:S|qry_typ:P|lang:en|wc:2|flavl:0|cs:9592|v=4,Ekta Overseas,https://www.indiamart.com/ektaoverseas-newdelhi/?pos=7&kwd=training cup&tags=CC||||8752.144|Price|product|||TS|rsf:gd-|-stype:attr=1|qr_nm:gd|res:RC2|com-cf:nl|ptrs:na|ktp:N0|mc:40137|mtp:S|qry_typ:P|lang:en|wc:2|flavl:0|cs:9592|v=4,False,Shahdara,New Delhi,"1/95, Gali No.3, Near Navjeevan Phisical Center, Vishwas Nagar, Shahdara,, Shahdara, New Delhi - 110032, Dist.Delhi, Delhi",7942628926,
"Transparent Training Cup, Size: 100 ml",https://www.indiamart.com/proddetail/training-cup-23864881448.html?pos=8&kwd=training cup&tags=CC||||8281.036||product|||TS|rsf:gd-|-stype:attr=1|qr_nm:gd|res:RC2|com-cf:nl|ptrs:na|ktp:N0|mc:40137|mtp:S|qry_typ:P|lang:en|wc:2|flavl:0|cs:9592|v=4,Hi Pek Enterprise,https://www.hipekenterprise.com/?pos=8&kwd=training cup&tags=CC||||8281.036||product|||TS|rsf:gd-|-stype:attr=1|qr_nm:gd|res:RC2|com-cf:nl|ptrs:na|ktp:N0|mc:40137|mtp:S|qry_typ:P|lang:en|wc:2|flavl:0|cs:9592|v=4,False,Makarpura Gidc,Vadodara,"282/A-1/20, G I D C, Makarpura, Makarpura Gidc, Makarpura Gidc, Vadodara - 390010, Dist.Vadodara, Gujarat",8046070279,
"Small Wonder Blue Training Cup, 3-12 Months",https://www.indiamart.com/proddetail/training-cup-25294185155.html?pos=9&kwd=training cup&tags=CC||||8238.463|Price|product|||TS|rsf:gd-|-stype:attr=1|qr_nm:gd|res:RC2|com-cf:nl|ptrs:na|ktp:N0|mc:40137|mtp:S|qry_typ:P|lang:en|wc:2|flavl:0|cs:9592|v=4,Chemco Plastic Industries Pvt. Ltd.,https://www.indiamart.com/chemcoplastic/?pos=9&kwd=training cup&tags=CC||||8238.463|Price|product|||TS|rsf:gd-|-stype:attr=1|qr_nm:gd|res:RC2|com-cf:nl|ptrs:na|ktp:N0|mc:40137|mtp:S|qry_typ:P|lang:en|wc:2|flavl:0|cs:9592|v=4,False,Colaba,Silvassa,"Survey No 227/1/1, Chemco Complex, Silvassa Sayali Road, Colaba, Silvassa - 396230, Dist.Dadra and Nagar Haveli and Daman and Diu, Dadra and Nagar Haveli and Daman and Diu",8048616523,
"Plastic Baby Training Cup, 3-12 Months",https://www.indiamart.com/proddetail/baby-training-cup-2852940874091.html?pos=10&kwd=training cup&tags=CC||||8752.144||product|||TS|rsf:gd-|-stype:attr=1|qr_nm:gd|res:RC2|com-cf:nl|ptrs:na|ktp:N0|mc:40137|mtp:S|qry_typ:P|lang:en|wc:2|flavl:0|cs:9592|v=4,Dua Traders,https://www.indiamart.com/duatraders-delhi/?pos=10&kwd=training cup&tags=CC||||8752.144||product|||TS|rsf:gd-|-stype:attr=1|qr_nm:gd|res:RC2|com-cf:nl|ptrs:na|ktp:N0|mc:40137|mtp:S|qry_typ:P|lang:en|wc:2|flavl:0|cs:9592|v=4,False,Mandoli,New Delhi,"Plot No. 8, Kh No. 4/24, Mela Ram Vatika, E-block, JR Complex No. 4, Mandoli, Sevadham, Mandoli, New Delhi - 110093, Dist.Delhi, Delhi",8048971741,
"Orange and White 200ml Plastic Pop Up Training Cup, 1-3 Years",https://www.indiamart.com/proddetail/200ml-plastic-pop-up-training-cup-25743154412.html?pos=11&kwd=training cup&tags=CC||||8752.144|Price|product|||MDC|rsf:gd-|-stype:attr=1|qr_nm:gd|res:RC2|com-cf:nl|ptrs:na|ktp:N0|mc:40137|mtp:S|qry_typ:P|lang:en|wc:2|flavl:0|cs:9592|v=4,Little Kingdom Baby Product,https://www.indiamart.com/little-kingdombaby-product/?pos=11&kwd=training cup&tags=CC||||8752.144|Price|product|||MDC|rsf:gd-|-stype:attr=1|qr_nm:gd|res:RC2|com-cf:nl|ptrs:na|ktp:N0|mc:40137|mtp:S|qry_typ:P|lang:en|wc:2|flavl:0|cs:9592|v=4,False,Bawana,New Delhi,"Plot No. 16, PKT-G, Sector-3, DSIIDC, Bawana, North West Delhi, Bawana, New Delhi - 110039, Dist.Delhi, Delhi",8047648589,
Baby Sipper Bottle,https://www.indiamart.com/proddetail/baby-sipper-bottle-2854026734862.html?pos=12&kwd=training cup&tags=CC||||8038.093|Price|product|||TS|rsf:gd-|-stype:attr=1|qr_nm:gd|res:RC2|com-cf:nl|ptrs:na|ktp:N0|mc:40137|mtp:S|qry_typ:P|lang:en|wc:2|flavl:0|cs:9592|v=4,Kavya Kitchenware,https://www.capiliteindia.com/?pos=12&kwd=training cup&tags=CC||||8038.093|Price|product|||TS|rsf:gd-|-stype:attr=1|qr_nm:gd|res:RC2|com-cf:nl|ptrs:na|ktp:N0|mc:40137|mtp:S|qry_typ:P|lang:en|wc:2|flavl:0|cs:9592|v=4,False,Mavdi,Rajkot,"Street No. 3, Patel Nagar, 40 Feet Om Nagar Road, 150 Feet Ring Road, Mavdi, Rajkot - 360004, Dist.Rajkot, Gujarat",8047628137,
"Screw Cap CREAMY Kid Cup, Capacity: 100 mL",https://www.indiamart.com/proddetail/kid-cup-2853791812933.html?pos=13&kwd=training cup&tags=CC||||8752.144|Price|product|||MDC|rsf:gd-|-stype:attr=1|qr_nm:gd|res:RC2|com-cf:nl|ptrs:na|ktp:N0|mc:40137|mtp:S|qry_typ:P|lang:en|wc:2|flavl:0|cs:9592|v=4,Shopindia,https://www.indiamart.com/shopindia-delhi/?pos=13&kwd=training cup&tags=CC||||8752.144|Price|product|||MDC|rsf:gd-|-stype:attr=1|qr_nm:gd|res:RC2|com-cf:nl|ptrs:na|ktp:N0|mc:40137|mtp:S|qry_typ:P|lang:en|wc:2|flavl:0|cs:9592|v=4,False,Khyala,New Delhi,"F/F, RZ-129 Old No.RZ-57, West Block, Vishnu Garden, Khyala, New Delhi - 110018, Dist.Delhi, Delhi",8047832403,
"Baby Infant PP Water/Juice Training Gravity Soft Spout Sipper Cup with Handles,",https://www.indiamart.com/proddetail/baby-infant-pp-water-juice-training-gravity-soft-spout-sipper-cup-with-handles-2852637751430.html?pos=14&kwd=training cup&tags=||||8663.873|Price|product|||TS|rsf:gd-|-stype:attr=1|qr_nm:gd|res:RC2|com-cf:nl|ptrs:na|ktp:N0|mc:40137|mtp:S|qry_typ:P|lang:en|wc:2|flavl:0|cs:9592|v=4,Variety Gift & Stationery,https://www.varietygifts.in/?pos=14&kwd=training cup&tags=||||8663.873|Price|product|||TS|rsf:gd-|-stype:attr=1|qr_nm:gd|res:RC2|com-cf:nl|ptrs:na|ktp:N0|mc:40137|mtp:S|qry_typ:P|lang:en|wc:2|flavl:0|cs:9592|v=4,False,Chickpet,Bengaluru,"14, 1st Cross, BBT Street, Mamulpet, Chickpet, Bengaluru - 560053, Dist.Bengaluru, Karnataka",8048272145,
"Transparent Plastic Baby Training Sipper Bottle, Capacity: 100 mL",https://www.indiamart.com/proddetail/plastic-baby-training-sipper-bottle-20313700597.html?pos=15&kwd=training cup&tags=||||8876.815|Price|product|||MDC|rsf:gd-|-stype:attr=1|qr_nm:gd|res:RC2|com-cf:nl|ptrs:na|ktp:N0|mc:40137|mtp:S|qry_typ:P|lang:en|wc:2|cs:8829|v=4,Tushar Sales Agency,https://www.indiamart.com/tushar-sales-agency/?pos=15&kwd=training cup&tags=||||8876.815|Price|product|||MDC|rsf:gd-|-stype:attr=1|qr_nm:gd|res:RC2|com-cf:nl|ptrs:na|ktp:N0|mc:40137|mtp:S|qry_typ:P|lang:en|wc:2|cs:8829|v=4,False,,Nagpur,"House No 364, Behind Hanuman Mandir, Kasarpura, Nagpur - 440002, Dist.Nagpur, Maharashtra",8047517600,
Baby glass feeding bottle with silicon nipple Nd training handle,,Priyanshi International,https://www.indiamart.com/priyanshi-international-uttarpradesh/?pos=16&kwd=training cup&tags=||||8752.144|Price|product|||MDC|rsf:gd-|-stype:attr=1|qr_nm:gd|res:RC2|com-cf:nl|ptrs:na|ktp:N0|mc:40137|mtp:S|qry_typ:P|lang:en|wc:2|cs:8829|v=4,False,,New Delhi,"3,PROP NO S228,SCHOOL BLOCK,SHAKARPUR UGF, 3, Prop No S228, School Block, Shakarpur,110092, New Delhi - 110092, Dist.Delhi, Delhi",7942676139,
"Baby Feeding Set For Kids And Toddlers,Children Children Dinnerware Set 8179",https://www.indiamart.com/proddetail/baby-feeding-set-for-kids-and-toddlers-children-children-dinnerware-set-8179-2853261610273.html?pos=17&kwd=training cup&tags=||||8038.093|Price|product|||TS|rsf:gd-|-stype:attr=1|qr_nm:gd|res:RC2|com-cf:nl|ptrs:na|ktp:N0|mc:40137|mtp:S|qry_typ:P|lang:en|wc:2|cs:8829|v=4,Deodap,https://www.indiamart.com/deodap/?pos=17&kwd=training cup&tags=||||8038.093|Price|product|||TS|rsf:gd-|-stype:attr=1|qr_nm:gd|res:RC2|com-cf:nl|ptrs:na|ktp:N0|mc:40137|mtp:S|qry_typ:P|lang:en|wc:2|cs:8829|v=4,False,Rajkot,Rajkot,"plot No. 9 Behind Patanjali Werhouse, Ruda Transport, Saat Hanuman Ahemdabad Road, Rajkot, Rajkot - 360005, Dist.Rajkot, Gujarat",8048972316,
Born Baby Shipper Bottle,https://www.indiamart.com/proddetail/born-baby-shipper-bottle-2853067056055.html?pos=18&kwd=training cup&tags=||||8038.093|Price|product|||TS|rsf:gd-|-stype:attr=1|qr_nm:gd|res:RC2|com-cf:nl|ptrs:na|ktp:N0|mc:40137|mtp:S|qry_typ:P|lang:en|wc:2|cs:8829|v=4,N K Enterprise,https://www.indiamart.com/nkenterpriseindia/?pos=18&kwd=training cup&tags=||||8038.093|Price|product|||TS|rsf:gd-|-stype:attr=1|qr_nm:gd|res:RC2|com-cf:nl|ptrs:na|ktp:N0|mc:40137|mtp:S|qry_typ:P|lang:en|wc:2|cs:8829|v=4,False,Vavdi,Rajkot,"B/H Krishna Park, Jivraj Industrial Area 2,Revenue Survey No.47 Plot No.17, Vavdi Main Road, Gondal Road, Vavdi, Rajkot - 360004, Dist.Rajkot, Gujarat",7942722569,
Baby Feeding Set For Kids And Toddlers (7 Pcs Set),https://www.indiamart.com/proddetail/baby-feeding-set-for-kids-and-toddlers-7-pcs-set-2854779881255.html?pos=19&kwd=training cup&tags=||||8692.544|Price|product|||MDC|rsf:gd-|-stype:attr=1|qr_nm:gd|res:RC2|com-cf:nl|ptrs:na|ktp:N0|mc:40137|mtp:S|qry_typ:P|lang:en|wc:2|cs:8829|v=4,Demrot Bangles And Manufacture,https://www.indiamart.com/demrotbanglesmanufacture/?pos=19&kwd=training cup&tags=||||8692.544|Price|product|||MDC|rsf:gd-|-stype:attr=1|qr_nm:gd|res:RC2|com-cf:nl|ptrs:na|ktp:N0|mc:40137|mtp:S|qry_typ:P|lang:en|wc:2|cs:8829|v=4,False,Kishangarh Bas,Alwar,"Vashishtha Market, Kishangarh Bass, Kishangarh Bas, Alwar - 301405, Dist.Alwar, Rajasthan",,
"Plastic Pink Baby Training Cup, 3-12 Months",https://www.indiamart.com/proddetail/baby-training-cup-21738789897.html?pos=20&kwd=training cup&tags=CC||||9045.955|Price|product|||NA|rsf:gd-|-stype:attr=1|qr_nm:gd|res:RC2|com-cf:nl|ptrs:na|ktp:N0|mc:40137|mtp:S|qry_typ:P|lang:en|wc:2|cs:8829|v=4,Bhavna Agencies,https://www.indiamart.com/bhavnaagencies/?pos=20&kwd=training cup&tags=CC||||9045.955|Price|product|||NA|rsf:gd-|-stype:attr=1|qr_nm:gd|res:RC2|com-cf:nl|ptrs:na|ktp:N0|mc:40137|mtp:S|qry_typ:P|lang:en|wc:2|cs:8829|v=4,False,Coolie Bazar,Kanpur,",76/154,HALSEY ROAD,,, Coolie Bazar, Kanpur - 208001, Uttar Pradesh",8043829326,
Red Kids Training Cup,https://www.indiamart.com/proddetail/kids-training-cup-14678956348.html?pos=21&kwd=training cup&tags=CC||||8211.142|Price|product|||NA|rsf:gd-|-stype:attr=1|qr_nm:gd|res:RC2|com-cf:nl|ptrs:na|ktp:N0|mc:40137|mtp:S|qry_typ:P|lang:en|wc:2|cs:8829|v=4,Shubham International,https://www.indiamart.com/shubhaminternationalmumbai/?pos=21&kwd=training cup&tags=CC||||8211.142|Price|product|||NA|rsf:gd-|-stype:attr=1|qr_nm:gd|res:RC2|com-cf:nl|ptrs:na|ktp:N0|mc:40137|mtp:S|qry_typ:P|lang:en|wc:2|cs:8829|v=4,False,Borivali East,Mumbai,"Shop No. 9, Nensi Cottage, Opposite Nayak Tutorial Near Jain Mandir, Nensi Colony, Borivali East, Borivali East, Mumbai - 400066, Dist.Mumbai, Maharashtra",7942626175,
"Plastic Blue Baby Training Cup, Newly Born, Packaging Type: Box",https://www.indiamart.com/proddetail/baby-training-cup-21642714391.html?pos=22&kwd=training cup&tags=CC||||8690.605|Price|product|||NA|rsf:gd-|-stype:attr=1|qr_nm:gd|res:RC2|com-cf:nl|ptrs:na|ktp:N0|mc:40137|mtp:S|qry_typ:P|lang:en|wc:2|cs:8829|v=4,Inbam Healthcare,https://www.indiamart.com/inbamhealthcare/?pos=22&kwd=training cup&tags=CC||||8690.605|Price|product|||NA|rsf:gd-|-stype:attr=1|qr_nm:gd|res:RC2|com-cf:nl|ptrs:na|ktp:N0|mc:40137|mtp:S|qry_typ:P|lang:en|wc:2|cs:8829|v=4,False,Sarojini Complex,Udangudi,"shop no 218f, Sarojini Complex Bus Stand Road, Sarojini Complex, Udangudi - 628203, Dist.Tuticorin, Tamil Nadu",8043847795,
"Blue Baby Training Cup, Packaging Type: Box, Plastic",https://www.indiamart.com/proddetail/baby-training-cup-21504399473.html?pos=23&kwd=training cup&tags=CC||||8047.7524|Price|product|||NA|rsf:gd-|-stype:attr=1|qr_nm:gd|res:RC2|com-cf:nl|ptrs:na|ktp:N0|mc:40137|mtp:S|qry_typ:P|lang:en|wc:2|cs:8829|v=4,Club India,https://www.indiamart.com/club-india/?pos=23&kwd=training cup&tags=CC||||8047.7524|Price|product|||NA|rsf:gd-|-stype:attr=1|qr_nm:gd|res:RC2|com-cf:nl|ptrs:na|ktp:N0|mc:40137|mtp:S|qry_typ:P|lang:en|wc:2|cs:8829|v=4,False,,Morbi,"Street No. 4, 153, Alif, Avenue Park, Ravapar Road, Morbi - 363641, Dist.Rajkot, Gujarat",8047666187,
"Blue,Green Kids Feeding Training Cup, 0-1 Year",https://www.indiamart.com/proddetail/kids-feeding-training-cup-23417227062.html?pos=24&kwd=training cup&tags=CC||||9829.308|Price|product|||NA|rsf:gd-|-stype:attr=1|qr_nm:gd|res:RC2|com-cf:nl|ptrs:na|ktp:N0|mc:40137|mtp:S|qry_typ:P|lang:en|wc:2|cs:8829|v=4,M/ S Naughty Baby Products,https://www.indiamart.com/naughty-baby-products/?pos=24&kwd=training cup&tags=CC||||9829.308|Price|product|||NA|rsf:gd-|-stype:attr=1|qr_nm:gd|res:RC2|com-cf:nl|ptrs:na|ktp:N0|mc:40137|mtp:S|qry_typ:P|lang:en|wc:2|cs:8829|v=4,False,Salkia,Howrah,"6, Kolu Para Lane, Salkia, Salkia, Howrah - 711106, Dist.Howrah, West Bengal",8048372620,444
4 Stage Training Cup,https://www.indiamart.com/proddetail/4-stage-training-cup-7027571691.html?pos=25&kwd=training cup&tags=CC||||8752.144||product|||NA|rsf:gd-|-stype:attr=1|qr_nm:gd|res:RC2|com-cf:nl|ptrs:na|ktp:N0|mc:40137|mtp:S|qry_typ:P|lang:en|wc:2|cs:8829|v=4,Camey Synthetics Pvt. Ltd.,https://www.indiamart.com/cameysynthetics/?pos=25&kwd=training cup&tags=CC||||8752.144||product|||NA|rsf:gd-|-stype:attr=1|qr_nm:gd|res:RC2|com-cf:nl|ptrs:na|ktp:N0|mc:40137|mtp:S|qry_typ:P|lang:en|wc:2|cs:8829|v=4,False,,New Delhi,"74, Rajasthani Udyog Nagar, Near Jahangir Puri Metro Station, New Delhi - 110033, Dist.Delhi, Delhi",8043803249,
Training Cup - Raspberry,https://www.indiamart.com/proddetail/training-cup-raspberry-2853295006988.html?pos=26&kwd=training cup&tags=CC||||8752.144|Price|product|||NA|rsf:gd-|-stype:attr=1|qr_nm:gd|res:RC2|com-cf:nl|ptrs:na|ktp:N0|mc:40137|mtp:S|qry_typ:P|lang:en|wc:2|cs:8829|v=4,BD Impex,https://www.indiamart.com/company/2395482/?pos=26&kwd=training cup&tags=CC||||8752.144|Price|product|||NA|rsf:gd-|-stype:attr=1|qr_nm:gd|res:RC2|com-cf:nl|ptrs:na|ktp:N0|mc:40137|mtp:S|qry_typ:P|lang:en|wc:2|cs:8829|v=4,False,,New Delhi,"The Moms Darling - Baby Shop 163, Kapil Vihar, Pitampura, New Delhi - 110034, Dist.Delhi, Delhi",,
"Pigeon MagMag Training Straw Cup For 8+ Month, Leak Proof,Spill Proof, 180 ml (4902508038034)",https://www.indiamart.com/proddetail/pigeon-magmag-training-straw-cup-for-8-month-leak-proof-spill-proof-180-ml-4902508038034-2853721134933.html?pos=27&kwd=training cup&tags=CC||||8663.873|Price|product|||NA|rsf:gd-|-stype:attr=1|qr_nm:gd|res:RC2|com-cf:nl|ptrs:na|ktp:N0|mc:40137|mtp:S|qry_typ:P|lang:en|wc:2|cs:8829|v=4,Wellnex,https://www.indiamart.com/wellnex/?pos=27&kwd=training cup&tags=CC||||8663.873|Price|product|||NA|rsf:gd-|-stype:attr=1|qr_nm:gd|res:RC2|com-cf:nl|ptrs:na|ktp:N0|mc:40137|mtp:S|qry_typ:P|lang:en|wc:2|cs:8829|v=4,False,Bangalore,Bengaluru,"NO.25 9TH CROSS, 1ST MAIN, MAGADI ROAD PRASHANTH NAGAR 9th cross, Prashant Nagar, Bangalore, Bengaluru - 560079, Dist.Bengaluru, Karnataka",8046033558,
"Blue And Red Baby Sipper Cup, 3-12 Months",https://www.indiamart.com/proddetail/baby-sipper-cup-23215958055.html?pos=28&kwd=training cup&tags=||||8545.6045|Price|proxy|||MDC|rsf:gd-|-stype:attr=1|qr_nm:gd|res:RC2|com-cf:nl|ptrs:na|ktp:N0|mc:40137|mtp:S|qry_typ:P|lang:en|wc:2|cs:8829|v=4,Shri Siddhivinayak Traders,https://www.indiamart.com/shrisiddhivinayaktraders-firozpur/?pos=28&kwd=training cup&tags=||||8545.6045|Price|proxy|||MDC|rsf:gd-|-stype:attr=1|qr_nm:gd|res:RC2|com-cf:nl|ptrs:na|ktp:N0|mc:40137|mtp:S|qry_typ:P|lang:en|wc:2|cs:8829|v=4,False,Basti Nizamdin,Firozpur,"No.94, Anand Avenue, Backside Marked Office, Malwal Road, Firozpur City, Basti Nizamdin, Firozpur - 152002, Dist.Firozpur, Punjab",8046066644,
Mee Mee Training Cup,https://www.indiamart.com/proddetail/mee-mee-training-cup-10738041791.html?pos=29&kwd=training cup&tags=CC||||8786.56|Price|product|||NA|rsf:gd-|-stype:attr=1|qr_nm:gd|res:RC2|com-cf:nl|ptrs:na|ktp:N0|mc:40137|mtp:S|qry_typ:P|lang:en|wc:2|cs:8829|v=4,Yash Agencies,https://www.indiamart.com/yashagencies-hyderabad/?pos=29&kwd=training cup&tags=CC||||8786.56|Price|product|||NA|rsf:gd-|-stype:attr=1|qr_nm:gd|res:RC2|com-cf:nl|ptrs:na|ktp:N0|mc:40137|mtp:S|qry_typ:P|lang:en|wc:2|cs:8829|v=4,False,Ameerpet,Hyderabad,"Door No. 6-3-850/1 & 9/7, Sirisha Plaza, Opposite Sheeshmahal Theatre, Ameerpet, Mahesh Bank, Ameerpet, Hyderabad - 500016, Dist.Hyderabad, Telangana",8043838007,
Nandini Marketing Company,,Nandini Marketing Company,https://www.nandinimarketing.com/?pos=30&kwd=training cup&tags=||||8663.873||bl|||TS|rsf:gd-|-stype:attr=1|qr_nm:gd|res:RC2|com-cf:nl|ptrs:na|ktp:N0|mc:40137|mtp:S|qry_typ:P|lang:en|wc:2|cs:8829|v=4,False,Rajarajeshwari Nagar Janapriya Abodes,Bengaluru,"174, Ground Floor, Nandini Mansion, 3rd Main, 5th Cross, Kenchenahalli, Rajarajeshwari Nagar, Bangalore,bengaluru (Bangalore) Urban, Rajarajeshwari Nagar Janapriya Abodes, Bengaluru - 560098, Dist.Bengaluru, Karnataka",8048976564,
Baby Glass Feeding Bottles,https://www.indiamart.com/proddetail/baby-glass-feeding-bottles-2851620502630.html?pos=31&kwd=training cup&tags=||||8752.144|Price|proxy|||MDC|rsf:gd-|-stype:attr=1|qr_nm:gd|res:RC2|com-cf:nl|ptrs:na|ktp:N0|mc:40137|mtp:S|qry_typ:P|lang:en|wc:2|cs:8829|v=4,Goldensun,https://www.indiamart.com/goldensun/?pos=31&kwd=training cup&tags=||||8752.144|Price|proxy|||MDC|rsf:gd-|-stype:attr=1|qr_nm:gd|res:RC2|com-cf:nl|ptrs:na|ktp:N0|mc:40137|mtp:S|qry_typ:P|lang:en|wc:2|cs:8829|v=4,False,Rajouri Garden,New Delhi,"Shop No 44, Ground Floor, DDU Market Tatarpur Rajouri Garden, West, Rajouri Garden, New Delhi - 110027, Dist.Delhi, Delhi",7942788270,
Small Wonder Feeding Bottle Training Set,,Agrima Enterprises,https://www.indiamart.com/agrima-enterprises-kanpur/?pos=32&kwd=training cup&tags=||||9062.178||product|||NA|rsf:gd-|-stype:attr=1|qr_nm:gd|res:RC2|com-cf:nl|ptrs:na|ktp:N0|mc:40137|mtp:S|qry_typ:P|lang:en|wc:2|cs:8829|v=4,False,Chetganj,Unnao,"12/205 Gandhi Nagar Shuklaganj Unnao, Chetganj, Unnao - 209861, Dist.Unnao, Uttar Pradesh",8048372186,381
"Orange (Base) Plastic Mee Mee Spout Straw Sipper Cup, Packaging Type: Bottle, 3-12 Months",https://www.indiamart.com/proddetail/mee-mee-spout-straw-sipper-cup-2851975878933.html?pos=33&kwd=training cup&tags=||||8823.154|Price|product|||NA|rsf:gd-|-stype:attr=1|qr_nm:gd|res:RC2|com-cf:nl|ptrs:na|ktp:N0|mc:40137|mtp:S|qry_typ:P|lang:en|wc:2|cs:8829|v=4,Yahoo Fabs,https://www.indiamart.com/yahoo-fabs/?pos=33&kwd=training cup&tags=||||8823.154|Price|product|||NA|rsf:gd-|-stype:attr=1|qr_nm:gd|res:RC2|com-cf:nl|ptrs:na|ktp:N0|mc:40137|mtp:S|qry_typ:P|lang:en|wc:2|cs:8829|v=4,False,,Agra,"58, Jaipur House, Loha Mandi, Agra - 282002, Dist.Agra, Uttar Pradesh",7942870014,
"Whale Spray Sippy Cup (1 Pc): Straw, Lid, Spill-proof, Fun Water Play",https://www.indiamart.com/proddetail/whale-spray-sippy-cup-1-pc-straw-lid-spill-proof-fun-water-play-2854452300291.html?pos=34&kwd=training cup&tags=||||7981.7773|Price|product|||FCPE|rsf:gd-|-stype:attr=1|qr_nm:gd|res:RC2|com-cf:nl|ptrs:na|ktp:N0|mc:40137|mtp:S|qry_typ:P|lang:en|wc:2|cs:8829|v=4,Aakash Enterprise,https://www.indiamart.com/aakash-enterprise-gandhidham/?pos=34&kwd=training cup&tags=||||7981.7773|Price|product|||FCPE|rsf:gd-|-stype:attr=1|qr_nm:gd|res:RC2|com-cf:nl|ptrs:na|ktp:N0|mc:40137|mtp:S|qry_typ:P|lang:en|wc:2|cs:8829|v=4,False,GANDHIDHAM,Gandhidham,"PLOT NO-81,,NH NO -8/A,PADANA PLOT NO 81 SURVEY 90,370201, GANDHIDHAM, Gandhidham - 370201, Dist.Kachchh, Gujarat",,
Baby Feeding Set For Kids And Toddlers (7 Pcs Set),https://www.indiamart.com/proddetail/baby-feeding-set-for-kids-and-toddlers-7-pcs-set-2854513959248.html?pos=35&kwd=training cup&tags=||||8741.812|Price|product|||NA|rsf:gd-|-stype:attr=1|qr_nm:gd|res:RC2|com-cf:nl|ptrs:na|ktp:N0|mc:40137|mtp:S|qry_typ:P|lang:en|wc:2|cs:8829|v=4,Go5 Incorporation,https://www.indiamart.com/go5incorporation/?pos=35&kwd=training cup&tags=||||8741.812|Price|product|||NA|rsf:gd-|-stype:attr=1|qr_nm:gd|res:RC2|com-cf:nl|ptrs:na|ktp:N0|mc:40137|mtp:S|qry_typ:P|lang:en|wc:2|cs:8829|v=4,False,,Gurugram,"T 2/13, DLF Phase 3, Gurugram - 122002, Dist.Gurgaon, Haryana",,
Baby Feeding Set For Kids And Toddlers (7 Pcs Set),https://www.indiamart.com/proddetail/baby-feeding-set-for-kids-and-toddlers-7-pcs-set-2853102549733.html?pos=36&kwd=training cup&tags=||||8038.093|Price|product|||NA|rsf:gd-|-stype:attr=1|qr_nm:gd|res:RC2|com-cf:nl|ptrs:na|ktp:N0|mc:40137|mtp:S|qry_typ:P|lang:en|wc:2|cs:8829|v=4,Deodap International Private Limited,https://www.indiamart.com/deodapinternationalprivatelimited-rajkot/?pos=36&kwd=training cup&tags=||||8038.093|Price|product|||NA|rsf:gd-|-stype:attr=1|qr_nm:gd|res:RC2|com-cf:nl|ptrs:na|ktp:N0|mc:40137|mtp:S|qry_typ:P|lang:en|wc:2|cs:8829|v=4,False,,Rajkot,"Plot No. 1 Rsn 112/3 Rangoli Masala Street Nr Ruda Transport Nagar Ruda Transport Nagar, Rajkot - 360003, Dist.Rajkot, Gujarat",,
Baby Feeding Set For Kids And Toddlers (7 Pcs Set),https://www.indiamart.com/proddetail/baby-feeding-set-for-kids-and-toddlers-7-pcs-set-2855060695688.html?pos=37&kwd=training cup&tags=||||9289.285|Price|product|||FCPE|rsf:gd-|-stype:attr=1|qr_nm:gd|res:RC2|com-cf:nl|ptrs:na|ktp:N0|mc:40137|mtp:S|qry_typ:P|lang:en|wc:2|cs:8829|v=4,darling lifestyle,https://www.indiamart.com/darling-lifestyle/?pos=37&kwd=training cup&tags=||||9289.285|Price|product|||FCPE|rsf:gd-|-stype:attr=1|qr_nm:gd|res:RC2|com-cf:nl|ptrs:na|ktp:N0|mc:40137|mtp:S|qry_typ:P|lang:en|wc:2|cs:8829|v=4,False,,Visakhapatnam,"karri banu s/o k abbainaidu ration depo 3 karri street s rayavaram po vill md visakhapatnam distc andhrapradesh, Visakhapatnam - 531060, Dist.Visakhapatnam, Andhra Pradesh",,
Baby Feeding Set For Kids And Toddlers (7 Pcs Set),https://www.indiamart.com/proddetail/baby-feeding-set-for-kids-and-toddlers-7-pcs-set-2854348942397.html?pos=38&kwd=training cup&tags=||||8706.587|Price|product|||NA|rsf:gd-|-stype:attr=1|qr_nm:gd|res:RC2|com-cf:nl|ptrs:na|ktp:N0|mc:40137|mtp:S|qry_typ:P|lang:en|wc:2|cs:8829|v=4,offersonlineshop.in,https://www.indiamart.com/offersonlineshopin/?pos=38&kwd=training cup&tags=||||8706.587|Price|product|||NA|rsf:gd-|-stype:attr=1|qr_nm:gd|res:RC2|com-cf:nl|ptrs:na|ktp:N0|mc:40137|mtp:S|qry_typ:P|lang:en|wc:2|cs:8829|v=4,False,,Madurai,"Pin code :- 625514 City :- madurai State :- tamilnadu madurai 625514 Tamil Nadu, Madurai - 625514, Dist.Madurai, Tamil Nadu",,
"Whale Spray Sippy Cup (1 Pc): Straw, Lid, Spill-proof, Fun Water Play",https://www.indiamart.com/proddetail/whale-spray-sippy-cup-1-pc-straw-lid-spill-proof-fun-water-play-2854457192430.html?pos=39&kwd=training cup&tags=||||8786.56|Price|product|||FCPE|rsf:gd-|-stype:attr=1|qr_nm:gd|res:RC2|com-cf:nl|ptrs:na|ktp:N0|mc:40137|mtp:S|qry_typ:P|lang:en|wc:2|cs:8829|v=4,Jaatara,https://www.indiamart.com/company/225931792/?pos=39&kwd=training cup&tags=||||8786.56|Price|product|||FCPE|rsf:gd-|-stype:attr=1|qr_nm:gd|res:RC2|com-cf:nl|ptrs:na|ktp:N0|mc:40137|mtp:S|qry_typ:P|lang:en|wc:2|cs:8829|v=4,False,,Cyberabad,"8-4-376/22, New Shastri Nagar Erragadda, Hyderabad - 500018 Telangana, Cyberabad - 500018, Dist.Hyderabad, Andhra Pradesh",,
"Baby Feeding Set for Kids and Toddlers,Children Children Dinnerware Set - Bamboo Fibre Feeding Set for Kids, Cartoon Design Plate, Cup, Spoon, Fork and Chopsticks, Tableware Cutlery for Kids Microwave & Dishwasher Safe (7 Pcs Set)",https://www.indiamart.com/proddetail/baby-feeding-set-for-kids-and-toddlers-children-children-dinnerware-set-bamboo-fibre-feeding-set-for-kids-cartoon-design-plate-cup-spoon-fork-and-chopsticks-tableware-cutlery-for-kids-microwave-dishwasher-safe-7-pcs-set-2853497027191.html?pos=40&kwd=training cup&tags=||||9733.506|Price|product|||NA|rsf:gd-|-stype:attr=1|qr_nm:gd|res:RC2|com-cf:nl|ptrs:na|ktp:N0|mc:40137|mtp:S|qry_typ:P|lang:en|wc:2|cs:8829|v=4,WaferKart,https://www.indiamart.com/waferkart/?pos=40&kwd=training cup&tags=||||9733.506|Price|product|||NA|rsf:gd-|-stype:attr=1|qr_nm:gd|res:RC2|com-cf:nl|ptrs:na|ktp:N0|mc:40137|mtp:S|qry_typ:P|lang:en|wc:2|cs:8829|v=4,False,,Durgapur,"RAILPAR TANKITALA PANAGARH, Durgapur - 713148, West Bengal",,
Baby Feeding Set For Kids And Toddlers (7 Pcs Set),https://www.indiamart.com/proddetail/baby-feeding-set-for-kids-and-toddlers-7-pcs-set-2854643132997.html?pos=41&kwd=training cup&tags=||||9848.189|Price|product|||NA|rsf:gd-|-stype:attr=1|qr_nm:gd|res:RC2|com-cf:nl|ptrs:na|ktp:N0|mc:40137|mtp:S|qry_typ:P|lang:en|wc:2|cs:8829|v=4,Offers Voyage,https://www.indiamart.com/offers-voyage/?pos=41&kwd=training cup&tags=||||9848.189|Price|product|||NA|rsf:gd-|-stype:attr=1|qr_nm:gd|res:RC2|com-cf:nl|ptrs:na|ktp:N0|mc:40137|mtp:S|qry_typ:P|lang:en|wc:2|cs:8829|v=4,False,,Siliguri,"Dasrath Pally Bhanu Nagar, Siliguri - 734001, Dist.Darjiling, West Bengal",,
Deluxe Feeding Cup,,National Baby Products,https://www.indiamart.com/nationalbabyproducts/?pos=42&kwd=training cup&tags=CC||||8211.142||product|||MDC|rsf:gd-|-stype:attr=1|qr_nm:gd|res:RC2|com-cf:nl|ptrs:na|ktp:N0|mc:40137|mtp:S|qry_typ:P|lang:en|wc:2|cs:8829|v=4,False,Sewri,Mumbai,"3rd Floor, D 22/23, Acme Industrial Estate, Sewri East, Sewri, Mumbai - 400015, Dist.Mumbai, Maharashtra",7948548024,
Training Cup BF-197,,Manisha Intarnational Private Limited,https://www.indiamart.com/manisha-international-india/?pos=43&kwd=training cup&tags=CA||||8752.144||product|||NA|rsf:gd-|-stype:attr=1|qr_nm:gd|res:RC2|com-cf:nl|ptrs:na|ktp:N0|mc:40137|mtp:S|qry_typ:P|lang:en|wc:2|cs:8829|v=4,False,Saidulajab,New Delhi,"No. 1- A, First Floor, Khasra No. 275, Westend Marg, Saidulajab, Saidulajab, New Delhi - 110030, Dist.Delhi, Delhi",8047689247,
Baby Shippy Cup,,P.B. Sethi Plastics,https://www.indiamart.com/pb-sethi-plastics/?pos=44&kwd=training cup&tags=CA||||9045.955||product|||NA|rsf:gd-|-stype:attr=1|qr_nm:gd|res:RC2|com-cf:nl|ptrs:na|ktp:N0|mc:40137|mtp:S|qry_typ:P|lang:en|wc:2|cs:8829|v=4,False,Rai Purwa,Kanpur,"No. 86/291, GT Road, Rai Purwa, Kanpur - 208003, Uttar Pradesh",8048201447,
Training Cup,,Sri Sai Pharama,https://www.indiamart.com/sri-sai-pharama/?pos=45&kwd=training cup&tags=CC||||8663.873||product|||NA|rsf:gd-|-stype:attr=1|qr_nm:gd|res:RC2|com-cf:nl|ptrs:na|ktp:N0|mc:40137|mtp:S|qry_typ:P|lang:en|wc:2|cs:8829|v=4,False,Indiranagar,Bengaluru,"3/1, 12th Cross, Opposite Apoorva Diagnostic Center, C M H Road, Indiranagar, Bengaluru - 560038, Dist.Bengaluru, Karnataka",8062245053,372
Training Cup,,Shreedhar Enterprise,https://www.indiamart.com/shreedhar-trading/?pos=46&kwd=training cup&tags=CC||||8228.275||product|||NA|rsf:gd-|-stype:attr=1|qr_nm:gd|res:RC2|com-cf:nl|ptrs:na|ktp:N0|mc:40137|mtp:S|qry_typ:P|lang:en|wc:2|cs:8829|v=4,False,Vatva,Ahmedabad,"62, Neelkanth Industrial Park, Ambica Tube Compound, Vatva, Vatva, Ahmedabad - 382445, Dist.Ahmedabad, Gujarat",8047812847,
Training Cup,,GSPL Care Product,https://www.indiamart.com/gspl-care-products/?pos=47&kwd=training cup&tags=CC||||8752.144||product|||NA|rsf:gd-|-stype:attr=1|qr_nm:gd|res:RC2|com-cf:nl|ptrs:na|ktp:N0|mc:40137|mtp:S|qry_typ:P|lang:en|wc:2|cs:8829|v=4,False,Janakpuri,New Delhi,"No. 610, Suneja Tower 2, Janakpuri, Janakpuri, New Delhi - 110058, Dist.Delhi, Delhi",8062245077,451
Avs Training Cup,,Shree Sai International,https://www.indiamart.com/shree-sai-international-surat/?pos=48&kwd=training cup&tags=CC||||8230.883|Price|product|||NA|rsf:gd-|-stype:attr=1|qr_nm:gd|res:RC2|com-cf:nl|ptrs:na|ktp:N0|mc:40137|mtp:S|qry_typ:P|lang:en|wc:2|cs:8829|v=4,False,NANA VARACHHA,Surat,"BASEMANT PARISH POINT NEAR SILVER POINT NANA VARACHHA DHAL, NANA VARACHHA, Surat - 395006, Dist.Surat, Gujarat",8048372060,792
Baby Training Cup,,Viral Enterprises / Jack N Jill,https://www.indiamart.com/viral-enterprises-jack-n-jill/?pos=49&kwd=training cup&tags=CC||||8223.226||product|||NA|rsf:gd-|-stype:attr=1|qr_nm:gd|res:RC2|com-cf:nl|ptrs:na|ktp:N0|mc:40137|mtp:S|qry_typ:P|lang:en|wc:2|cs:8829|v=4,False,,Thane,"Ground Floor,12, Plot No 12/14,Abdul Rehman Street,Sasoor Building,Mumbai, Thane - 400002, Dist.Thane, Maharashtra",8069023918,669
Philips Training Cup,,Safelife Medizone,https://www.indiamart.com/safelife-medizone/?pos=50&kwd=training cup&tags=CC||||8307.81||product|||NA|rsf:gd-|-stype:attr=1|qr_nm:gd|res:RC2|com-cf:nl|ptrs:na|ktp:N0|mc:40137|mtp:S|qry_typ:P|lang:en|wc:2|cs:8829|v=4,False,Ground Floor Kingsport Homes Society,Pune,"Rh No- 5 Plot No 73a, Pune, Ground Floor Kingsport Homes Society, Pune - 411014, Dist.Pune, Maharashtra",8069728304,670
Baby Training Cup,,Bhatia General Store,https://www.indiamart.com/bhatia-general-store-moradabad/?pos=51&kwd=training cup&tags=CC||||8915.672|Price|product|||NA|rsf:gd-|-stype:attr=1|qr_nm:gd|res:RC2|com-cf:nl|ptrs:na|ktp:N0|mc:40137|mtp:S|qry_typ:P|lang:en|wc:2|cs:8829|v=4,False,GMD Road,Moradabad,"Chowk Tari Khana, GMD Road, GMD Road, Moradabad - 244001, Dist.Moradabad, Uttar Pradesh",8048249674,1545
chicco training cup,,A V Traders,https://www.indiamart.com/avtraders-pune/?pos=52&kwd=training cup&tags=CC||||8307.81|Price|product|||NA|rsf:gd-|-stype:attr=1|qr_nm:gd|res:RC2|com-cf:nl|ptrs:na|ktp:N0|mc:40137|mtp:S|qry_typ:P|lang:en|wc:2|cs:8829|v=4,False,,Pune,"1131 Plot No 102 Bhopatkar Road Vishnu Prasad Society Sadashiv Peth, Pune - 411030, Dist.Pune, Maharashtra",8047683868,
Baby Milk Training Cup,,Medwin Enterprises,https://www.indiamart.com/medwin-enterprises/?pos=53&kwd=training cup&tags=CC||||8954.051||product|||NA|rsf:gd-|-stype:attr=1|qr_nm:gd|res:RC2|com-cf:nl|ptrs:na|ktp:N0|mc:40137|mtp:S|qry_typ:P|lang:en|wc:2|cs:8829|v=4,False,Ramalingapuram,Chennai,"5, Swamy Bhakthan Street, NA, Ramalingapuram, Chennai - 600012, Dist.Chennai, Tamil Nadu",8069023790,733
TRAINING CUP (200ML) (4M+),,Little Kingdom India Pvt. Ltd.,https://www.indiamart.com/little-kingdom-india-pvt-ltd/?pos=54&kwd=training cup&tags=CC||||8752.144||product|||NA|rsf:gd-|-stype:attr=1|qr_nm:gd|res:RC2|com-cf:nl|ptrs:na|ktp:N0|mc:40137|mtp:S|qry_typ:P|lang:en|wc:2|cs:8829|v=4,False,,Delhi,", Delhi, Dist.Delhi, Delhi",8069051338,341
Oxo Tot Training Cup,,Olympia Industries Ltd.,https://www.indiamart.com/olympia-industries-private-limited/?pos=55&kwd=training cup&tags=CC||||8211.142||product|||NA|rsf:gd-|-stype:attr=1|qr_nm:gd|res:RC2|com-cf:nl|ptrs:na|ktp:N0|mc:40137|mtp:S|qry_typ:P|lang:en|wc:2|cs:8829|v=4,False,,Mumbai,"No. 90, FIT Road, Sakinaka, Mumbai - 400072, Dist.Mumbai, Maharashtra",8048372920,855
MOM'S BABIE TRAINING CUP,,Prime Care,https://www.indiamart.com/ms-prime-care/?pos=56&kwd=training cup&tags=CC||||8211.142||product|||NA|rsf:gd-|-stype:attr=1|qr_nm:gd|res:RC2|com-cf:nl|ptrs:na|ktp:N0|mc:40137|mtp:S|qry_typ:P|lang:en|wc:2|cs:8829|v=4,False,,Mumbai,"2nd Floor 202 St Anthony Street Savitri Sadan Chs Ltd, Mumbai - 400055, Dist.Mumbai, Maharashtra",8048249683,3225
Florist Training,,Seven ( Route To Success),https://www.indiamart.com/seven-route-to-success/?pos=57&kwd=training cup&tags=CC||||10292.138||product|||NA|rsf:gd-|-stype:attr=1|qr_nm:gd|res:RC2|com-cf:nl|ptrs:na|ktp:N0|mc:40137|mtp:S|qry_typ:P|lang:en|wc:2|cs:8829|v=4,False,2nd Ward Number 9.,Hojai,"House Holding Number 142,2nd,Ward Number 9,Thakurbari Road,Hojai,Nagaon Thakurbari Road., 2nd Ward Number 9., Hojai - 782435, Dist.Nagaon, Assam",8069264811,883
Geoinformatics Training,,Geomaticx Scientific Technology Services Private Limited,https://www.indiamart.com/geomaticx-scientific-technology-services-private-limited-kolkata/?pos=58&kwd=training cup&tags=CC||||9839.57||product|||NA|rsf:gd-|-stype:attr=1|qr_nm:gd|res:RC2|com-cf:nl|ptrs:na|ktp:N0|mc:40137|mtp:S|qry_typ:P|lang:en|wc:2|cs:8829|v=4,False,Chittaranjan Colony,Kolkata,"3/81, Jadavpur, Chittaranjan Colony, Kolkata - 700032, Dist.Kolkata, West Bengal",8048265544,532
Franchise Training,,Genericplus Pharmacy Private Limited,https://www.indiamart.com/genericplus-pharmacy-private-limited-mumbai/?pos=59&kwd=training cup&tags=CC||||8211.142||product|||NA|rsf:gd-|-stype:attr=1|qr_nm:gd|res:RC2|com-cf:nl|ptrs:na|ktp:N0|mc:40137|mtp:S|qry_typ:P|lang:en|wc:2|cs:8829|v=4,False,,Mumbai,"2nd Floor Shop No 14 42/44, Babu Genu Road, Kalbadevi Om Shanti Chs Mumbai, Mumbai - 400002, Dist.Mumbai, Maharashtra",8069017215,450
Heating Cup,,Shree Sai Mobiles,https://www.indiamart.com/shree-sai-mobiles-mayurbhanj/?pos=60&kwd=training cup&tags=CC||||9638.391||product|||NA|rsf:gd-|-stype:attr=1|qr_nm:gd|res:RC2|com-cf:nl|ptrs:na|ktp:N0|mc:40137|mtp:S|qry_typ:P|lang:en|wc:2|cs:8829|v=4,False,ward no 9. rairangpur,Mayurbhanj,"ward No 05 Gandhi Market Baripada Bazaar, ward no 9. rairangpur, Mayurbhanj - 757001, Dist.Mayurbhanj, Odisha",8069013450,801
Iron Cup,,Vibhuti Consultant And Designers,https://www.indiamart.com/vibhuti-consultant-and-designers/?pos=61&kwd=training cup&tags=CC||||8281.036||product|||NA|rsf:gd-|-stype:attr=1|qr_nm:gd|res:RC2|com-cf:nl|ptrs:na|ktp:N0|mc:40137|mtp:S|qry_typ:P|lang:en|wc:2|cs:8829|v=4,False,,Vadodara,"groundafloor 340/13 makarpura gidc vadodara, Vadodara - 390010, Dist.Vadodara, Gujarat",8069017432,515
Iron cup,,Ses Handicraft,https://www.indiamart.com/as-hundicraft/?pos=62&kwd=training cup&tags=CC||||8915.672|Price|product|||NA|rsf:gd-|-stype:attr=1|qr_nm:gd|res:RC2|com-cf:nl|ptrs:na|ktp:N0|mc:40137|mtp:S|qry_typ:P|lang:en|wc:2|cs:8829|v=4,False,,Moradabad,"0 0 Aslam House, Moradabad - 244413, Dist.Moradabad, Uttar Pradesh",8069707350,933
chatgpt training in gurugram,,Chatgpt Institute,https://www.indiamart.com/chatgpt-institute/?pos=63&kwd=training cup&tags=CC||||8741.812||product|||NA|rsf:gd-|-stype:attr=1|qr_nm:gd|res:RC2|com-cf:nl|ptrs:na|ktp:N0|mc:40137|mtp:S|qry_typ:P|lang:en|wc:2|cs:8829|v=4,False,M-24 Old DLF Colony Sector 14 Gurugram 122001,Gurugram,"M-24 M-24 Old DLF Colony, Sector 14 Gurugram 122001, M-24 Old DLF Colony Sector 14 Gurugram 122001, Gurugram - 122001, Dist.Gurgaon, Haryana",8047311017,5878
Aluminium training buy 1,,Falak Enterprise,https://www.indiamart.com/falak-enterprise-vadodara/?pos=64&kwd=training cup&tags=CC||||8281.036||product|||NA|rsf:gd-|-stype:attr=1|qr_nm:gd|res:RC2|com-cf:nl|ptrs:na|ktp:N0|mc:40137|mtp:S|qry_typ:P|lang:en|wc:2|cs:8829|v=4,False,,Vadodara,"89 Beside Masjid,g.i.d.c Vadsar Road Kashiba Nagar, Vadodara - 390010, Dist.Vadodara, Gujarat",8048372358,651
Blender Cup With Straw Green,,Sharda Innovations,https://www.indiamart.com/sharda-innovations/?pos=65&kwd=training cup&tags=CC||||8752.144||product|||NA|rsf:gd-|-stype:attr=1|qr_nm:gd|res:RC2|com-cf:nl|ptrs:na|ktp:N0|mc:40137|mtp:S|qry_typ:P|lang:en|wc:2|cs:8829|v=4,False,,New Delhi,"Sang Trashan Bara Gali Xv-3130 New Delhi, New Delhi - 110055, Dist.Delhi, Delhi",8048249835,583
Asees Baby 2 In 1 Little Cup,,A.G. Sons,https://www.indiamart.com/ag-sons-anantnag/?pos=66&kwd=training cup&tags=CC||||8639.0||product|||NA|rsf:gd-|-stype:attr=1|qr_nm:gd|res:RC2|com-cf:nl|ptrs:na|ktp:N0|mc:40137|mtp:S|qry_typ:P|lang:en|wc:2|cs:8829|v=4,False,Khad Bazar,Anantnag,"0 0 Khabazar Alshafa Building Anantnag, Khad Bazar, Anantnag - 192101, Dist.Anantnag, Jammu & Kashmir",8048249682,4776
2 in 1 spout & straw sipper cup,,Chaithra Enterprises,https://www.indiamart.com/chaithra-enterprises-mysuru/?pos=67&kwd=training cup&tags=CC||||8556.61||product|||NA|rsf:gd-|-stype:attr=1|qr_nm:gd|res:RC2|com-cf:nl|ptrs:na|ktp:N0|mc:40137|mtp:S|qry_typ:P|lang:en|wc:2|cs:8829|v=4,False,,Mysuru,"No 294,Lalithadripura,Jss Layout 2nd Stage,Mysuru,Mysuru, Mysuru - 570028, Dist.Mysuru, Karnataka",8069196709,619
"Camera New-Safe Non Drip Straw Cup , 180ml/6 Oz (23116)",,Prem Medical And Optical Store,https://www.indiamart.com/prem-medical-optical-store/?pos=68&kwd=training cup&tags=CC||||8675.777|Price|product|||NA|rsf:gd-|-stype:attr=1|qr_nm:gd|res:RC2|com-cf:nl|ptrs:na|ktp:N0|mc:40137|mtp:S|qry_typ:P|lang:en|wc:2|cs:8829|v=4,False,Hoshiarpur,Hoshiarpur,",H No - 302 Railway Road, Hoshiarpur, Hoshiarpur - 146001, Dist.Hoshiarpur, Punjab",8043819984,
Umrah Tranning,,The Pilgrim Beez,https://www.indiamart.com/the-pilgrim-beez/?pos=69&kwd=training cup&tags=CC||||8228.275||product|||NA|rsf:gd-|-stype:attr=1|qr_nm:gd|res:RC2|com-cf:nl|ptrs:na|ktp:N0|mc:40137|mtp:S|qry_typ:P|lang:en|wc:2|cs:8829|v=4,False,,Ahmedabad,"A-22,MAKKANAGAR CO OP H SOCIETY,B/H VEJALPUR TELEPHONE EXCHANGE, VEJALPUR ROAD,JUHAPURA A-22, MAKKANAGAR CO OP H SOCIETY, B/H VEJALPUR TELEPHONE EXCHANGE, VEJALPUR ROAD, JUHAPURA, Ahmedab, Ahmedabad - 380055, Dist.Ahmedabad, Gujarat",8048372200,540
Beakers/Training Cups,,Plk Babys World,https://www.indiamart.com/plk-babys-world/?pos=70&kwd=training cup&tags=CC||||8774.064||product|||NA|rsf:gd-|-stype:attr=1|qr_nm:gd|res:RC2|com-cf:nl|ptrs:na|ktp:N0|mc:40137|mtp:S|qry_typ:P|lang:en|wc:2|cs:8829|v=4,False,,Tiruchirappalli,"No.356, 4th Cross, Chillai Nagar, Trichi, Tiruchirappalli - 620018, Dist.Tiruchirappalli, Tamil Nadu",8048372465,464
Miracle 360 Magic Cup,,Shree Shyam Exim,https://www.indiamart.com/shreeshyamexim-new-delhi/?pos=71&kwd=training cup&tags=CC||||8752.144|Price|product|||NA|rsf:gd-|-stype:graph-attr=1|qr_nm:gd|res:RC1-R7|com-cf:nl|ptrs:na|ktp:N0|mc:40137|mtp:S|qry_typ:P|lang:en|wc:2|cs:9585|v=4,False,nangloi,New Delhi,"4287/13 Gali Bahuji, Pahari Dhiraj, nangloi, New Delhi - 110085, Dist.Delhi, Delhi",7942649298,
Kids Training Cup,,Suhani Collection,https://www.indiamart.com/suhani-collection-newdelhi/?pos=72&kwd=training cup&tags=||||8752.144||product|||NA|rsf:gd-|-stype:graph-attr=1|qr_nm:gd|res:RC1-R7|com-cf:nl|ptrs:na|ktp:N0|mc:40137|mtp:S|qry_typ:P|lang:en|wc:2|cs:9585|v=4,False,Rani Bagh,New Delhi,"B-645, Rishi Nagar, Rani Bagh, Rani Bagh, New Delhi - 110034, Dist.Delhi, Delhi",8048261414,167
Baby Potato Training Cup,,Sri Chamunda,https://www.indiamart.com/sri-chamunda/?pos=73&kwd=training cup&tags=||||8954.051||product|||NA|rsf:gd-|-stype:graph-attr=1|qr_nm:gd|res:RC1-R7|com-cf:nl|ptrs:na|ktp:N0|mc:40137|mtp:S|qry_typ:P|lang:en|wc:2|cs:9585|v=4,False,George Town,Chennai,"10k, Kasi Chetty Lane, Alwar Plaza, Ground Floor, George Town, Chennai - 600079, Dist.Chennai, Tamil Nadu",8048361267,455
Training Cup,,GSPL Care Product,https://www.indiamart.com/gspl-care-products/?pos=74&kwd=training cup&tags=CC||||8752.144||product|||NA|rsf:gr-|-stype:graph-attr=1|qr_nm:gd|res:RC1-R7|com-cf:nl|ptrs:na|ktp:N0|mc:40137|mtp:S|qry_typ:P|lang:en|wc:2|cs:9585|v=4,False,Janakpuri,New Delhi,"No. 610, Suneja Tower 2, Janakpuri, Janakpuri, New Delhi - 110058, Dist.Delhi, Delhi",8062245077,451
Training Cup,,Sri Sai Pharama,https://www.indiamart.com/sri-sai-pharama/?pos=75&kwd=training cup&tags=CC||||8663.873||product|||NA|rsf:gr-|-stype:graph-attr=1|qr_nm:gd|res:RC1-R7|com-cf:nl|ptrs:na|ktp:N0|mc:40137|mtp:S|qry_typ:P|lang:en|wc:2|cs:9585|v=4,False,Indiranagar,Bengaluru,"3/1, 12th Cross, Opposite Apoorva Diagnostic Center, C M H Road, Indiranagar, Bengaluru - 560038, Dist.Bengaluru, Karnataka",8062245053,372
Training Cup,,Satnam Collection,https://www.indiamart.com/satnamcollection-jaipur/?pos=76&kwd=training cup&tags=CC||||8601.347||product|||NA|rsf:gr-|-stype:graph-attr=1|qr_nm:gd|res:RC1-R7|com-cf:nl|ptrs:na|ktp:N0|mc:40137|mtp:S|qry_typ:P|lang:en|wc:2|cs:9585|v=4,False,Nahrghad Road,Jaipur,"1880, Jai Lal Munshi Ka Rasta,, Nahrghad Road, Jaipur - 302001, Dist.Jaipur, Rajasthan",8046060739,
